idpoi,title,layer,type,subcategoria,address,postcode,phone,web,description,image_uri,lat,lon,mp3_uri,lang
8688,Auditorio del Museo de Arte Contemporánea de Vigo (MARCO),lugares,37,Auditorio,"Príncipe, 54",36202,986113900,www.marcovigo.com,Espacio habilitado para la realización de eventos públicos.,http://www.turismodevigo.org/sites/turismodevigo/files/lug325.jpg,42.2358593745221,-8.721064892983577,http://www.turismodevigo.org/sites/turismodevigo/files/09-museo_de_arte_contemporaneo_de_vigo_0.mp3,es-ES
8433,Casa Enrique Mülder,lugares,37,Arquitectura civil,"Avda Montero Ríos, 22",36201,,,"Es una de las obras con carácter más modernista del arquitecto Gómez Román aunque también presenta influencias eclécticas, vienesas y belgas.",http://www.turismodevigo.org/sites/turismodevigo/files/lug052.jpg,42.2402628825264,-8.722306001475545,http://www.turismodevigo.org/sites/turismodevigo/files/07-edificio_mulder_cast.mp3,es-ES
8459,Colegiata de Santa María (Concatedral),lugares,37,Arquitectura religiosa,Plaza de la Colegiata,36202,,,"Edificio religioso de estilo Neoclásico de principios del siglo XIX, obra de Melchor de Prado. Actualmente es Concatedral de la diócesis de Tui-Vigo.",http://www.turismodevigo.org/sites/turismodevigo/files/lug078.jpg,42.2392728022593,-8.725825075030343,http://www.turismodevigo.org/sites/turismodevigo/files/06-concatedral_de_vigo_cast.mp3,es-ES
8428,Casa de Pazos e Figueroa,lugares,37,Arquitectura civil,"Plaza de Almeida, 4",36202,,,"Palacete urbano situado en el barrio histórico de la ciudad. Forma unidad arquitectónica con la Casa de Ceta; en la actualidad, ambos conforman la sede del Instituto Camôes de cultura portuguesa en Vigo. Data del siglo XVI.",http://www.turismodevigo.org/sites/turismodevigo/files/lug047.jpg,42.2391856088788,-8.726658277905358,http://www.turismodevigo.org/sites/turismodevigo/files/05-torre_y_casa_de_los_pazos_de_figueroa.mp3,es-ES
8685,Auditorio del Club Financiero de Vigo,lugares,37,Auditorio,García Barbón 62,36201,986447220,www.clubfinancierovigo.com,Espacio habilitado para la realización de eventos públicos.,http://www.turismodevigo.org/sites/turismodevigo/files/lug322.jpg,42.2366756596314,-8.71221986331063,,es-ES
8684,Auditorio de la Cámara de Comercio de Vigo,lugares,37,Auditorio,"República Argentina, 18",36201,986446343,www.camaravigo.com,Espacio habilitado para la realización de eventos públicos.,http://www.turismodevigo.org/sites/turismodevigo/files/lug321.jpg,42.2366043350156,-8.71884908268981,,es-ES
8687,Auditorio del Museo do Mar de Galicia,lugares,37,Auditorio,"Avda. Atlántida, nº 160",36208,986247750,www.museodomar.com,Espacio habilitado para la realización de eventos públicos.,http://www.turismodevigo.org/sites/turismodevigo/files/lug324.jpg,42.2241397002066,-8.76992736745358,,es-ES
8689,Verbum - Casa das Palabras,lugares,37,Auditorio,"Avda. de Samil, nº 17",36212,986240130,www.verbum.vigo.org,Espacio habilitado para la realización de eventos públicos.,http://www.turismodevigo.org/sites/turismodevigo/files/lug326.jpg,42.2129670379203,-8.77361620143955,,es-ES
8683,Auditorio Martín Códax del Conservatorio Superior de Música,lugares,37,Auditorio,"Manuel Olivé, 23",36203,986471144,http://conservatoriosuperiorvigo.com,Espacio habilitado para la realización de eventos públicos.,http://www.turismodevigo.org/sites/turismodevigo/files/lug320.jpg,42.2289400649774,-8.72331004116441,,es-ES
8694,Iglesia de San Francisco,lugares,37,Arquitectura religiosa,Camino de San Francisco,36202,,,"Antiguo monasterio del Siglo XVII, que tiene su origen en una desaparecida ermita del siglo X. Después de la desamortización en 1887 es Casa de la Caridad.",http://www.turismodevigo.org/sites/turismodevigo/files/lug331.jpg,42.2360817380351,-8.73089662653396,,es-ES
8723,Colexio oficial de arquitectos de Galicia,lugares,37,Arquitectura civil,"Doctor Cadaval, 5",36202,986439633,www.coagvigo.es,Edificio de corte vangüardista diseñado por Irisarri y Piñera.,http://www.turismodevigo.org/sites/turismodevigo/files/lug367.jpg,42.2373,-8.724768,http://www.turismodevigo.org/sites/turismodevigo/files/lug367es.mp3,es-ES
8686,Auditorio Zona Franca de Vigo,lugares,37,Auditorio,Área Portuaria de Bouzas s/n,36208,986269700,www.zonafrancavigo.com/zonafrancavigo_es/,Espacio habilitado para la realización de eventos públicos.,http://www.turismodevigo.org/sites/turismodevigo/files/lug323.jpg,42.2297450043917,-8.75565147137398,,es-ES
8650,Iglesia de la Soledad,lugares,37,Arquitectura religiosa,Atalaya del Monte de O Castro,36203,,,"Iglesia de estilo neoclasicista, inspirada en la iglesia parisina de la Magdalena de Bartolomé Vignon. Fue promovida por Leopoldo Eijo-garay (Obispo de Madrid-Alcalá).",http://www.turismodevigo.org/sites/turismodevigo/files/lug286.jpg,42.2290677797197,-8.72743893666551,,es-ES
8651,Iglesia de Nuestra Señora de Fátima,lugares,37,Arquitectura religiosa,"Vía Norte, 19",36206,,,Destaca en la fachada de este templo una torre esbelta. Todo él está realizado en cantería. El interior destaca por su amplia capacidad -cerca de 500 personas sentadas- y su retablo.,http://www.turismodevigo.org/sites/turismodevigo/files/lug287.jpg,42.2349196113619,-8.70778305465385,,es-ES
8652,Iglesia de Alcabre,lugares,37,Arquitectura religiosa,Avenida Atlántica,36202,,,"Iglesia de tres naves, realizada en granito. Fue diseñada por el arquitecto Desiderio Pernas en el año 1997.",http://www.turismodevigo.org/sites/turismodevigo/files/lug288.jpg,42.221375571677,-8.76485171983614,,es-ES
8653,Iglesia de Bouzas,lugares,37,Arquitectura religiosa,"Eduardo Cabello, 61",36208,,,"Templo de base rectangular y ábside en semicírculo. En el exterior podemos apreciar el escudo de armas de los Peña y los Correa, siendo éste último -el capitán Álvaro Correa- quién la mandó construir en 1596.",http://www.turismodevigo.org/sites/turismodevigo/files/lug289.jpg,42.2264222293407,-8.75324474070383,,es-ES
8654,Iglesia de Santa Marína de Cabral,lugares,37,Arquitectura religiosa,Parroquia de Cabral,36218,,,"El atrio de la iglesia es hoy en día una de los centros de reunión de la parroquia, muestra de ello es que el palco de la música se ha situado en esta zona.",http://www.turismodevigo.org/sites/turismodevigo/files/lug290.jpg,42.2232740248728,-8.65673266263812,,es-ES
8655,Iglesia de San Cristobal de Candeán,lugares,37,Arquitectura religiosa,"Camino de la Goleta, 1",36217,,,"En el interior se conservan pequeñas tallas de gran valor como la de San Cristóbal, de principios del s. XVIII y de estilo barroco, o la de San Benito.",http://www.turismodevigo.org/sites/turismodevigo/files/lug291.jpg,42.2418578743122,-8.66516336412958,,es-ES
8656,Iglesia de San Andrés de Comesaña,lugares,37,Arquitectura religiosa,Carretera Matamá-Pazó,36213,,,"Lo más destacable es, en sí, el conjunto parroquial que está formado por la iglesia, el campo de la fiesta que la rodea, un palco, la casa parroquial y, algo más alejada, la Casa Rectoral.",http://www.turismodevigo.org/sites/turismodevigo/files/lug292.jpg,42.1994741721369,-8.7538824107773,,es-ES
8681,Fundación Pedro Barrié de la Maza,lugares,37,Auditorio,"Policarpo Sanz, 31",36203,986110220,www.fundacionbarrie.org/,"La Fundación Pedro Barrié de la Maza es una entidad sin ánimo de lucro, de carácter privado, dedicada a promover el desarrollo de Galicia desde una perspectiva global.",http://www.turismodevigo.org/sites/turismodevigo/files/lug317.jpg,42.2378279820797,-8.72096806541099,,es-ES
8671,Teatro cine Fraga,lugares,37,Teatro,"Uruguay, 3-5",36201,,,"Fue diseñado para albergar un teatro y un cine de 1758 localidades, una sala de fiestas, un salón de té y oficinas de alquiler.",http://www.turismodevigo.org/sites/turismodevigo/files/lug307.jpg,42.2368496611794,-8.7197763308682,,es-ES
8672,Teatro García Barbón,lugares,37,Teatro,"Policarpo Sanz, 13",36203,,,"Es una de las obras arquitectónicas más emblemáticas de la ciudad. El actual edificio es consecuencia de la reconstrucción del antiguo teatro Rosalía de Castro, incendiado en 1910 cuando se celebraba un baile de carnaval.",http://www.turismodevigo.org/sites/turismodevigo/files/lug308.jpg,42.238057340574,-8.7234081251284,,es-ES
8673,Salgueiro García Barbón,lugares,37,Arquitectura civil,Puerta del Sol,36203,,,"Edificio racionalista del arquitecto Romualdo de Madariaga, realizado en 1934 y promovido por las hermanas Elena y Práxedes Salgueiro García-Barbón.",http://www.turismodevigo.org/sites/turismodevigo/files/lug309.jpg,42.2376957033825,-8.72457969850464,,es-ES
8674,Instituto Santa Irene,lugares,37,Arquitectura civil,"Plaza de América, 7",36210,986210435,www.edu.xunta.es/centros/iessantairene/,"Se trata de una construcción con planta en forma de E, buscando una mayor iluminación y ventilación del interior. La fachada principal sigue un esquema ecléctico.",http://www.turismodevigo.org/sites/turismodevigo/files/lug310.jpg,42.2199270979685,-8.73184055509303,,es-ES
8675,Edificio sede social Caixanova,lugares,37,Arquitectura civil,"Policarpo Sanz, 24",36201,,,"En la composición de las fachadas, observamos una retícula ordenada de vanos que carecen de ornamentación. En cada planta, en los chaflanes se colocaron balcones redondeados, siguiendo un esquema muy utilizado en ese período.",http://www.turismodevigo.org/sites/turismodevigo/files/lug311.jpg,42.2380478602696,-8.72019562436622,,es-ES
8676,Vigo Convention Bureau,lugares,37,Centro de congresos,"San vicente, 3",36204,986487118,www.vigoconventionbureau.com,"La Fundación Vigo Convention Bureau tiene como objetivo principal la promoción de la ciudad de Vigo como sede para la celebración de congresos, incentivos y todo tipo de eventos que atraigan visitantes y turismo de negocio a la ciudad.",http://www.turismodevigo.org/sites/turismodevigo/files/lug312.jpg,42.2315389647814,-8.71241663342456,,es-ES
8679,Ayuntamiento de Vigo,lugares,37,Edificio público,"Praza do Rei, s/n",36202,986810100,www.hoxe.vigo.org,Sede del consistorio de la ciudad de Vigo,http://www.turismodevigo.org/sites/turismodevigo/files/lug315.jpg,42.2364146957037,-8.72649447517727,,es-ES
8680,Auditorio del Ayuntamiento de Vigo,lugares,37,Centro de congresos,"Praza do Rei, s/n",36202,986810100,www.hoxe.vigo.org,Espacio habilitado para la realización de eventos públicos.,http://www.turismodevigo.org/sites/turismodevigo/files/lug316.jpg,42.2364332439288,-8.72677818586211,,es-ES
8682,Sala de Congresos (auditorio) de la Ciudad Universitaria de Vigo,lugares,37,Auditorio,Campus Universidade de Vigo,36310,986813639,www.uvigo.es/uvigo_es/administracion/extension/,Espacio habilitado para la realización de eventos públicos.,http://www.turismodevigo.org/sites/turismodevigo/files/lug318.jpg,42.169749872297,-8.68545128291619,,es-ES
8670,Biblioteca de la Facultad de Ciencias jurídicas,lugares,37,Biblioteca,Campus Universidade de Vigo,36310,986812658,www.uvigo.es/uvigo_es/Centros/vigo/lagoas_marcosende/fac_ciencias_xuridicas.html,Sala de lectura y servicio de préstamo de gran demanda y creciente utilización.,http://www.turismodevigo.org/sites/turismodevigo/files/lug306.jpg,42.1676576455584,-8.68285424724108,,es-ES
8669,Biblioteca de la E.T.S. de Ingenieros de Telecomunicaciones,lugares,37,Biblioteca,Campus Universidade de Vigo,36310,986812105,www.teleco.uvigo.es/,Sala de lectura y servicio de préstamo de gran demanda y creciente utilización.,http://www.turismodevigo.org/sites/turismodevigo/files/lug305.jpg,42.1696931749901,-8.68825124573733,,es-ES
8658,Iglesia de la Inmaculada Concepción,lugares,37,Arquitectura religiosa,Calle del Cronista J. Espinosa,36205,,,"Esta iglesia, situada en el popular barrio del Calvario, sigue una línea arquitectónica inspirada en Le Corbusier.",http://www.turismodevigo.org/sites/turismodevigo/files/lug294.jpg,42.2322826043943,-8.7003524420609,,es-ES
8657,Iglesia de Freixeiro,lugares,37,Arquitectura religiosa,Parroquia de O Freixeiro,36210,,,Iglesia de una sola nave de planta rectangular. El presbiterio tiene bóveda de piedra; los muros que sostienen a ésta presentan una serie de sepulcros.,http://www.turismodevigo.org/sites/turismodevigo/files/lug293.jpg,42.2176868684656,-8.7274456961174,,es-ES
8659,Biblioteca Caixanova. Calvario,lugares,37,Biblioteca,"Calle Portela 6, 1º",36205,986252435,,Sala de lectura y servicio de préstamo de gran demanda y creciente utilización.,http://www.turismodevigo.org/sites/turismodevigo/files/lug295.jpg,42.2307559884331,-8.70172942221668,,es-ES
8660,Biblioteca Caixanova. Travesas,lugares,37,Biblioteca,Plaza de América 3- entresuelo,36208,986231518,,Sala de lectura y servicio de préstamo de gran demanda y creciente utilización.,http://www.turismodevigo.org/sites/turismodevigo/files/lug296.jpg,42.2208941029241,-8.73344806069799,,es-ES
8661,Biblioteca Central,lugares,37,Biblioteca,"Joaquín Yánez, 6",36202,986229074,http://rbgalicia.xunta.es/vigo/,Sala de lectura y servicio de préstamo de gran demanda y creciente utilización.,http://www.turismodevigo.org/sites/turismodevigo/files/lug297.jpg,42.238679252679,-8.72534375397711,,es-ES
8662,Biblioteca de la Cámara de Comercio de Vigo,lugares,37,Biblioteca,"República Argentina, 18",36201,986446343,http://www.camaravigo.com,Sala de lectura y servicio de préstamo de gran demanda y creciente utilización.,http://www.turismodevigo.org/sites/turismodevigo/files/lug298.jpg,42.2365969972409,-8.71877215510236,,es-ES
8663,Biblioteca de la Fundación,lugares,37,Biblioteca,"Plaza de la Princesa, 2",36202,986226459,,Sala de lectura y servicio de préstamo de gran demanda y creciente utilización.,http://www.turismodevigo.org/sites/turismodevigo/files/lug299.jpg,42.2383160280706,-8.7256823195269,,es-ES
8664,Biblioteca Centro Cultural Caixanova,lugares,37,Biblioteca,"Policarpo Sánz, 13",36202,986447369,,Sala de lectura y servicio de préstamo de gran demanda y creciente utilización.,http://www.turismodevigo.org/sites/turismodevigo/files/lug300.jpg,42.2378912174353,-8.72342661117205,,es-ES
8665,Biblioteca del Centro Oceanográfico de Vigo,lugares,37,Biblioteca,Subida a Radio Faro 50-52,36390,986492111,www.ieo.es/biblioteca.html,Sala de lectura y servicio de préstamo de gran demanda y creciente utilización.,http://www.turismodevigo.org/sites/turismodevigo/files/lug301.jpg,42.1839418974653,-8.81311310160395,,es-ES
8666,Biblioteca del Instituto de Investigaciones Marinas,lugares,37,Biblioteca,"Eduardo Cabello, 6",36208,986214454,www.iim.csic.es/,Sala de lectura y servicio de préstamo de gran demanda y creciente utilización.,http://www.turismodevigo.org/sites/turismodevigo/files/lug302.jpg,42.2258258094774,-8.75221907436888,,es-ES
8667,"Biblioteca del Museo Etnográfico, Fundación Liste",lugares,37,Biblioteca,"Pastora, 22",36210,986244698,www.museoliste.org/index.php?pag=fundacion,Sala de lectura y servicio de préstamo de gran demanda y creciente utilización.,http://www.turismodevigo.org/sites/turismodevigo/files/lug303.jpg,42.2179067345851,-8.73104669745821,,es-ES
8668,Biblioteca de la Facultad de Ciencias del Mar y Biología,lugares,37,Biblioteca,Campus Universidade de Vigo,36310,986812552,www.facultadeccdomar.es/,Sala de lectura y servicio de préstamo de gran demanda y creciente utilización.,http://www.turismodevigo.org/sites/turismodevigo/files/lug304.jpg,42.1677211171346,-8.68513460688203,,es-ES
8546,Iglesia del Carmen,lugares,37,Arquitectura religiosa,"Paseo Padre Lorenzo, 2",36211,,,"Los terrenos sobre los que se asienta la iglesia fueron donados por Doña Paula Gómez Curieses, en los años 1936 -1939. La primera piedra fue colocada en 1951, el 18 de marzo.",http://www.turismodevigo.org/sites/turismodevigo/files/lug178.jpg,42.2236778929434,-8.73171296966416,,es-ES
8547,Iglesia de San Pedro de Sárdoma,lugares,37,Arquitectura religiosa,Parroquia de Sárdoma,36214,,,"El conjunto parroquial está formado por la iglesia, el atrio y el cementerio, que, junto a la Casa Rectoral, constituyen un ejemplo destacado en la parroquia.",http://www.turismodevigo.org/sites/turismodevigo/files/lug179.jpg,42.2172606841915,-8.71178856116699,,es-ES
8548,Iglesia de San Jorge de Saiáns,lugares,37,Arquitectura religiosa,Calle Eira Vella,36392,,,Iglesia de inspiración gótica en la ojiva de las ventanas y barroca en el juego de volúmenes y en algunos detalles como la hornacina,http://www.turismodevigo.org/sites/turismodevigo/files/lug180.jpg,42.1677162446445,-8.80469253389744,,es-ES
8549,Iglesia de Oia,lugares,37,Arquitectura religiosa,"Carretera de la Igrexa, Roteas",36390,,,"Esta iglesia es un ejemplo del modelo tradicional del rural gallego. Es de planta longitudinal sencilla, con una sola nave cubierta a dos aguas.",http://www.turismodevigo.org/sites/turismodevigo/files/lug181.jpg,42.1826495750421,-8.80111689227044,,es-ES
8550,Círculo Mercantil,lugares,37,Edificio singular,"Calle Príncipe, 44",36202,,,El edificio es de estilo ecléctico con una composición clasicista. Fue realizado por el arquitecto Manuel Gómez Román en el año 1921,http://www.turismodevigo.org/sites/turismodevigo/files/lug183.jpg,42.2366101395826,-8.72244239295161,,es-ES
8551,Casa de Ceta,lugares,37,Arquitectura civil,"Plaza de Almeida, 2",36202,,,Palacete urbano del siglo XV enmarcado en el estilo gótico tardío. Tiene aspecto de torreón medieval y está costruído sobres sillares de piedra.,http://www.turismodevigo.org/sites/turismodevigo/files/lug184.jpg,42.2379065853052,-8.72809399688459,,es-ES
8552,Iglesia de Navia (nueva),lugares,37,Arquitectura religiosa,Parroquia de San Paio de Navia,36212,,,"Tras finalizar su proyecto de la iglesia de Inmaculada Concepción en el barrio del Calvario, Román Conde se embarca en la construcción de esta nueva iglesia en la parroquia de Sampaio de Navia, en la que logrará un juego de volúmenes más sosegado.",http://www.turismodevigo.org/sites/turismodevigo/files/lug185.jpg,42.2079828474107,-8.76715068780414,,es-ES
8553,Iglesia de Navia,lugares,37,Arquitectura religiosa,Parroquia de San Paio de Navia,36212,,,"La actual iglesia se basa en una ampliación de la antigua capilla de 1900. En el interior se encuentra un retablo de estilo barroco, que también ha sufrido reformas.",http://www.turismodevigo.org/sites/turismodevigo/files/lug187.jpg,42.2071447719605,-8.76750542284277,,es-ES
8533,Cruceiro de Taberna,lugares,37,Arquitectura religiosa,"A Taberna, s/n",36391,,,"En el reverso muestra la Piedad, de pie y sosteniendo el cuerpo de su hijo muerto",http://www.turismodevigo.org/sites/turismodevigo/files/lug159.jpg,42.1873722995241,-8.77704244653249,,es-ES
8534,Cruceiro da rúa Poboadores,lugares,37,Arquitectura religiosa,"Poboadores, s/n",36202,,,Es un crucero con doble función. La parte inferior es un peto de ánimas y la superior es un crucero.,http://www.turismodevigo.org/sites/turismodevigo/files/lug160.jpg,42.2358539720406,-8.73030046908426,,es-ES
8536,Cruceiro do adro da igrexa de Valadares,lugares,37,Arquitectura religiosa,"A Igrexa, s/n",36314,,,"La cruz es cuadrada y en el anverso tiene la crucifixión, y en el reverso a la Piedad con el hijo en brazos, mucho más pequeño que la madre.",http://www.turismodevigo.org/sites/turismodevigo/files/lug162.jpg,42.1776165905781,-8.72407492468296,,es-ES
8537,Edificio José Mouriño Vilas,lugares,37,Arquitectura civil,"Urzaiz, 5",36201,,,El edificio fue diseñado en 1946 por el arquitecto Pascual Bravo Sanfeliú. Este edificio destaca por su altura y juego de volúmenes en la parte superior.,http://www.turismodevigo.org/sites/turismodevigo/files/lug163.jpg,42.2358124686976,-8.71934207260909,,es-ES
8538,Biblioteca Braille de la Once,lugares,37,Biblioteca,"Gran Vía, 15",36203,986227208,,Espacio de dedicado a la lectura y préstamo de libros con ejemplares adaptados a las necesidades de los deficientes visuales.,http://www.turismodevigo.org/sites/turismodevigo/files/lug167.jpg,42.2333214606006,-8.71688940745036,,es-ES
8539,Biblioteca de Torrecedeira,lugares,37,Biblioteca,"Torrecedeira, 86",36208,986813739,,Sala de lectura y servicio de préstamo de gran demanda y creciente utilización.,http://www.turismodevigo.org/sites/turismodevigo/files/lug170.jpg,42.2272984318301,-8.73462744813371,,es-ES
8535,Cruceiro da fachada da igrexa da Consolación,lugares,37,Arquitectura religiosa,Plaza da Consolación,36208,,,Solamente se conserva la columna con la cruz.,http://www.turismodevigo.org/sites/turismodevigo/files/lug161.jpg,42.2208535634188,-8.74530933738075,,es-ES
8540,Cruceiro da Guía,lugares,37,Arquitectura religiosa,A Guía,36207,,,Crucero con base cuadrangular sobre una afloración granítica.,http://www.turismodevigo.org/sites/turismodevigo/files/lug172.jpg,42.256191539078,-8.70260156017203,,es-ES
8541,Cruceiro de Cruceiro,lugares,37,Arquitectura religiosa,"O Cruceiro, s/n",36390,,,"En cada cara aparecen caras de ángeles, excepto en la cara anterior, bajo el Cristo donde aparece una calavera representando el monte Gólgota.",http://www.turismodevigo.org/sites/turismodevigo/files/lug173.jpg,42.1824621323533,-8.80215958086106,,es-ES
8542,Cruceiro do adro da igrexa de Coruxo,lugares,37,Arquitectura religiosa,"A Igrexa, s/n",36391,,,"Representa la crucifixión, donde Cristo tiene tres clavos, las piernas flexionadas y la cabeza ladeada. En el reverso se muestra la Piedad, con un Cristo ligeramente menor que la Virgen.",http://www.turismodevigo.org/sites/turismodevigo/files/lug174.jpg,42.1886496254623,-8.77662209131498,,es-ES
8543,Mosteiro da Visitación das Salesas Reais,lugares,37,Monasterio,"Montecelo, 14",36207,,,"El monasterio de la Visitación de las Salesas Reales fue proyectado en 1942 por el arquitecto Antonio Palacios. Está situado en el barrio de la Calzada de Teis, próximo a la calle Sanjurjo Badía.",http://www.turismodevigo.org/sites/turismodevigo/files/lug175.jpg,42.2430174691154,-8.7047242214613,,es-ES
8561,Iglesia de Matamá,lugares,37,Arquitectura religiosa,Calle de los Canteiros,36213,,,"Esta es una iglesia con una gran torre en el campanario, según los viejos libros de texto. En la iglesia hay un viejo retablo que perteneció a la antigua Colegiata de Santa María y que fue adquirido por 3000 reales",http://www.turismodevigo.org/sites/turismodevigo/files/lug196.jpg,42.199579059208,-8.73806158328729,,es-ES
8562,Cruceiro do adro da igrexa de Comesaña,lugares,37,Arquitectura religiosa,"A Igrexa, s/n",36213,,,Como única representación tiene a Cristo crucificado con tres clavos.,http://www.turismodevigo.org/sites/turismodevigo/files/lug197.jpg,42.200964744919,-8.73847980073568,,es-ES
8499,Vivendas irmáns Suárez Eire/Purificación Suárez,lugares,37,Arquitectura civil,"Plaza de Compostela, 17",36201,,,"Ejemplo de eclecticismo moderno el edificio tiene una cornisa decorada, unos balcones con refuerzos de piedra y barandillas de hierro. Como material constructivo se ha utilizado el granito de la Sierra de Castrelos.",http://www.turismodevigo.org/sites/turismodevigo/files/lug121.jpg,42.2391518223023,-8.72105606399042,,es-ES
8498,Vivendas da rúa Uruguay,lugares,37,Arquitectura civil,"Uruguay, 11",36201,,,Edificio eclepticista proyectado por Genaro de la Fuente.,http://www.turismodevigo.org/sites/turismodevigo/files/lug120.jpg,42.2365210720317,-8.71807674533958,,es-ES
8497,Visitación de las Salesas Reales,lugares,37,Arquitectura religiosa,Sanjurjo Badía y Coutadas,36207,,,Se trata de un edificio diseñado por Antonio Palacios siguiendo un estilo regionalista aunque con cierto aire medieval. Data de 1942,http://www.turismodevigo.org/sites/turismodevigo/files/lug119.jpg,42.2441463483087,-8.70338304041177,,es-ES
8501,Centro de Divulgación Arqueolóxico Municipal,lugares,37,Arquitectura civil,Bajada a la Playa s/n. Saians.,36392,986460812,,"Se trata de una iniciativa pionera en Galicia que pretende oordinar, controlar, integrar, racionar y orientar todas las iniciativas en relación con la divulgación, didáctica y puesta en valor de la riqueza arqueológica de Vigo.",http://www.turismodevigo.org/sites/turismodevigo/files/lug123.jpg,42.1672680419837,-8.80652151571956,,es-ES
8502,Iglesia de Valadares,lugares,37,Arquitectura religiosa,Parroquia de Valadares,36314,,,"Iglesia rectangular, con nave única, cabecera cuadrada y torre campanario adosada a la fachada, la cual muestra una portada rematada por un frontón que enmarca la representación de san Andrés.",http://www.turismodevigo.org/sites/turismodevigo/files/lug124.jpg,42.177619128566,-8.72471713210472,,es-ES
8503,Muíño Maquías,lugares,37,Arquitectura popular,Cerca del embalse de Zamáns,36310,,,"Se trata de un conjunto etnográfico formado por dos molinos. El principal, además de molino también es vivienda. Ambos conservan todos los canales ya acueductos que llevaban el agua para poner en marcha el molino.",http://www.turismodevigo.org/sites/turismodevigo/files/lug125.jpg,42.1582897739415,-8.69070657279798,,es-ES
8504,Iglesia de Santo Estevo de Beade,lugares,37,Arquitectura religiosa,"A Igrexa, s/n",36312,,,"La iglesia actual data del siglo XVII. En su atrio se encuentra un crucero, de origen desconocido, que se situó en ese lugar alrededor del 1854.",http://www.turismodevigo.org/sites/turismodevigo/files/lug126.jpg,42.1921964838636,-8.70648379353185,,es-ES
8505,Iglesia de Santiago de Bembrive,lugares,37,Arquitectura religiosa,Parroquia de Bembrive,36313,,,Esta iglesia sufre varias modificaciones a lo largo de su historia. Las piedras trabajadas de sus muros hablan de la posible existencia de una edificación menor.,http://www.turismodevigo.org/sites/turismodevigo/files/lug128.jpg,42.2038660672611,-8.68673752412871,,es-ES
8506,Cristo do Cacheno,lugares,37,Arquitectura religiosa,"Baruxáns, s/n",36214,,,El Cristo do Cacheno es uno de los cruceiros más sobresalientes de Galicia.,http://www.turismodevigo.org/sites/turismodevigo/files/lug129.jpg,42.206352898672,-8.69837559675137,,es-ES
8496,Reitorado da Universidade de Vigo,lugares,37,Arquitectura civil,Campus Universidade de Vigo,36310,,,"Forma parte del conjunto de Lagoas-Marcosende (centro comercial, aulario y teatro) diseñado por el arquitecto Enric Miralles.",http://www.turismodevigo.org/sites/turismodevigo/files/lug117.jpg,42.170191153903,-8.6849793333006,,es-ES
8495,Pazo de San Roque,lugares,37,Edificio histórico,San Roque,36204,,,Se trata de una propiedad privada no visitable aunque en la actualidad el parque de este magnífico edificio está abierto al público.,http://www.turismodevigo.org/sites/turismodevigo/files/lug116.jpg,42.2272026817145,-8.71116081833371,,es-ES
8494,Pazo de Rivera Atienza,lugares,37,Edificio histórico,Callejón de Rivera Atienza,36205,986261859,,Destacar la amplia solana que se abre en la fachada posterior del edificio así como el imponente portalón de entrada en el que hay un escudo ovalado.,,42.2291469204331,-8.69810573715797,,es-ES
8484,Iglesia Asilo das Irmanciñas dos Pobres,lugares,37,Arquitectura religiosa,"Pi y Margall, nº 2",36202,,,"El proyecto del edificio es de estilo neogótico y aparece firmado por el arquitecto Manuel Felipe Quintana en 1892, aunque las obras se terminaron en 1910.",http://www.turismodevigo.org/sites/turismodevigo/files/lug104.jpg,42.2358186024561,-8.72897226962498,,es-ES
8485,Iglesia de San Salvador de Coruxo,lugares,37,Arquitectura religiosa,Parroquia de Coruxo. Valle del Fragoso,36391,,,"La actual iglesia fue, en su origen, una iglesia monasterial. Tiene planta basilical de tres naves y tres ábsides semicirculares, siendo el central más ancho y elevado.",http://www.turismodevigo.org/sites/turismodevigo/files/lug105.jpg,42.1897048190268,-8.77532564412162,,es-ES
8486,Iglesia de Santa Cristina,lugares,37,Arquitectura religiosa,"Santa Cristina, s/n",36214,,,"Iglesia de estilo románico, aunque desgraciadamente ha perdido gran parte de sus elementos románicos. Se lleva a cabo una remodelación en el último tercio del siglo XIX sobre el antiguo edificio.",http://www.turismodevigo.org/sites/turismodevigo/files/lug106.jpg,42.2277580653161,-8.69560585941034,,es-ES
8487,Iglesia de Santa María de Castrelos,lugares,37,Arquitectura religiosa,Rúa A Pastora,36213,,,"Es el templo mejor conservado  del románico vigués, junto con la de Santiago de Bembrive y la de San Salvador de Corujo. Data del año 1216.",http://www.turismodevigo.org/sites/turismodevigo/files/lug107.jpg,42.2105307739239,-8.72568075883542,,es-ES
8488,Iglesia de Santiago O Maior,lugares,37,Arquitectura religiosa,"Avda García Barbón, s/n",36201,,,"Su elaboración se encarga a Manuel Felipe Quintana, quién en 1896 redacta definitivamente el proyecto. La iglesia tiene un corte medieval historicista; su fachada principal muestra un estilo neogótico.",http://www.turismodevigo.org/sites/turismodevigo/files/lug108.jpg,42.2368802993843,-8.71797819437348,,es-ES
8490,Pazo da Pastora,lugares,37,Edificio histórico,Rúa do Conde,36210,,,Se trata de una propiedad privada no visitable. Destaca el magnífico escudo de la fachada que presenta curiosos detalles escultóricos. La fachada suoreste data de 1815.,http://www.turismodevigo.org/sites/turismodevigo/files/lug111.jpg,42.2205364372103,-8.72588257725417,,es-ES
8491,Pazo da Raposeira,lugares,37,Edificio histórico,Raposeira,36214,,,Se trata de una propiedad privada no visitable. Se magnífica construcción en granito de dos plantas y con forma de U.,http://www.turismodevigo.org/sites/turismodevigo/files/lug112.jpg,42.2155363924702,-8.70032814254929,,es-ES
8492,Pazo de Castrelos,lugares,37,Edificio histórico,Parque de Castrelos,36213,986295075,,Fue declarado monumento histórico artístico desde 1955. En la actualidad es sede del Museo Municipal Quiñones de León en el que destaca la presencia de colecciones de Arqueología y de Pintura.,http://www.turismodevigo.org/sites/turismodevigo/files/lug113.jpg,42.213311575337,-8.72769319007678,,es-ES
8493,Pazo de Ribeira,lugares,37,Edificio histórico,,36205,,,Se trata de una propiedad privada no visitable. El elemento más característico del pazo es el portalón.,,42.2291469204331,-8.69810573715797,,es-ES
8483,Grupo de Casas de Benito Sanjurjo,lugares,37,Arquitectura civil,"Urzaiz, 11-23",36201,,,Grupo de siete casas promovidas por Benito Sanjurjo Ramírez de Arellano entre los años 1903-1912 y proyectadas por Michel Pacewicz y Jenaro de la Fuente Domínguez.,http://www.turismodevigo.org/sites/turismodevigo/files/lug103.jpg,42.2357032808222,-8.71912602387196,,es-ES
8508,Soportais do Berbés,lugares,37,Arquitectura civil,Praza da Constitución,36202,,,"Declarados monumento histórico-artísticos el 8 de febrero de 1946. Su disposición recuerda las típicas calles santiaguesas. En su entorno destacan las edificaciones de corte marinero, casas pequeñas y pequeñas tabernas.",http://www.turismodevigo.org/sites/turismodevigo/files/lug132.jpg,42.2374477173206,-8.72799196493196,,es-ES
8522,Cruceiro do adro da Igrexa de Beade,lugares,37,Arquitectura religiosa,"A Igrexa, s/n",36312,,,"La cruz es lisa y tiene a Cristo crucificado, con tres clavos, piernas flexionadas y la cabeza inclinada hacia el lado derecho. En el reverso aparece la Piedad. Se conservan además dos cruces lisas en la entrada del atrio sobre el muro.",http://www.turismodevigo.org/sites/turismodevigo/files/lug147.jpg,42.1921825359277,-8.70686499209293,,es-ES
8523,Cruceiro do adro da igrexa de Bembrive,lugares,37,Arquitectura religiosa,"A Igrexa, s/n",36313,,,"En el anverso tiene a Cristo crucificado con tres clavos y atado, con una calavera y dos tibias cruzadas a sus pies. En el reverso tiene a la Piedad con gran volumen de ropajes y un cristo.",http://www.turismodevigo.org/sites/turismodevigo/files/lug148.jpg,42.2038285339502,-8.68691324300314,,es-ES
8524,Cruceiro da Igrexa de Sta Cristina de Lavadores,lugares,37,Arquitectura religiosa,Igrexa de Sta. Cristina de Lavadores,36214,,,"Del crucero original sólo se conserva la cruz en la que se representa a Cristo crucificado con tres clavos, en posición rígida y los brazos paralelos.",http://www.turismodevigo.org/sites/turismodevigo/files/lug150.jpg,42.2267001927865,-8.69693779009189,,es-ES
8525,Vivendas para a Compañía Carbonera,lugares,37,Arquitectura civil,"Plaza de Compostela, 6, 7, 9",36201,,,"Destaca la falta de elementos decorativos y las formas redondeadas nos hablan de un estilo racionalista. Como material constructivo se utilizó granito blanco de grano fino, extraído de la sierra de Castrelos, y pulido en la superficie.",http://www.turismodevigo.org/sites/turismodevigo/files/lug151.jpg,42.2390503843608,-8.72258298315118,,es-ES
8526,Cruz da Costa,lugares,37,Arquitectura religiosa,"A Costa, s/n",36213,,,Tiene representados los elementos de la pasión y la inscripción ilegible dentro de una cartela.,http://www.turismodevigo.org/sites/turismodevigo/files/lug152.jpg,42.2087102951328,-8.7213517269346,,es-ES
8527,Cruceiro do adro da Igrexa de San Pedro de Sárdoma,lugares,37,Arquitectura religiosa,"Laxe, s/n",36214,,,"Se muestra a Cristo crucificado, y en el reverso está la Piedad con una Virgen orando, ambas muy logradas y de ropajes amplios.",http://www.turismodevigo.org/sites/turismodevigo/files/lug153.jpg,42.2174646237223,-8.71149356638286,,es-ES
8528,Cruceiro de Laxe,lugares,37,Arquitectura religiosa,"Laxe, s/n",36214,,,En él aparece representada la crucifixión y la Piedad.,http://www.turismodevigo.org/sites/turismodevigo/files/lug154.jpg,42.2170268153568,-8.7144378659146,,es-ES
8529,Cruceiro do barrio da Costa,lugares,37,Arquitectura religiosa,"A Costa, s/n",36213,,,"La cruz es lisa, y en el anverso tiene a Cristo crucificado con tres clavos y piernas flexionadas. En el reverso está representada la Piedad, que sostiene a Cristo con una mano sobre la cintura.",http://www.turismodevigo.org/sites/turismodevigo/files/lug155.jpg,42.2102396641093,-8.72522161249598,,es-ES
8530,Cruceiro de Tarrío,lugares,37,Arquitectura religiosa,"Tarrío, s/n",36391,,,Se representa la crucifixión y en el reverso la Piedad con un querubín debajo.,http://www.turismodevigo.org/sites/turismodevigo/files/lug156.jpg,42.1925236358592,-8.77395438965384,,es-ES
8531,Cruceiro do adro da Igrexa de Oia,lugares,37,Arquitectura religiosa,"A Igrexa, s/n",36390,,,"En la cruz tiene representados símbolos de la Pasión, como el martillo y la escalera.",http://www.turismodevigo.org/sites/turismodevigo/files/lug157.jpg,42.1826712522109,-8.80143805678495,,es-ES
8532,Cruz de Freixal,lugares,37,Arquitectura religiosa,"Fragoselo, s/n",36391,,,"Cuenta la tradición que la ubicación de la cruz viene dada porque allí murió una ""pescantina"" que venía de Camos y que por eso se colocó allí la cruz.",http://www.turismodevigo.org/sites/turismodevigo/files/lug158.jpg,42.1824445991478,-8.76712900575638,,es-ES
8521,Cruceiro de Zamáns,lugares,37,Arquitectura religiosa,"Zamáns, s/n",36310,,,Se representa la Crucifixión con un Cristo inexpresivo y rígido. En el reverso aparece representada la Piedad con un pequeño Cristo entre las rodillas.,http://www.turismodevigo.org/sites/turismodevigo/files/lug146.jpg,42.1547396137659,-8.68847191522071,,es-ES
8520,Cruceiro do cemiterio de Bouzas,lugares,37,Arquitectura religiosa,Cemiterio de Bouzas,36213,,,La cruz es lisa y de sección cuadrangular. En el anverso tiene a Cristo crucificado con tres clavos. En el reverso tiene a la Piedad con una Virgen con las manos unidas y un Cristo de pequeñas dimensiones.,http://www.turismodevigo.org/sites/turismodevigo/files/lug145.jpg,42.2130995587747,-8.75293904091316,,es-ES
8509,Cruz de O Calvario de Candeán,lugares,37,Arquitectura religiosa,"Candeán de Arriba, s/n",36217,,,Es una de las cruces que formaban parte del Vía Crucis.,http://www.turismodevigo.org/sites/turismodevigo/files/lug134.jpg,42.2410681328254,-8.66895100150479,,es-ES
8510,Cruz do lugar de Babío,lugares,37,Arquitectura religiosa,"Babío, s/n",36312,,,"Se trata de un crucero atípico y que se parece más bien a una de las cruces que forman el ""Vía Crucis""",,42.1923785641791,-8.71520034117704,,es-ES
8511,Cruceiro do lugar de Cruceiro de Fragoselo,lugares,37,Arquitectura religiosa,"Fragoselo, s/n",36391,,,"Representa a Cristo crucificado, sujeto con tres clavos y las piernas flexionadas. Conserva restos de pintura azul en la cruz y parte del cuerpo.",http://www.turismodevigo.org/sites/turismodevigo/files/lug136.jpg,42.1802268935702,-8.76403120158451,,es-ES
8512,Cruz do Calvario de Cabral,lugares,37,Arquitectura religiosa,"O Calvario, s/n",36218,,,"Formaba parte del Vía Crucis, siendo posiblemente el punto final del mismo.Hoy en día aún se celebra la procesión de Viernes Santo hasta este lugar intentando conservar una tradición antigua.",http://www.turismodevigo.org/sites/turismodevigo/files/lug137.jpg,42.2220607493835,-8.65538439794432,,es-ES
8513,Cruz de Bouzós,lugares,37,Arquitectura religiosa,"A Luz, s/n",36391,,,Dice la tradición que los entierros paraban delante de ella y se rezaba allí.,http://www.turismodevigo.org/sites/turismodevigo/files/lug138.jpg,42.1872747927348,-8.76812829873881,,es-ES
8514,Conjuntos Parciales del barrio viejo de Vigo,lugares,37,Arquitectura civil,Vigo,36202,,,"Conjunto urbano no declarado como conjunto histórico, pero que funciona como tal.",http://www.turismodevigo.org/sites/turismodevigo/files/lug139.jpg,42.2377493254884,-8.72833108580292,,es-ES
8515,Cruz do Adro da Igrexa de San Salvador de Teis,lugares,37,Arquitectura religiosa,"A Igrexa, s/n",36216,,,Formó parte del Vía Crucis procesional alrededor de la iglesia.,http://www.turismodevigo.org/sites/turismodevigo/files/lug140.jpg,42.2574265504594,-8.68646769896455,,es-ES
8516,Cruceiro vello,lugares,37,Arquitectura religiosa,"Cruceiro de Bouzas, s/n",36208,,,En el anverso se nos presenta la crucifixión con un Cristo con tres clavos. En el reverso se observa la coronación de la Virgen por dos ángeles y una Virgen encima de la luna y la serpiente.,http://www.turismodevigo.org/sites/turismodevigo/files/lug141.jpg,42.2243016251919,-8.75002217444147,,es-ES
8517,Cruceiro do interior do cemiterio de Matamá,lugares,37,Arquitectura religiosa,"Pereiró, s/n",36213,,,"Destacar que en frente del crucero hay un ""Pousadoiro"" de ataúdes que data de 1953.",http://www.turismodevigo.org/sites/turismodevigo/files/lug142.jpg,42.1994404900707,-8.73744216564666,,es-ES
8518,Cruceiro do cemiterio de Candeán,lugares,37,Arquitectura religiosa,Cemiterio de Candeán,36217,,,La cruz tiene nudos imitando la madera y es de sección circular. Tiene como única representación a Cristo crucificado con tres clavos y la cabeza ladeada.,http://www.turismodevigo.org/sites/turismodevigo/files/lug143.jpg,42.2420044363674,-8.6651816684592,,es-ES
8519,Cruceiro do cemiterio de Santa Mariña de Cabral,lugares,37,Arquitectura religiosa,"A Igrexa, s/n",36218,,,"Se representa a un Cristo crucificado con tres clavos y la cabeza inclinada, las piernas flexionadas y los brazos oblicuos, dando la sensación de que ya estaba muerto en la cruz. Un ángel aparece suspendido en el aire.",http://www.turismodevigo.org/sites/turismodevigo/files/lug144.jpg,42.2234922906772,-8.65725609794702,,es-ES
8450,Casa Sanjurjo,lugares,37,Arquitectura civil,"Plaza de Compostela, 20",36201,,,"El edificio fue diseñado en 1906, por Pacewicz. Constituye una de las obras del arquitecto con más influencias parisinas.",http://www.turismodevigo.org/sites/turismodevigo/files/lug069.jpg,42.2397073539127,-8.72119494846791,,es-ES
8449,Casa Salvador Aranda Graña,lugares,37,Arquitectura civil,"Concepción Arenal, 1",36201,,,"El edificio fue diseñado en 1898 por Michel Pacewicz. Se trata de una casa de planta baja y dos pisos con tres áticos piramidales, y con óculos para la ventilación del bajocubierta.",http://www.turismodevigo.org/sites/turismodevigo/files/lug068.jpg,42.2399851210574,-8.72091718757219,,es-ES
8448,Casa Rosendo Silva,lugares,37,Arquitectura civil,"Plaza de Compostela, 19",36201,,,El edificio fue diseñado en 1907 por Michel Pacewicz y Jenaro de la Fuente Domínguez. Su arquitectura es ecléctica hecha debido a las aportaciones de los arquitectos más famosos de la época.,http://www.turismodevigo.org/sites/turismodevigo/files/lug067.jpg,42.2397073547876,-8.72091718621402,,es-ES
8447,Casa Ramón Arbones,lugares,37,Arquitectura civil,"Elduayen, 4",36202,,,El edificio fue diseñado en 1892 por Jenaro de la Fuente Domínguez. Fue edificada por el constructor Antonio González Romero.,http://www.turismodevigo.org/sites/turismodevigo/files/lug066.jpg,42.2380407379783,-8.72702794684211,,es-ES
8451,Casa Vicente Coma,lugares,37,Arquitectura civil,"Urzaiz, 17",36201,,,"El edificio fue diseñado en 1921 por el arquitecto Manuel Gómez Román. Destacan su buhardilla muy ornamentada, con dinteles en arco de medio punto y adornada con volutas.",http://www.turismodevigo.org/sites/turismodevigo/files/lug070.jpg,42.2354383026287,-8.71851551251621,,es-ES
8452,Casas de Oya,lugares,37,Arquitectura civil,"García Barbón, nº 15, 17, 19",36201,,,Edificio de estilo ecléctico de corte francés y base neobarroca de fuerte simetría.,http://www.turismodevigo.org/sites/turismodevigo/files/lug071.jpg,42.2371216818802,-8.71869545469442,,es-ES
8453,Casas para Álvaro López Mora,lugares,37,Arquitectura civil,"Colón, 29-31",36201,,,"El edificio fue diseñado en 1908 por Jenaro de la Fuente Domínguez. El que lleva el número 29 fue modificado por José Franco Montes en 1917, que le añadió dos buhardillas laterales. Ambos edificios fueron concebidos bajo planteamientos eclécticos.",http://www.turismodevigo.org/sites/turismodevigo/files/lug072.jpg,42.2363741625086,-8.72008388044108,,es-ES
8454,Casas para Joaquín Pérez Boullosa,lugares,37,Arquitectura civil,"Plaza de Compostela, 24",36201,,,"El edificio fue diseñado en 1910 por José Franco Montes. Es el máximo representante de las influencias de la arquitectura ""sezessionista vienesa"" en el modernismo vigués.",http://www.turismodevigo.org/sites/turismodevigo/files/lug073.jpg,42.2397073519461,-8.72175047297855,,es-ES
8455,Castelo de San Sebastián,lugares,37,Construcción histórica,Parque de O Castro,36202,,,"De O Castelo de San Sebastián solamente quedan los muros del lado norte, con dos garitas porque un baluarte y dos medios baluartes que se conservaban fueron derribados para construir sobre ellos el palacio Consistorial.",http://www.turismodevigo.org/sites/turismodevigo/files/lug074.jpg,42.2369292300832,-8.72674951134173,,es-ES
8456,Castelo do Castro,lugares,37,Construcción histórica,Parque de O Castro,36203,,,"Fue construido en el s. XVII, al mismo tiempo que las murallas de la ciudad y el castillo de San Sebastián, por los ingenieros militares, Juan Villarroel y Prado y los hermanos Carlos y Fernando de Grunemberg.",http://www.turismodevigo.org/sites/turismodevigo/files/lug075.jpg,42.2325876576669,-8.72616134062013,,es-ES
8457,Castro y Fortaleza,lugares,37,Construcción histórica,Monte O Castro,36202,,,"En 1926, y de manera fortuita, se produjeron los primeros hallazgos en la zona de restos de un poblado castreño. Posteriormente se pusieron al descubierto un total de 45 construcciones pertenecientes al período que va desde el s. II- I a. d. C.",http://www.turismodevigo.org/sites/turismodevigo/files/lug076.jpg,42.2319488180429,-8.72627985016231,,es-ES
8446,Casa Prudencio Nandín,lugares,37,Arquitectura civil,"Plaza de Compostela, 13, 14",36201,,,"El edificio fue diseñado por Jenaro de la Fuente Domínguez y construido en dos fases: la primera en 1892 y la segunda en 1900, pero constituye un conjunto. Es un edificio ecléctico y muy ornamentado.",http://www.turismodevigo.org/sites/turismodevigo/files/lug065.jpg,42.2391407513262,-8.72139456925014,,es-ES
8445,Casa Pereira Castro,lugares,37,Arquitectura civil,"Plaza de la Constitución, 8",36202,,,"Edificio del siglo XVIII, perteneciente a la Casa Pereira. Como ornamento tiene tres escudos de la familia.",http://www.turismodevigo.org/sites/turismodevigo/files/lug064.jpg,42.2385812930542,-8.7262169428509,,es-ES
8435,El antiguo Rectorado de la Universidad de Vigo,lugares,37,Arquitectura civil,"Areal, 46, Esquina A Oporto 1",36201,,,"El edificio actual es el único que mantiene una alineación distinta de los demás inmuebles de esta calle, por cambios en el proyecto inicial de edificación de dicha calle.",http://www.turismodevigo.org/sites/turismodevigo/files/lug054.jpg,42.2389215697612,-8.71640863513712,,es-ES
8436,Casa González Salgado,lugares,37,Arquitectura civil,"Avda. Montero Ríos, 30 y 32",36201,,,"El edificio fue diseñado en 1908 por Jenaro de la Fuente Domínguez. Es un edificio ecléctico con cuatro plantas y desván también simétrico y un ancho cuerpo central, algo saliente, con cuatro vanos enmarcados en almohadillados.",http://www.turismodevigo.org/sites/turismodevigo/files/lug055.jpg,42.2404836253924,-8.72154031049172,,es-ES
8437,Casa Hermanos Suárez,lugares,37,Arquitectura civil,"Avda. Montero Ríos, 2",36202,,,"El edificio fue diseñado por José Franco Montes en 1920. Se trata de un edificio de bajo y tres plantas, como la mayoría de las edificaciones del Ensanche Olloqui. Fue construido por el contratista Antonio González Romero.",http://www.turismodevigo.org/sites/turismodevigo/files/lug056.jpg,42.2402661735249,-8.7241348760891,,es-ES
8438,Casa Ledo,lugares,37,Arquitectura civil,Porta do Sol,36202,,,"El edificio fue diseñado en 1893 por Jenaro de la Fuente Domínguez. Tiene tres fachadas y cinco plantas. La fachada principal, que da a la ""Porta do Sol"", destaca por tener el eje de simetría centralizado.",http://www.turismodevigo.org/sites/turismodevigo/files/lug057.jpg,42.2380727872859,-8.7261730655921,,es-ES
8439,Casa Manuel Millán,lugares,37,Arquitectura civil,"Lepanto, 5",36201,,,"El edificio fue diseñado en 1921 por Manuel Gómez Román, para vivienda de Manuel Millán. Lo más destacable son los capites ecléctico-clasicistas, que sirven de ejemplo para ver la primera etapa del eclecticismo en la ciudad viguesa.",http://www.turismodevigo.org/sites/turismodevigo/files/lug058.jpg,42.2346986836673,-8.71589624169174,,es-ES
8440,Casa Marcelino Barreras,lugares,37,Arquitectura civil,"Velázquez Moreno, 15-17",36202,,,El edificio fue diseñado en 1882 por Domingo Rodríguez Sesmero para Marcelino Barreras. Es un edificio simétrico con un chaflán en el que destacan las galerías de fundición que sirven de amplios miradores.,http://www.turismodevigo.org/sites/turismodevigo/files/lug059.jpg,42.2374852221841,-8.72175046051426,,es-ES
8441,Casa Odriozola,lugares,37,Arquitectura civil,"García Barbón, nº 4",36201,,,"El edificio fue diseñado en dos etapas. En 1875, Alejandro Rodríguez Sesmero, firmó una planta baja y dos pisos; y en 1908 Jenaro de la Fuente Domínguez firmó la adición al tercer piso, tras la compra del edificio por Manuel Rodríguez Rodríguez.",http://www.turismodevigo.org/sites/turismodevigo/files/lug060.jpg,42.2373669768909,-8.7196061421324,,es-ES
8442,Casa para Manuel Bárcena Franco,lugares,37,Arquitectura civil,"Policarpo Sanz, 24",36202,,,"Realizado en granito de cantería, es un edificio de estilo ecléctico. Tiene una planta baja y tres pisos, y no presenta ninguna alteración en relación con el proyecto inicial.",http://www.turismodevigo.org/sites/turismodevigo/files/lug061.jpg,42.2374852219878,-8.72202822271768,,es-ES
8443,Casa para María Iglesias Curty,lugares,37,Arquitectura civil,"Plaza de Compostela, 4, 5",36201,,,El edificio fue diseñado por Jenaro de la Fuente Álvarez en 1940. El proyecto es marcadamente racionalista con formas redondeadas y sin ornamentación.,http://www.turismodevigo.org/sites/turismodevigo/files/lug062.jpg,42.2390170221635,-8.72313865500889,,es-ES
8444,Casa Pedro Román,lugares,37,Arquitectura civil,"Joaquín Yánez, 12",36202,,,"El edificio fue diseñado en 1889 por Jenaro de la Fuente Domínguez. Hoy es la Biblioteca Central, pero anteriormente fue un edificio comercial y también albergó el casino vigués.",http://www.turismodevigo.org/sites/turismodevigo/files/lug063.jpg,42.2390421169541,-8.72526941810899,,es-ES
8434,Casa Estanislao Durán,lugares,37,Arquitectura civil,"Príncipe, 41",36202,,,"Edificio de estilo ecléctico con influencia francesa, remarcada por la presencia de la mansarda superior con una serie de guardillas decoradas con frontón curvo e volutas nos laterales.",http://www.turismodevigo.org/sites/turismodevigo/files/lug053.jpg,42.2366519238619,-8.72175045497292,,es-ES
8482,Garaxe Americano,lugares,37,Arquitectura civil,"García Barbón, 29",36201,,,"Este edificio fue construido para la venta de automóviles, pero su apariencia monumentalista es propia de cualquier edificación institucional de la época.",http://www.turismodevigo.org/sites/turismodevigo/files/lug102.jpg,42.2372074680702,-8.71786178591829,,es-ES
8472,Edificio Miguel Seijo Serodio,lugares,37,Arquitectura civil,"Tomás Alonso, 224",36208,,,El edificio fue diseñado en 1945 por el arquitecto Francisco Castro Represas. Destacan dos balconadas corridas con balaustrada y un balcón semicircular.,http://www.turismodevigo.org/sites/turismodevigo/files/lug091.jpg,42.2240613703943,-8.75152901488072,,es-ES
8473,Edificio Natalio Sanchón,lugares,37,Arquitectura civil,"Policarpo Sanz, 22",36202,,,El edificio fue diseñado en 1935 por el arquitecto Francisco Castro Represas.,http://www.turismodevigo.org/sites/turismodevigo/files/lug092.jpg,42.2374221295337,-8.72295035617771,,es-ES
8474,Edificio Núñez Berdiales,lugares,37,Arquitectura civil,"Urzaiz, 42",36203,,,El edificio fue diseñado en 1905 por Pacewicz. Tiene una planta baja y tres altas.,http://www.turismodevigo.org/sites/turismodevigo/files/lug093.jpg,42.2347743346027,-8.71760818145824,,es-ES
8475,Edificio para Francisco Solleiro Negrete,lugares,37,Arquitectura civil,"Policarpo Sanz, 21",36202,,,El edificio fue diseñado en 1891 por Manuel Felipe Quintana. Destaca la simetría de sus fachadas unidas por un chaflán con galerías en las dos últimas plantas.,http://www.turismodevigo.org/sites/turismodevigo/files/lug094.jpg,42.2378130984831,-8.72205686545205,,es-ES
8476,Edificio para Jesús Crespo Filgueira,lugares,37,Arquitectura civil,"Cuba, 2, esquina a Urzaiz",36204,,,El edificio fue diseñado en 1938 por el arquitecto Francisco Castro Represas. Las obras de cantería fueron hechas por el maestro cantero Ángel García Martínez utilizando el granito blanco de la sierra de Castrelos y un acabado final de pulido.,http://www.turismodevigo.org/sites/turismodevigo/files/lug095.jpg,42.2341316325804,-8.71591627783067,,es-ES
8477,Edificio Simeón,lugares,37,Arquitectura civil,"Porta do Sol, 6",36203,,,"El edificio tiene tres pisos de los cuales el último es abuhardillado. La planta baja, dedicada al comercio, tiene un carácter suntuoso y monumental con una excelente cantería en granito.",http://www.turismodevigo.org/sites/turismodevigo/files/lug096.jpg,42.2376613704553,-8.72500908910496,,es-ES
8478,Facultade de Ciencias Económicas do Campus de Vigo,lugares,37,Arquitectura civil,Campus Universitario de Vigo,36310,,,Se trata de un edificio de vanguardia diseñado por Alfonso Penela Fernández.,http://www.turismodevigo.org/sites/turismodevigo/files/lug098.jpg,42.1701586658028,-8.6809168804034,,es-ES
8479,Fonte da Falperra,lugares,37,Arquitectura popular,Falperra,36202,,,Se trata de una fuente moderna pero coronada de monumentalidad barroca.,http://www.turismodevigo.org/sites/turismodevigo/files/lug099.jpg,42.2352630711676,-8.728694504176,,es-ES
8480,Fonte da Praza da Princesa,lugares,37,Arquitectura popular,Plaza de la Princesa,36202,,,Se tiene constancia de su existencia desde el año 1889.,http://www.turismodevigo.org/sites/turismodevigo/files/lug100.jpg,42.2383505548749,-8.72589530584672,,es-ES
8481,Fonte Paseo Alfonso XII,lugares,37,Arquitectura popular,Alfonso XII,36202,,,Hay datos crónicas que ya hablan de su existencia en el año 1875 cuando el Faro de Vigo da la noticia de su construcción.,http://www.turismodevigo.org/sites/turismodevigo/files/lug101.jpg,42.2366519046258,-8.72786122567813,,es-ES
8471,Edificio do Hotel Universal,lugares,37,Arquitectura civil,Montero Ríos,36202,,www.marriott.com/hotels/travel/VGOPA-AC-Hotel-Palacio-Universal,"El edificio se conserva igual que en el proyecto inicial y albergó el Hotel Universal, uno de los más conocidos de la ciudad, durante muchos años. Este hotel fue adquirido por la cadena AC, que llevó a cabo una remodelación interior.",http://www.turismodevigo.org/sites/turismodevigo/files/lug090.jpg,42.2400527669455,-8.72469973988995,,es-ES
8470,Edificio do Hotel Moderno,lugares,37,Arquitectura civil,"Policarpo Sanz, 1",36203,,,"Es una de las obras más emblemáticas de Michel Pacewicz y del eclecticismo del siglo XIX en la ciudad. Es conocido popularmente como íhotel El Modernoí por haber albergado, durante mucho tiempo, una instalación hotelera.",http://www.turismodevigo.org/sites/turismodevigo/files/lug089.jpg,42.2380727935561,-8.72506201610924,,es-ES
8458,Centro de Saúde de Coia,lugares,37,Arquitectura civil,"Porriño, 5",36209,,,Fue construído en el año 1999 y es obra del arquitecto Alfonso Penela.,http://www.turismodevigo.org/sites/turismodevigo/files/lug077.jpg,42.2170394737805,-8.74572613144052,,es-ES
8460,Conjunto de los Molinos de Gontade,lugares,37,Arquitectura popular,Gontade,36391,,,"Conjunto de 4 molinos, obra del siglo XVIII, perfectamente restaurados.",http://www.turismodevigo.org/sites/turismodevigo/files/lug079.jpg,42.1919270150979,-8.78421413685596,,es-ES
8461,Edificio Albo,lugares,37,Arquitectura civil,"Gran Vía, 2, esquina a Urzaiz",36203,,,"Destaca la gran monumentalidad y verticalidad del edificio, conferida por los volúmenes dispuestos en peldaños y rematados por una escultura hecha por Jesús Picón, copia de la Victora de Samotracia.",http://www.turismodevigo.org/sites/turismodevigo/files/lug080.jpg,42.2345651035536,-8.71681303844016,,es-ES
8462,Edificio Banca Viñas-Aranda,lugares,37,Arquitectura civil,"Reconquista, 9-11",36201,,,El edificio fue diseñado en 1941 por Antonio Palacios Ramilo.,http://www.turismodevigo.org/sites/turismodevigo/files/lug081.jpg,42.2384565533443,-8.72334588807285,,es-ES
8463,Edificio Banco de España,lugares,37,Arquitectura civil,"Policarpo Sanz, 15",36202,,,El edificio fue diseñado en 1938 por el arquitecto Romualdo de Madariaga. Todo el edificio tiene amplios ventanales con arcos de medio punto y unos vanos enmarcados con saliente y decorados.,http://www.turismodevigo.org/sites/turismodevigo/files/lug082.jpg,42.2377629855468,-8.72286151079495,,es-ES
8464,Edificio Bonín,lugares,37,Arquitectura civil,"Areal, 42 , esquina Oporto 2",36201,,,Es una de las principales obras del autor en la ciudad que se conserva íntegra. Es de estilo ecléctico y está compuesta por una planta baja y tres pisos. La ornamentación es de un recargado barroquismo.,http://www.turismodevigo.org/sites/turismodevigo/files/lug083.jpg,42.2389215689955,-8.71668639756985,,es-ES
8465,Edificio comercial de Príncipe,lugares,37,Arquitectura civil,Príncipe 5 y Policarpo Sanz 8,36202,,,Edificio comercial proyectado por Jenaro de la Fuente Álvarez a finales de la década de los años 20.,http://www.turismodevigo.org/sites/turismodevigo/files/lug084.jpg,42.2376581380734,-8.72087777735032,,es-ES
8466,Edificio comercial para José González,lugares,37,Arquitectura civil,"Marqués de Valadares, 23",36201,,,El edificio fue diseñado en 1949 por el arquitecto Francisco Castro Represas. Lo más destacable son los numerosos y amplios ventanales separados por delgadas pilastras.,http://www.turismodevigo.org/sites/turismodevigo/files/lug085.jpg,42.2384317328684,-8.72210223942349,,es-ES
8467,Edificio da Equitativa,lugares,37,Arquitectura civil,"Marqués de Valadares, 21",36201,,,"El edificio fue diseñado en 1948 por el arquitecto Manuel Cabanyens y Mata. Es un ejemplo de la arquitectura academicista monumentalista, aunque tiene algunas formas clasicistas.",http://www.turismodevigo.org/sites/turismodevigo/files/lug086.jpg,42.2384565540258,-8.72306812524044,,es-ES
8468,Edificio da Escola de Artes e Oficios de Vigo,lugares,37,Arquitectura civil,"García Barbón, 5",36201,,,"El edificio fue construido en dos etapas. En la primera se construye la fachada principal de la calle García Barbón y el primer tramo de la calle Pontevedra; estas obras concluyen en 1900. Su dueño, José García Barbón, lo cede al Ayuntamiento.",http://www.turismodevigo.org/sites/turismodevigo/files/lug087.jpg,42.237694436917,-8.71960638078445,,es-ES
8469,Edificio de Peritos,lugares,37,Arquitectura civil,"Conde de Torrecedeira, 86",36202,,,Edificio construido entre 1931-194 1 y proyectado por Jenaro de la Fuente Álvarez. Pertenecen ya a un eclecticismo academicista que se impuso entre los arquitectos vigueses en la segunda y tercera década del s. XX.,http://www.turismodevigo.org/sites/turismodevigo/files/lug088.jpg,42.22859172522,-8.73338215000662,,es-ES
8408,Antiga Casa do Concello de Vigo,lugares,37,Arquitectura civil,Plaza de la Constitución,36202,,,"El edificio fue diseñado en 1859-1860 por José María Ortiz. En la actualidad alberga una sala de exposiciones y la biblioteca de la Fundación Penzol, pero anteriormente fue la Casa Consistorial.",http://www.turismodevigo.org/sites/turismodevigo/files/lug026.jpg,42.2383477852914,-8.72576261424091,,es-ES
8409,Antigo edificio da Caixa de Aforros,lugares,37,Arquitectura civil,"Velázquez Moreno, 53",36202,,,"Es un edificio de corte clásico academicista con un potente zócalo, elevadas pilastras uqe abarcan las dos plantas, zapaas decoradas con elementos vegetales, alquitrabe y una pronunciada cornisa que abarca todo el edificio.",http://www.turismodevigo.org/sites/turismodevigo/files/lug027.jpg,42.2369296902849,-8.72175045763319,,es-ES
8423,Casa de Francisca Alfaya,lugares,37,Arquitectura civil,"Carral, 7, 9",36202,,,"El edificio fue diseñado en 1901, por Benito Gómez Román. Se trata de una obra con abundantes formas neogóticas y neorrománicas.",http://www.turismodevigo.org/sites/turismodevigo/files/lug042.jpg,42.238988195287,-8.72458585151493,,es-ES
8424,Casa de Joaquín de Miguel,lugares,37,Arquitectura civil,"Marqués de Valadares, 37",36201,,,El edificio fue diseñado por Manuel Gómez Román en 1928 para Joaquín de Miguel. Lo más destacado es su puerta de acceso enmarcada por dos pilastras lisas con aristas en las esquinas y un frontón en la parte superior.,http://www.turismodevigo.org/sites/turismodevigo/files/lug043.jpg,42.2384094317048,-8.72134205215534,,es-ES
8425,Casa de Manuel Blanco García,lugares,37,Arquitectura civil,"Areal, 8, 10, 12 Y 14",36201,,,El edificio fue diseñado en 1879 por Alejandro Rodríguez Sesmero. Se trata de un edificio con siete casas cuya fachada está tratada como única edificación.,http://www.turismodevigo.org/sites/turismodevigo/files/lug044.jpg,42.2391518253007,-8.72008389554333,,es-ES
8426,Casa de Pardo Labarta,lugares,37,Arquitectura civil,"Porta do Sol, 11",36203,,,El edificio fue diseñado en 1911 por Jenaro de la Fuente Domínguez. Fue edificada por el maestro cantero José Araujo Pérez para el rico comerciante Pardo Labarta.,http://www.turismodevigo.org/sites/turismodevigo/files/lug045.jpg,42.2379343827681,-8.72557104952805,,es-ES
8427,Casa de Paulino Yáñez,lugares,37,Arquitectura civil,"Plaza de Compostela, 12",36201,,,"El edificio fue diseñado en 1900 por Michel Pacewicz. Es de estilo historicista con unas fachadas impresionantes, sobre todo la de la Plaza de Compostela.",http://www.turismodevigo.org/sites/turismodevigo/files/lug046.jpg,42.2390857811294,-8.72173426718392,,es-ES
8429,Casa de Saturnino García,lugares,37,Arquitectura civil,"Plaza de Compostela, 31, 32,33",36202,,,"El edificio fue diseñado en 1912 por Manuel Gómez Román. Es una edificación modernista en la que destaca el uso de azulejo decorado, sobre una piedra de grano grueso y algo terrosa en los cuerpos salientes.",http://www.turismodevigo.org/sites/turismodevigo/files/lug048.jpg,42.2395251443102,-8.72435413798361,,es-ES
8430,Casa Diego Arias Taboada,lugares,37,Arquitectura civil,"Abeleira Menéndez, 8",36202,,,"Edificio de características barrocas por sus recercados, cornisa y ménsulas escalonadas sobre las que descansan pequeños balcones.",http://www.turismodevigo.org/sites/turismodevigo/files/lug049.jpg,42.2378727803196,-8.72599658989732,,es-ES
8431,Casa Eligio Prieto Iglesias,lugares,37,Arquitectura civil,"Príncipe, 12",36203,,,"El edificio fue diseñado en 1925 por Jenaro de la Fuente Álvarez. Destaca por su decoración, sobre todo en las dos plantas superiores.",http://www.turismodevigo.org/sites/turismodevigo/files/lug050.jpg,42.237661371759,-8.72417579894346,,es-ES
8432,Casa Enrique Lagos,lugares,37,Arquitectura civil,"Policarpo Sanz, 19",36202,,,El edificio fue diseñado en 1901 por Michel Pacewicz. Destaca por la preciosa labra de su cantería y su empinada cubierta con una esbelta buhardilla central.,http://www.turismodevigo.org/sites/turismodevigo/files/lug051.jpg,42.237762985959,-8.72258374858253,,es-ES
8422,Casa de Felipe Collazo,lugares,37,Arquitectura civil,"Avda de Montero Ríos, 38",36201,,,El edificio fue diseñado en 1904 por Jenaro de la Fuente Domínguez. Tiene cuatro plantas y un chaflán que sirve de eje de simetría entre sus dos fachadas.,http://www.turismodevigo.org/sites/turismodevigo/files/lug041.jpg,42.2404836271025,-8.72126254846485,,es-ES
8421,Casa de Donesteve Quirós,lugares,37,Arquitectura civil,"Joaquín Yánez, 12",36202,,,"El edificio fue diseñado en 1876 por Alejandro Rodríguez Sesmero. Lo más destacable es la balaustrada de círculos entrelazados con jarrones sobre pedestales, que corona las dos fachadas.",http://www.turismodevigo.org/sites/turismodevigo/files/lug040.jpg,42.2392878356784,-8.72501324693812,,es-ES
8420,Casa de Domingo Davila,lugares,37,Arquitectura civil,"Plaza de Compostela, 21",36201,,,"El edificio fue diseñado por Manuel Gómez Román en 1942 para Domingo Davila. Destaca su puerta de acceso, enmarcada por aristas sobresalientes de la piedra lisa.",http://www.turismodevigo.org/sites/turismodevigo/files/lug039.jpg,42.2391518228393,-8.7207783005387,,es-ES
8411,Biblioteca Universitaria de Vigo,lugares,37,Biblioteca,Campus Universidade de Vigo,36310,986813853,www.uvigo.es/uvigo_gl/administracion/biblioteca/,"Presente físicamente en los tres campus, la Biblioteca Universitaria cuenta en cada uno de ellos con una biblioteca central y varias salas repartidas por las escuelas y facultades que componen la Universidad.",http://www.turismodevigo.org/sites/turismodevigo/files/lug029.jpg,42.1692802895494,-8.68366618107154,,es-ES
8412,Casa Acuña Soaje,lugares,37,Arquitectura civil,"Policarpo Sanz, 23",36202,,,El edificio fue diseñado en 1897 por Pacewicz. La fachada del edificio tiene abundantes miradores y galerías de formas afiligranadas metálicas y muy decoradas.,http://www.turismodevigo.org/sites/turismodevigo/files/lug030.jpg,42.237813099648,-8.7217791030184,,es-ES
8413,Casa Bárcena,lugares,37,Arquitectura civil,"Real, 14",36202,,,El edificio fue diseñado en 1863 por Manuel de Uceda. Su estilo es ecléctico clasicista con reminiscencias del renacimiento italiano.,http://www.turismodevigo.org/sites/turismodevigo/files/lug031.jpg,42.2391849378605,-8.72749134255561,,es-ES
8414,Casa Bernardo Rodríguez López,lugares,37,Arquitectura civil,"Colón, 42",36202,,,El edificio fue diseñado en 1883 por Jenaro de la Fuente Domínguez. La parte alta tiene un reloj rodeado de orlas y guirnaldas y está flanqueado por dos jarrones sobre pedestales a cada lado.,http://www.turismodevigo.org/sites/turismodevigo/files/lug032.jpg,42.2361293963355,-8.72049175111747,,es-ES
8415,Casa da rúa Carral,lugares,37,Arquitectura civil,"Carral, 15",36202,,,El edificio fue diseñado en 1898 por Benito Gómez Román y pertenece a familiares de éste.,http://www.turismodevigo.org/sites/turismodevigo/files/lug033.jpg,42.238988195287,-8.72458585151493,,es-ES
8416,Casa de Araujo,lugares,37,Arquitectura civil,"Real, 33",36202,,,"Casa construida en el siglo XVIII con dos fachadas hechas con sillería apiconada, la que da a la rúa Alta y cincelada la que da a la rúa Real.",,42.2386300667068,-8.72860261002805,,es-ES
8417,Casa de Ceta o de Arines,lugares,37,Arquitectura civil,"Real, 17",36202,,,Casa sencilla construida con sillares de piedra. Destaca por su escudo señorial,http://www.turismodevigo.org/sites/turismodevigo/files/lug035.jpg,42.2389968976134,-8.72752246902661,,es-ES
8418,Casa de Benigno y Camilo Fernández,lugares,37,Arquitectura civil,"Urzáiz, 28",36203,,,El edificio fue diseñado en 1913 por Jenaro de la Fuente Domínguez. El edificio es eclecticista pero incorpora elementos decorativos propios del modernismo que se estaban difundiendo.,http://www.turismodevigo.org/sites/turismodevigo/files/lug036.jpg,42.2351379684867,-8.71846792584939,,es-ES
8419,Casa de Correos y Telégrafos de Vigo,lugares,37,Arquitectura civil,Plaza de Compostela,36201,,,"El edificio fue diseñado en 1920 por Manuel Gómez Román. Es una construcción sencilla, con una planta baja, tres altas y un torreón sobre el chaflán.",http://www.turismodevigo.org/sites/turismodevigo/files/lug038.jpg,42.238964629033,-8.72342947344299,,es-ES
