idpoi;title;layer;type;tipo;subcategoria;address;postcode;phone;web;description;image_uri;lat;lon;mp3_uri;lang
8639;Monumento a los Galeones de Rande;lugares;39;Monumentos;Escultura;Monte do Castro;36203;;;Obra del arquitecto Desiderio Pernas, es una gran plataforma sobre la que están situadas tres anclas de navíos hundidos en la Batalla de Rande, librada en la Ría de Vigo en 1702 entre la armada anglo-holandesa y una flota  hispana y francesa.;http://www.turismodevigo.org/sites/turismodevigo/files/lug274.jpg;422.334.156.413.138;-8.726.611.864.171.210;http://www.turismodevigo.org/sites/turismodevigo/files/lug274es.mp3;es-ES
8402;MARCO. Museo de Arte Contemporánea de Vigo;lugares;38;Museos;Centro de arte contemporánea;Príncipe, 54;36202;986113900;www.marcovigo.com;MARCO no tiene colección permanente y funciona como centro de arte contemporáneo, con un programa de exposiciones temporales y un conjunto de actividades paralelas de las que el programa educativo es una parte esencial.;http://www.turismodevigo.org/sites/turismodevigo/files/lug020.jpg;422.359.738.934.723;-8.721.122.108.231.490;http://www.turismodevigo.org/sites/turismodevigo/files/09-museo_de_arte_contemporaneo_de_vigo_1.mp3;es-ES
8688;Auditorio del Museo de Arte Contemporánea de Vigo (MARCO);lugares;37;Edificios singulares;Auditorio;Príncipe, 54;36202;986113900;www.marcovigo.com;Espacio habilitado para la realización de eventos públicos.;http://www.turismodevigo.org/sites/turismodevigo/files/lug325.jpg;422.358.593.745.221;-8.721.064.892.983.570;http://www.turismodevigo.org/sites/turismodevigo/files/09-museo_de_arte_contemporaneo_de_vigo_0.mp3;es-ES
8720;"Museo Municipal de Vigo ""Quiñones de León""";lugares;45;Paradas del bus turístico;Posible visita a pie;Parque de Castrelos, s/n;36213;986291600;www.vitrasa.es;Parada frente al museo Quiñones de León.;http://www.turismodevigo.org/sites/turismodevigo/files/lug364.jpg;422.143.011.493.124;-8.727.182.229.966.040;http://www.turismodevigo.org/sites/turismodevigo/files/08-museo_quinones_de_leon_0.mp3;es-ES
8406;"Museo Municipal de Vigo ""Quiñones de León""";lugares;38;Museos;Arquitectura civil;Parque de Castrelos, s/n;36213;986295070;www.museodevigo.org;El museo municipal de Vigo íQuiñones de Leóní es una institución, dependiente del ayuntamiento de Vigo, encuadrada, actualmente, en Cultura, Fiestas y Museos.;http://www.turismodevigo.org/sites/turismodevigo/files/lug024.jpg;422.131.763.333.631;-8.727.810.303.803.150;http://www.turismodevigo.org/sites/turismodevigo/files/08-museo_quinones_de_leon.mp3;es-ES
8433;Casa Enrique Mülder;lugares;37;Edificios singulares;Arquitectura civil;Avda Montero Ríos, 22;36201;;;Es una de las obras con carácter más modernista del arquitecto Gómez Román aunque también presenta influencias eclécticas, vienesas y belgas.;http://www.turismodevigo.org/sites/turismodevigo/files/lug052.jpg;422.402.628.825.264;-8.722.306.001.475.540;http://www.turismodevigo.org/sites/turismodevigo/files/07-edificio_mulder_cast.mp3;es-ES
8459;Colegiata de Santa María (Concatedral);lugares;37;Edificios singulares;Arquitectura religiosa;Plaza de la Colegiata;36202;;;Edificio religioso de estilo Neoclásico de principios del siglo XIX, obra de Melchor de Prado. Actualmente es Concatedral de la diócesis de Tui-Vigo.;http://www.turismodevigo.org/sites/turismodevigo/files/lug078.jpg;422.392.728.022.593;-8.725.825.075.030.340;http://www.turismodevigo.org/sites/turismodevigo/files/06-concatedral_de_vigo_cast.mp3;es-ES
8428;Casa de Pazos e Figueroa;lugares;37;Edificios singulares;Arquitectura civil;Plaza de Almeida, 4;36202;;;Palacete urbano situado en el barrio histórico de la ciudad. Forma unidad arquitectónica con la Casa de Ceta;;;;;
8615;Villa Romana de Toralla;lugares;38;Museos;Yacimiento;Canido - Barrio Illa de Toralla - Carretera PO 324;36391;986810260;;La principal particularidad de este yacimiento, que data de los siglos IV y V después de Cristo, es que es la única villa de Galicia que está excavada íntegramente y puede ser visitada.;http://www.turismodevigo.org/sites/turismodevigo/files/lug250.jpg;421.962.806.038.844;-8.795.211.533.448.760;http://www.turismodevigo.org/sites/turismodevigo/files/04-villa_romana_de_toralla.mp3;es-ES
8714;Barcos de la Batalla de la Bahía de Vigo;lugares;40;Ría de Vigo;Pecio;Estrecho de Rande, ría de Vigo;;;;"Integrado por los restos de los buques hundidos en la Batalla de Rande, conocida internacionalmente como la ""Batalla de la Bahía de Vigo"", librada en octubre de 1702 entre una escuadra franco-española y una anglo-holandesa.";http://www.turismodevigo.org/sites/turismodevigo/files/lug358.jpg;422.888.816.448.946;-8.659.976.877.087.610;http://www.turismodevigo.org/sites/turismodevigo/files/03-batalla_de_rande_cast.mp3;es-ES
9247;Casco histórico;lugares;45;Paradas del bus turístico;;;;;;;;4.223.822.029.999.990;-8.729.712.800.000.010;http://www.turismodevigo.org/sites/turismodevigo/files/60_casco_historico.mp3;es-ES
9216;Los Curros;lugares;45;Paradas del bus turístico;;;;;;;;422.292.599;-8.720.090.000.000.020;http://www.turismodevigo.org/sites/turismodevigo/files/25_los_curros.mp3;es-ES
9215;Plaza de España;lugares;45;Paradas del bus turístico;;;;;;;;42.229.355;-8.720.435.500.000.000;http://www.turismodevigo.org/sites/turismodevigo/files/23_plaza_de_espana.mp3;es-ES
9107;Puerta del Sol;lugares;45;Paradas del bus turístico;;;;;;"<p><span style=""color: rgb(0, 0, 0)";;;;;
9116;Fortaleza, castro y mirador;lugares;45;Paradas del bus turístico;;;;;;;;422.311.069;-8.725.125.700.000.030;http://www.turismodevigo.org/sites/turismodevigo/files/22_el_castro_-_fortaleza_-_mirador.mp3;es-ES
9115;Historia del Castro de Vigo;lugares;45;Paradas del bus turístico;;;;;;;;422.299.843;-8.722.568.899.999.940;http://www.turismodevigo.org/sites/turismodevigo/files/21_historia_vigo_-_los_castros_-_martin_codax.mp3;es-ES
9114;Cachamuíña;lugares;45;Paradas del bus turístico;;;;;;;;422.339.049;-8.725.235.300.000.000;http://www.turismodevigo.org/sites/turismodevigo/files/020.mp3;es-ES
9113;Ayuntamiento;lugares;45;Paradas del bus turístico;;;;;;;;422.351.098;-8.727.381.400.000.010;http://www.turismodevigo.org/sites/turismodevigo/files/19_ayuntamiento_-_gerencia_de_urbanismo.mp3;es-ES
9112;Panificadora;lugares;45;Paradas del bus turístico;;;;;;;;4.223.391.930.556.610;-8.719.024.658.203.120;http://www.turismodevigo.org/sites/turismodevigo/files/18_panificadora.mp3;es-ES
9111;Vistas Cíes;lugares;45;Paradas del bus turístico;;;;;;;;422.366.426;-8.728.085.999.999.960;http://www.turismodevigo.org/sites/turismodevigo/files/17_vistas_islas_cies_-_cangas_-_moana.mp3;es-ES
9110;Paseo de Alfonso XII;lugares;45;Paradas del bus turístico;;;;;;;;4.223.391.930.556.610;-8.719.024.658.203.120;http://www.turismodevigo.org/sites/turismodevigo/files/16_paseo_de_alfonso_xii_-_olivo.mp3;es-ES
9109;Plaza de la Princesa;lugares;45;Paradas del bus turístico;;;;;;;;4.223.391.930.556.610;-8.719.024.658.203.120;http://www.turismodevigo.org/sites/turismodevigo/files/15_plaza_de_la_princesa.mp3;es-ES
9108;Edificios modernistas;lugares;45;Paradas del bus turístico;;;;;;;;42.237.998;-872.475.099.999.997;http://www.turismodevigo.org/sites/turismodevigo/files/14_edificios_modernistas_puerta_del_sol.mp3;es-ES
9106;Teatro García Barbón;lugares;45;Paradas del bus turístico;;;;;;"<p><span style=""color: rgb(0, 0, 0)";;;;;
9105;Casa das Artes;lugares;45;Paradas del bus turístico;;;;;;;;422.377.367;-8.722.766.500.000.030;http://www.turismodevigo.org/sites/turismodevigo/files/11_casa_das_artes.mp3;es-ES
9104;Casa Bárcenas;lugares;45;Paradas del bus turístico;;;;;;;;4.223.772.109.999.990;-8.722.111.700.000.020;http://www.turismodevigo.org/sites/turismodevigo/files/10_casa_barcena.mp3;es-ES
9103;Cruce de los cuatro bancos;lugares;45;Paradas del bus turístico;;;;;;;;422.376.048;-872.022.179.999.999;http://www.turismodevigo.org/sites/turismodevigo/files/9_cruce_bancos.mp3;es-ES
9102;Escuela de Artes y Oficios;lugares;45;Paradas del bus turístico;;;;;;;http://www.turismodevigo.org/sites/turismodevigo/files/lug087_0.jpg;4.223.753.380.000.000;-8.719.366.300.000.040;http://www.turismodevigo.org/sites/turismodevigo/files/8_escuela_de_artes_y_oficios.mp3;es-ES
9101;Casas de Oya;lugares;45;Paradas del bus turístico;;;;;;;;422.372.378;-8.718.550.100.000.010;http://www.turismodevigo.org/sites/turismodevigo/files/7_casas_de_oya.mp3;es-ES
9100;Santiago de Vigo;lugares;45;Paradas del bus turístico;;;;;;;;422.368.967;-8.717.939.699.999.980;http://www.turismodevigo.org/sites/turismodevigo/files/6_santiago_de_vigo.mp3;es-ES
9099;García Barbón y Policarpo Sanz;lugares;45;Paradas del bus turístico;;;;;;;;422.370.554;-8.716.263.900.000.050;http://www.turismodevigo.org/sites/turismodevigo/files/5_garcia_barbon_y_policarpo_sanz.mp3;es-ES
9098;Rosalía de Castro;lugares;45;Paradas del bus turístico;;;;;;;;422.380.752;-8.716.414.399.999.960;http://www.turismodevigo.org/sites/turismodevigo/files/4_rosalia.mp3;es-ES
9097;Cultura y Teatro;lugares;45;Paradas del bus turístico;;;;;;;;4.223.822.800.000.000;-8.723.897.399.999.940;http://www.turismodevigo.org/sites/turismodevigo/files/3_cultura_y_teatro.mp3;es-ES
9217;Vistas del Monte Alba;lugares;45;Paradas del bus turístico;;;;;;;;42.227.125;-8.720.974.800.000.020;http://www.turismodevigo.org/sites/turismodevigo/files/26_monte_alba_-_rutas_senderismo.mp3;es-ES
9218;Gran Vía;lugares;45;Paradas del bus turístico;;;;;;;;422.250.602;-8.722.537.099.999.950;http://www.turismodevigo.org/sites/turismodevigo/files/27_gran_via.mp3;es-ES
9219;Instituto Santa Irene;lugares;45;Paradas del bus turístico;;;;;;;;422.208.276;-873.102.510.000.001;http://www.turismodevigo.org/sites/turismodevigo/files/28_instituto_santa_irene.mp3;es-ES
9220;Plaza de América;lugares;45;Paradas del bus turístico;;;;;;;;422.207.087;-8.732.154.499.999.970;http://www.turismodevigo.org/sites/turismodevigo/files/29_plaza_de_america.mp3;es-ES
9222;Parque de Castrelos;lugares;45;Paradas del bus turístico;;;;;;;;4.223.391.930.556.610;-8.719.024.658.203.120;http://www.turismodevigo.org/sites/turismodevigo/files/31_parque_de_castrelos_-_historia.mp3;es-ES
9221;Avenida Castrelos;lugares;45;Paradas del bus turístico;;;;;;;;422.193.546;-8.732.708.099.999.960;http://www.turismodevigo.org/sites/turismodevigo/files/30_avenida_de_castrelos_-_imd_-_museo_liste.mp3;es-ES
9223;Auditorio Castrelos;lugares;45;Paradas del bus turístico;;;;;;;;422.131.202;-872.885.640.000.004;http://www.turismodevigo.org/sites/turismodevigo/files/32_auditorio_castrelos.mp3;es-ES
9224;Salones del Pazo;lugares;45;Paradas del bus turístico;;;;;;;;422.139.533;-8.727.698.099.999.990;http://www.turismodevigo.org/sites/turismodevigo/files/33_salones_del_pazo_-_jardines.mp3;es-ES
9225;Zona Balaídos;lugares;45;Paradas del bus turístico;;;;;;;;422.117.408;-8.732.736.199.999.970;http://www.turismodevigo.org/sites/turismodevigo/files/35_zona_balaidos.mp3;es-ES
9226;Estadio de Balaídos y Factoría PSA;lugares;45;Paradas del bus turístico;;;;;;;;422.113.093;-8.736.605.599.999.960;http://www.turismodevigo.org/sites/turismodevigo/files/36_estadio_de_balaidos_-_factoria_psa.mp3;es-ES
9227;Expansion Vigo;lugares;45;Paradas del bus turístico;;;;;;;;422.149.807;-8.742.613.699.999.990;http://www.turismodevigo.org/sites/turismodevigo/files/37_expansion_vigo.mp3;es-ES
9228;Coia;lugares;45;Paradas del bus turístico;;;;;;;;422.182.363;-874.504.980.000.006;http://www.turismodevigo.org/sites/turismodevigo/files/38_coia.mp3;es-ES
9229;Playas;lugares;45;Paradas del bus turístico;;;;;;;;422.154.494;-8.760.968.700.000.030;http://www.turismodevigo.org/sites/turismodevigo/files/40_direccion_playas.mp3;es-ES
9230;Clima;lugares;45;Paradas del bus turístico;;;;;;;;422.128.976;-8.765.058.400.000.040;http://www.turismodevigo.org/sites/turismodevigo/files/41_clima.mp3;es-ES
9231;El Rapto de Europa;lugares;45;Paradas del bus turístico;;;;;;;;422.112.621;-8.773.011.399.999.970;http://www.turismodevigo.org/sites/turismodevigo/files/43_rapto_de_europa.mp3;es-ES
9232;Museo Verbum;lugares;45;Paradas del bus turístico;;;;;;;;422.119.878;-8.773.875.099.999.940;http://www.turismodevigo.org/sites/turismodevigo/files/44_museo_verbum.mp3;es-ES
9233;Playa de Samil;lugares;45;Paradas del bus turístico;;;;;;;;422.133.621;-8.774.247.899.999.970;http://www.turismodevigo.org/sites/turismodevigo/files/45_playa_de_samil.mp3;es-ES
9234;Fin Playa de Samil;lugares;45;Paradas del bus turístico;;;;;;;;422.174.468;-8.775.430.899.999.940;http://www.turismodevigo.org/sites/turismodevigo/files/46_fin_playa_de_samil.mp3;es-ES
9235;Museo del Mar;lugares;45;Paradas del bus turístico;;;;;;;;422.226.947;-877.132.210.000.002;http://www.turismodevigo.org/sites/turismodevigo/files/47_museo_del_mar.mp3;es-ES
9236;Pazo Los Escudos;lugares;45;Paradas del bus turístico;;;;;;;;422.214.214;-8.763.142.799.999.960;http://www.turismodevigo.org/sites/turismodevigo/files/48_pazo_los_escudos.mp3;es-ES
9237;Zona Franca;lugares;45;Paradas del bus turístico;;;;;;;;422.240.992;-8.757.817.400.000.020;http://www.turismodevigo.org/sites/turismodevigo/files/49_zona_franca.mp3;es-ES
9238;Bouzas;lugares;45;Paradas del bus turístico;;;;;;;;422.268.588;-8.752.016.599.999.930;http://www.turismodevigo.org/sites/turismodevigo/files/50_bouzas.mp3;es-ES
9239;Avenida de Beiramar;lugares;45;Paradas del bus turístico;;;;;;;;4.222.488.389.999.990;-8.751.203.499.999.970;http://www.turismodevigo.org/sites/turismodevigo/files/51_avenida_de_beiramar.mp3;es-ES
9240;Astilleros;lugares;45;Paradas del bus turístico;;;;;;;;422.250.836;-8.747.031.900.000.020;http://www.turismodevigo.org/sites/turismodevigo/files/52_astilleros.mp3;es-ES
9241;Los lunes al sol;lugares;45;Paradas del bus turístico;;;;;;;;4.222.570.229.999.990;-8.743.694.900.000.030;http://www.turismodevigo.org/sites/turismodevigo/files/53_los_lunes_al_sol.mp3;es-ES
9242;Astilleros de Barreras;lugares;45;Paradas del bus turístico;;;;;;;;422.255.705;-8.739.477.299.999.970;http://www.turismodevigo.org/sites/turismodevigo/files/54_astilleros_de_barreras.mp3;es-ES
9243;Primera grúa;lugares;45;Paradas del bus turístico;;;;;;;;422.265.833;-8.738.104.799.999.970;http://www.turismodevigo.org/sites/turismodevigo/files/55_primera_grua.mp3;es-ES
9244;Empresas de congelados;lugares;45;Paradas del bus turístico;;;;;;;;422.281.712;-8.737.176.399.999.950;http://www.turismodevigo.org/sites/turismodevigo/files/56_congelados_-_frigorificos.mp3;es-ES
9245;Lonja;lugares;45;Paradas del bus turístico;;;;;;;;422.321.134;-8.734.392.299.999.960;http://www.turismodevigo.org/sites/turismodevigo/files/57_lonjas.mp3;es-ES
9246;Berbés;lugares;45;Paradas del bus turístico;;;;;;;;422.367.572;-8.730.758.000.000.030;http://www.turismodevigo.org/sites/turismodevigo/files/59_berbes.mp3;es-ES
8592;Playa de Rodas;lugares;36;Cíes;Playas;Illa do Faro, Islas Cíes;36211;;;Es la playa más grande e importante del Parque Natural Illas Cies en el cual se halla integrada. Fue calificada como la mejor playa del mundo por prestigioso diario The Guardian.;http://www.turismodevigo.org/sites/turismodevigo/files/lug227.jpg;42.221.891.869.113;-8.903.471.372.054.120;;es-ES
8733;Monte da Guía;lugares;41;Turismo urbano;Ponto de interesse;;;;;Uno de los lugares más visitados de Vigo;http://www.turismodevigo.org/sites/turismodevigo/files/lug377.jpg;42.255.785;-870.188;http://www.turismodevigo.org/sites/turismodevigo/files/lug377es.mp3;es-ES
8685;Auditorio del Club Financiero de Vigo;lugares;37;Edificios singulares;Auditorio;García Barbón 62;36201;986447220;www.clubfinancierovigo.com;Espacio habilitado para la realización de eventos públicos.;http://www.turismodevigo.org/sites/turismodevigo/files/lug322.jpg;422.366.756.596.314;-871.221.986.331.063;;es-ES
8698;Salida y llegada del recorrido turístico en autobús;lugares;45;Paradas del bus turístico;Punto de origen y destino;Rúa das Avendias;36202;986291600;www.vitrasa.es;Aquí comienza y termina el recorrido  turístico en autobús descapotable por la ciudad de Vigo. Se trata de una visita guiada con una duración aproximada de de 2 horas.;http://www.turismodevigo.org/sites/turismodevigo/files/lug335.jpg;422.405.697.776.661;-872.610.666.445.775;;es-ES
8699;Terminal de Citröen;lugares;35;Puntos de información turística;Terminal de carga;Puerto de Bouzas, s/n;36208;;www.vigo.psa-peugeot-citroen.com;Gran superficie logística de la empresa Citröen destinada al almacenamiento y transporte de los modelos de vehículo que la marca fabrica en su factoría de Vigo.;http://www.turismodevigo.org/sites/turismodevigo/files/lug343.jpg;422.283.198.335.914;-876.003.594.255.815;;es-ES
8700;Factoría PSA Peugeot Citröen;lugares;35;Puntos de información turística;Fábrica;Avda. Citroín, 3-5;36210;986215000;www.vigo.psa-peugeot-citroen.com;La planta produce cuatro vehículos distintos para las dos marcas del Grupo, cuenta con una plantilla de 6.500 empleados y sus exportaciones representan el 23,3% de las exportaciones de Galicia.;http://www.turismodevigo.org/sites/turismodevigo/files/lug344.jpg;422.077.097.351.399;-874.131.855.513.648;;es-ES
8701;Lonja de El Berbés;lugares;35;Puntos de información turística;Lonja de altura;Puerto pesquero de Vigo;36202;986821508;www.apvigo.com;Se trata de la lonja e pescado congelado más importante del mundo y la más importante de Europa en lo referente a pescado fresco.;http://www.turismodevigo.org/sites/turismodevigo/files/lug345.jpg;422.370.936.327.125;-873.098.715.156.788;;es-ES
8702;Astillero Vulcano;lugares;40;Ría de Vigo;Construcción de barcos;Calle de la Devesa Santa Tegra, 69;36207;986266161;www.factoriasvulcano.com;Factoría con larga tradición en la construcción de buques. Está afincada en la ría de Vigo desde 1919.;http://www.turismodevigo.org/sites/turismodevigo/files/lug346.jpg;422.509.603.220.018;-870.508.897.920.338;;es-ES
8703;Astillero Barreras;lugares;40;Ría de Vigo;Construcción de barcos;Avenida de Beiramar, 2;36208;986242293;www.hjbarreras.es;La empresa fue fundada en 1982  y está destinada principalmente a la cosntrucción de grandes buques tipo Ro-Ro, Ferrys, offshore, etc.;http://www.turismodevigo.org/sites/turismodevigo/files/lug347.jpg;422.269.296.448.707;-873.943.570.034.223;;es-ES
8704;Club Nautico Punta Lagoa;lugares;40;Ría de Vigo;Puerto deportivo;Camiño Lagoa, s/n;36213;986374305;www.nauticopuntalagoa.com;Club nautico deportivo. Dispone de marina y amarres para embarcaciones deportivas;http://www.turismodevigo.org/sites/turismodevigo/files/lug348.jpg;422.557.094.770.781;-870.617.713.914.583;;es-ES
8697;Samil;lugares;45;Paradas del bus turístico;Posible visita a pie;Samil;36212;986291600;www.vitrasa.es;Parada frente a la playa de Samil en Vigo;;422.109.026.146.444;-877.511.335.112.866;;es-ES
8696;O Castro de Vigo;lugares;45;Paradas del bus turístico;Posible visita a pie;Monte O Castro;36202;986291600;www.vitrasa.es;"Parada frente al yacimiento arqueológico de ""O Castro de Vigo"".";http://www.turismodevigo.org/sites/turismodevigo/files/lug333.jpg;422.307.648.632.387;-872.580.504.981.379;;es-ES
8695;Aeropuerto de Vigo;lugares;35;Puntos de información turística;Aeropuerto;Avda. do Aeroporto s/n;36218;986268200;;Aeropuertode Peinador.;http://www.turismodevigo.org/sites/turismodevigo/files/lug332.jpg;422.251.531.230.541;-86.325.065.972.232;;es-ES
8684;Auditorio de la Cámara de Comercio de Vigo;lugares;37;Edificios singulares;Auditorio;República Argentina, 18;36201;986446343;www.camaravigo.com;Espacio habilitado para la realización de eventos públicos.;http://www.turismodevigo.org/sites/turismodevigo/files/lug321.jpg;422.366.043.350.156;-871.884.908.268.981;;es-ES
8687;Auditorio del Museo do Mar de Galicia;lugares;37;Edificios singulares;Auditorio;Avda. Atlántida, nº 160;36208;986247750;www.museodomar.com;Espacio habilitado para la realización de eventos públicos.;http://www.turismodevigo.org/sites/turismodevigo/files/lug324.jpg;422.241.397.002.066;-876.992.736.745.358;;es-ES
8689;Verbum - Casa das Palabras;lugares;37;Edificios singulares;Auditorio;Avda. de Samil, nº 17;36212;986240130;www.verbum.vigo.org;Espacio habilitado para la realización de eventos públicos.;http://www.turismodevigo.org/sites/turismodevigo/files/lug326.jpg;422.129.670.379.203;-877.361.620.143.955;;es-ES
8690;Liceo Marítimo de Bouzas;lugares;40;Ría de Vigo;Puerto deportivo;Av. Eduardo Cabello, 8;36208;986239955;www.liceobouzas.com;Club nautico deportivo. Dispone de marina y amarres para embarcaciones deportivas;http://www.turismodevigo.org/sites/turismodevigo/files/lug327.jpg;422.267.675.141.582;-875.187.920.193.049;;es-ES
8691;Marina Davila Sport;lugares;40;Ría de Vigo;Puerto deportivo;Muelle de reparaciones de Bouzas, s/n;36208;986239955;www.davilasport.es;Club nautico deportivo. Dispone de marina y amarres para embarcaciones deportivas;http://www.turismodevigo.org/sites/turismodevigo/files/lug328.jpg;422.323.485.951.243;-874.438.591.710.844;;es-ES
8692;Real Club Náutico de Vigo;lugares;40;Ría de Vigo;Puerto deportivo;Paseo de las Avenidas, s/n;36202;986447441;www.rcnauticovigo.com;Club nautico deportivo. Dispone de marina y amarres para embarcaciones deportivas;http://www.turismodevigo.org/sites/turismodevigo/files/lug329.jpg;422.411.500.670.359;-872.510.280.080.097;;es-ES
8683;Auditorio Martín Códax del Conservatorio Superior de Música;lugares;37;Edificios singulares;Auditorio;Manuel Olivé, 23;36203;986471144;http://conservatoriosuperiorvigo.com;Espacio habilitado para la realización de eventos públicos.;http://www.turismodevigo.org/sites/turismodevigo/files/lug320.jpg;422.289.400.649.774;-872.331.004.116.441;;es-ES
8693;Club nautico de Canido;lugares;40;Ría de Vigo;Puerto deportivo;Muelle de Canido S/N;36390;986492415;www.cmcanido.com;Club nautico deportivo. Dispone de amarres para embarcaciones deportivas;http://www.turismodevigo.org/sites/turismodevigo/files/lug330.jpg;421.945.877.417.659;-880.104.103.676.118;;es-ES
8694;Iglesia de San Francisco;lugares;37;Edificios singulares;Arquitectura religiosa;Camino de San Francisco;36202;;;Antiguo monasterio del Siglo XVII, que tiene su origen en una desaparecida ermita del siglo X. Después de la desamortización en 1887 es Casa de la Caridad.;http://www.turismodevigo.org/sites/turismodevigo/files/lug331.jpg;422.360.817.380.351;-873.089.662.653.396;;es-ES
8705;Puerto comercial de Vigo;lugares;40;Ría de Vigo;Puerto comercial;Avenida de Guixar, s/n;36201;986268000;www.apvigo.com;Espacio logístico destinado al transporte y almacenamiento de mercancías por mar.;http://www.turismodevigo.org/sites/turismodevigo/files/lug349.jpg;422.477.364.414.765;-870.888.256.040.916;;es-ES
8731;Ría de Vigo;lugares;41;Turismo urbano;Ponto de interesse;;;;;Uno de los lugares más visitados de Vigo;http://www.turismodevigo.org/sites/turismodevigo/files/lug375.jpg;42.266.566;-8.705.965;http://www.turismodevigo.org/sites/turismodevigo/files/lug375es.mp3;es-ES
8722;Estación de Autobuses de Vigo;lugares;35;Puntos de información turística;Estación de autobuses;Avenida de Madrid, 57;36204;986373411;www.vigobus.com;Estación de autobuses de Vigo.;http://www.turismodevigo.org/sites/turismodevigo/files/lug366.jpg;422.243.132.602.791;-870.924.641.539.477;;es-ES
8723;Colexio oficial de arquitectos de Galicia;lugares;37;Edificios singulares;Arquitectura civil;Doctor Cadaval, 5;36202;986439633;www.coagvigo.es;Edificio de corte vangüardista diseñado por Irisarri y Piñera.;http://www.turismodevigo.org/sites/turismodevigo/files/lug367.jpg;422.373;-8.724.768;http://www.turismodevigo.org/sites/turismodevigo/files/lug367es.mp3;es-ES
8724;Mercado da Pedra;lugares;41;Turismo urbano;Mercado;Calle de las Ostras s/n;36202;;;Uno de los lugares más visitados de Vigo;http://www.turismodevigo.org/sites/turismodevigo/files/lug368.jpg;4.223.989;-8.726.449;http://www.turismodevigo.org/sites/turismodevigo/files/lug368es.mp3;es-ES
8725;Praza da Constitución;lugares;41;Turismo urbano;Ponto de interesse;Praza da Constitución s/n;36202;;;Uno de los lugares más visitados de Vigo;http://www.turismodevigo.org/sites/turismodevigo/files/lug369.jpg;42.238.511;-8.726.054;http://www.turismodevigo.org/sites/turismodevigo/files/lug369es.mp3;es-ES
8726;Praza da Porta do Sol;lugares;41;Turismo urbano;Ponto de interesse;Praza da Porta do Sol s/n;36202;;;Uno de los lugares más visitados de Vigo;http://www.turismodevigo.org/sites/turismodevigo/files/lug370.jpg;42.238.025;-8.724.222;http://www.turismodevigo.org/sites/turismodevigo/files/lug370es.mp3;es-ES
8727;Rúa dos Cesteiros;lugares;41;Turismo urbano;Ponto de interesse;Rúa dos Cesteiros s/n;36202;;;Uno de los lugares más visitados de Vigo;http://www.turismodevigo.org/sites/turismodevigo/files/lug371.jpg;42.238.882;-8.726.348;http://www.turismodevigo.org/sites/turismodevigo/files/lug371es.mp3;es-ES
8728;Rúa do Príncipe;lugares;41;Turismo urbano;Ponto de interesse;Rúa do Príncipe s/n;36202;;;Uno de los lugares más visitados de Vigo. Ideal para hacer compras;http://www.turismodevigo.org/sites/turismodevigo/files/lug372.jpg;42.237.019;-8.723.187;http://www.turismodevigo.org/sites/turismodevigo/files/lug372es.mp3;es-ES
8729;Churruca;lugares;41;Turismo urbano;Ponto de interesse;Rúa Churruca s/n;36202;;;Uno de los lugares más visitados de Vigo. Ideal para tomar un vino;http://www.turismodevigo.org/sites/turismodevigo/files/lug373.jpg;42.235.521;-87.174;http://www.turismodevigo.org/sites/turismodevigo/files/lug373es.mp3;es-ES
8730;Areal;lugares;41;Turismo urbano;Ponto de interesse;Rúa Areal s/n;36202;;;Uno de los lugares más visitados de Vigo;http://www.turismodevigo.org/sites/turismodevigo/files/lug374.jpg;42.239.109;-8.716.955;http://www.turismodevigo.org/sites/turismodevigo/files/lug374es.mp3;es-ES
8686;Auditorio Zona Franca de Vigo;lugares;37;Edificios singulares;Auditorio;Área Portuaria de Bouzas s/n;36208;986269700;www.zonafrancavigo.com/zonafrancavigo_es/;Espacio habilitado para la realización de eventos públicos.;http://www.turismodevigo.org/sites/turismodevigo/files/lug323.jpg;422.297.450.043.917;-875.565.147.137.398;;es-ES
8732;Illas Cíes;lugares;41;Turismo urbano;Ponto de interesse;;;;;Uno de los lugares más visitados de Vigo;;4.222.993;-890.417;http://www.turismodevigo.org/sites/turismodevigo/files/lug376es.mp3;es-ES
8721;Estación de FFCC;lugares;35;Puntos de información turística;Estación de tren;Areal s/n;36201;902432343;www.adif.es/es_ES/infraestructuras/estaciones/22308/informacion_000390.shtml;Estación de ferrocarril de Vigo.;http://www.turismodevigo.org/sites/turismodevigo/files/lug365.jpg;422.391.446.195.105;-871.372.655.426.546;;es-ES
8719;Puente de Rande;lugares;40;Ría de Vigo;Puente;Ría de Vigo;;;;Fue proyectado por el ingeniero italiano Fabrizio de Miranda, el español Florencio del Pozo (que también se encargó de la cimentación) y por Alfredo Passaro. Es todo un símbolo para los vigueses.;http://www.turismodevigo.org/sites/turismodevigo/files/lug363.jpg;422.877.663.861.074;-866.049.986.605.693;;es-ES
8707;Puerto de pasajeros de Vigo;lugares;40;Ría de Vigo;Puerto de pasajeros;Estación Marítima de Ría;36202;986224757;www.apvigo.com;Espacio logístico destindado al atraque de grandes cruceros así como al transporte de personas en ferry a distintos puntos de la Ría.;http://www.turismodevigo.org/sites/turismodevigo/files/lug351.jpg;422.412.065.150.138;-872.869.939.382.685;;es-ES
8708;CITEXVI;lugares;41;Turismo urbano;Ciudad Tecnológica de Vigo;Fonte das Abelleiras, s/n;36310;986120420;www.citexvi.es;Sociedad anónima de derecho privado centrada en la promoción e impulso de actividades de I+D+ i.;http://www.turismodevigo.org/sites/turismodevigo/files/lug352.jpg;421.670.883.461.002;-868.379.882.208.743;;es-ES
8709;Conservas Albo;lugares;41;Turismo urbano;Conservera;Jacinto Benavente, 41;36208;986213333;www.albo.es;Fabricación de conservas de pescado y marisco.;http://www.turismodevigo.org/sites/turismodevigo/files/lug353.jpg;422.280.202.083.677;-873.683.376.872.652;;es-ES
8710;Palacio de Oriente;lugares;41;Turismo urbano;Conservera;Ctra. Vigo-Baiona, 127;36213;986207168;www.palaciodeoriente.net;Fabricación de conservas de pescado y marisco.;http://www.turismodevigo.org/sites/turismodevigo/files/lug354.jpg;421.965.605.674.658;-876.310.647.195.358;;es-ES
8711;Paypay;lugares;41;Turismo urbano;Conservera;Tomás Alonso, 80;36208;986233500;www.paypay.es;Fabricación de conservas de pescado y marisco.;http://www.turismodevigo.org/sites/turismodevigo/files/lug355.jpg;42.224.324.622.832;-874.010.374.787.148;;es-ES
8712;Conservas Valcarcel - Vigilante;lugares;41;Turismo urbano;Conservera;Muelle de bouzas, s/n (reparaciones);36208;986298488;www.valcarcel-sa.es;Fabricación de conservas de pescado y marisco.;http://www.turismodevigo.org/sites/turismodevigo/files/lug356.jpg;422.309.925.452.533;-874.732.721.278.576;;es-ES
8713;Orbe, S.A.;lugares;41;Turismo urbano;Conservera;Tomás Alonso, 106;36208;986208411;www.orbesa.com;Fabricación de conservas de pescado y marisco.;http://www.turismodevigo.org/sites/turismodevigo/files/lug357.jpg;422.241.203.156.335;-874.273.416.663.022;;es-ES
8706;Puerto pesquero de Vigo;lugares;40;Ría de Vigo;Puerto pesquero;Puerto pesquero de Vigo;36202;986821508;www.apvigo.com;Espacio logístico destinado a las descarga, transporte y almacenamiento de pescado tanto fresco como congelado.;http://www.turismodevigo.org/sites/turismodevigo/files/lug350.jpg;42.238.650.033.308;-873.012.432.955.699;;es-ES
8718;Mercante;lugares;40;Ría de Vigo;Pecio;Proximidades de Cabo Home;;;;Se trata de un barco mercante que se hundió en es ta zona cargado de platos de porcelana.;http://www.turismodevigo.org/sites/turismodevigo/files/lug362.jpg;42.244.348.656.916;-886.292.153.204.935;;es-ES
8717;Petrolero Polycomander;lugares;40;Ría de Vigo;Pecio;Proximidades de la Isla de Monteagudo, Islas Cíes;;;;El 5 de mayo de 1970, el petrolero noruego Polycommander embarrancó en las Islas Cíes cuando pretendía salir de la ría de Vigo por el canal del Norte. Los 39 tripulantes consiguieron abandonar el barco y no hubo daños personales.;http://www.turismodevigo.org/sites/turismodevigo/files/lug361.jpg;422.375.430.424.596;-889.576.837.402.149;;es-ES
8716;Anforas romanas;lugares;40;Ría de Vigo;Pecio;Ría de Vigo;;;;Al parecer las ánforas hayadas en la zona pertenecían a un buque romano de mediados del siglo I d.C. Tras 2000 años ya no hay restos del buque pero si muestras de su naufrágio, como las ánforas modelo Haltern 70 encontradas.;http://www.turismodevigo.org/sites/turismodevigo/files/lug360.jpg;42.227.131.267.498;-877.131.526.376.522;;es-ES
8715;Polígonos de bateas;lugares;40;Ría de Vigo;Acuicultura;Ría de Vigo;;;;Se trata viveros flotantes o fijos destinadas fundamentalmente al cultivo de mejillón y ostra. Consisten en un emparrillado de madera (normalmente eucalipto) del que cuelgan las cuerdas de cuerdas de cultivo que pueden llegar a 1000 por batea.;http://www.turismodevigo.org/sites/turismodevigo/files/lug359.jpg;422.681.383.015.103;-868.526.011.435.946;;es-ES
8647;Monumento homenaje a los canteros;lugares;39;Monumentos;Escultura;Eduardo Cabello;36208;;;La obra es una pieza compleja en la que se pueden observar herramientas propias de este oficio, así como inscripciones en íArxinaí -el idioma de los canteros-.;http://www.turismodevigo.org/sites/turismodevigo/files/lug282.jpg;422.278.997.111.598;-875.348.131.981.263;;es-ES
8648;Alpide;lugares;41;Turismo urbano;Centro de arte;Avda. de Castrelos, 115;36210;986239646;;Cuenta con un espacio expositivo para cualquier exposición y/o evento además de un fondo de galería considerable representando a unos 50 artistas pictóricos gallegos de distintas épocas.;;422.156.171.933.039;-873.261.055.964.621;;es-ES
8649;Alpide;lugares;41;Turismo urbano;Centro de arte;López de Neira, 5;36202;986239646;;Cuenta con un espacio expositivo para cualquier exposición y/o evento además de un fondo de galería considerable representando a unos 50 artistas pictóricos gallegos de distintas épocas.;http://www.turismodevigo.org/sites/turismodevigo/files/lug285.jpg;422.367.960.595.359;-872.416.186.503.572;;es-ES
8650;Iglesia de la Soledad;lugares;37;Edificios singulares;Arquitectura religiosa;Atalaya del Monte de O Castro;36203;;;Iglesia de estilo neoclasicista, inspirada en la iglesia parisina de la Magdalena de Bartolomé Vignon. Fue promovida por Leopoldo Eijo-garay (Obispo de Madrid-Alcalá).;http://www.turismodevigo.org/sites/turismodevigo/files/lug286.jpg;422.290.677.797.197;-872.743.893.666.551;;es-ES
8646;Monumento a Rosalía de Castro;lugares;39;Monumentos;Escultura;Rosalía de Castro;36201;;;Se trata de una obra de Armando Rodriguez formada por un grupo plástico con la escritora gallega rodeada de sus hijos a los que lee un libro.;http://www.turismodevigo.org/sites/turismodevigo/files/lug281.jpg;42.238.093.622.183;-871.803.789.317.284;;es-ES
8651;Iglesia de Nuestra Señora de Fátima;lugares;37;Edificios singulares;Arquitectura religiosa;Vía Norte, 19;36206;;;Destaca en la fachada de este templo una torre esbelta. Todo él está realizado en cantería. El interior destaca por su amplia capacidad -cerca de 500 personas sentadas- y su retablo.;http://www.turismodevigo.org/sites/turismodevigo/files/lug287.jpg;422.349.196.113.619;-870.778.305.465.385;;es-ES
8652;Iglesia de Alcabre;lugares;37;Edificios singulares;Arquitectura religiosa;Avenida Atlántica;36202;;;Iglesia de tres naves, realizada en granito. Fue diseñada por el arquitecto Desiderio Pernas en el año 1997.;http://www.turismodevigo.org/sites/turismodevigo/files/lug288.jpg;42.221.375.571.677;-876.485.171.983.614;;es-ES
8653;Iglesia de Bouzas;lugares;37;Edificios singulares;Arquitectura religiosa;Eduardo Cabello, 61;36208;;;Templo de base rectangular y ábside en semicírculo. En el exterior podemos apreciar el escudo de armas de los Peña y los Correa, siendo éste último -el capitán Álvaro Correa- quién la mandó construir en 1596.;http://www.turismodevigo.org/sites/turismodevigo/files/lug289.jpg;422.264.222.293.407;-875.324.474.070.383;;es-ES
8654;Iglesia de Santa Marína de Cabral;lugares;37;Edificios singulares;Arquitectura religiosa;Parroquia de Cabral;36218;;;El atrio de la iglesia es hoy en día una de los centros de reunión de la parroquia, muestra de ello es que el palco de la música se ha situado en esta zona.;http://www.turismodevigo.org/sites/turismodevigo/files/lug290.jpg;422.232.740.248.728;-865.673.266.263.812;;es-ES
8655;Iglesia de San Cristobal de Candeán;lugares;37;Edificios singulares;Arquitectura religiosa;Camino de la Goleta, 1;36217;;;En el interior se conservan pequeñas tallas de gran valor como la de San Cristóbal, de principios del s. XVIII y de estilo barroco, o la de San Benito.;http://www.turismodevigo.org/sites/turismodevigo/files/lug291.jpg;422.418.578.743.122;-866.516.336.412.958;;es-ES
8645;Monumento a Mendez Núñez;lugares;39;Monumentos;Escultura;Plaza de Compostela;36201;;;El pedestal fue diseñado por Jenaro de la Fuente Domínguez y la escultura es de Agustín Querol, en ella se representa al almirante con un gesto airoso y de mando con unos prismáticos y un sable en una mano y con la otra extendida.;http://www.turismodevigo.org/sites/turismodevigo/files/lug280.jpg;422.392.421.644.792;-872.364.420.254.209;;es-ES
8644;Monumento a Martín Codax;lugares;39;Monumentos;Escultura;Monte do Castro;36203;;;Está compuesto por una piedra del mar situada en medio de un estanque;;;;;
8633;Monumento a la mujer;lugares;39;Monumentos;Escultura;Jardines de las Avenidas;36201;;;Monumento situado en Las Avenidas, delante del Real Club Náutico. Obra del escultor vigués Xesús Valverde Alonso. Fue instalado en 1992 como un homenaje de Vigo a la mujer y consta de dos figuras en bronce sobre un pedestal de granito.;http://www.turismodevigo.org/sites/turismodevigo/files/lug268.jpg;422.407.458.315.668;-87.229.368.735.407;;es-ES
8634;Monumento a los marineros muertos en el mar;lugares;39;Monumentos;Escultura;Plaza del Puerto Pesquero;36202;;;Obra escultórica de Cándido Pazos López, inaugurada en junio de 2006. Se trata de un bloque de piedra morena -de unos 8m de alto por 1í20m de ancho- esculpida en espiral, con un rosetón de jade, que simula una especie de ola.;http://www.turismodevigo.org/sites/turismodevigo/files/lug269.jpg;422.363.260.863.045;-873.144.713.472.506;;es-ES
8636;Monumento al emigrante;lugares;39;Monumentos;Escultura;Avenida de Castelao;36208;;;El monumento, en granito, está formado por un plinto en el que se apoya un pedestal;;;;;
8637;Monumento al empuje vigués;lugares;39;Monumentos;Escultura;Monte O Castro;36202;;;Monumento en piedra, obra de Camilo Nogueira inaugurada en 1966 y situada en el parque de O Castro, representa una barca que avanza en la que tres atletas levantan el escudo de Vigo simbolizando el empuje y la unión.;http://www.turismodevigo.org/sites/turismodevigo/files/lug272.jpg;422.317.347.939.045;-872.646.354.186.178;;es-ES
8638;Monumento al Herrero;lugares;39;Monumentos;Escultura;Plaza Eugenio Fradrique;36208;;;Consiste en un obrero trabajando con gesto de martillear sobre una pieza. Está compuesto por diferentes piezas de hierro, ensambladas una a una íin situí por el escultor, Guillermo Steinbrüggen. Se inauguró en 1970.;http://www.turismodevigo.org/sites/turismodevigo/files/lug273.jpg;422.245.480.874.109;-873.648.630.760.391;;es-ES
8635;Monumento a Laxeiro;lugares;39;Monumentos;Escultura;Policarpo Sanz esquina Reconquista;36202;;;Obra de Xurxo Vázquez situada en la confluencia de las calles Policarpo Sánz y Reconquista, se inauguró en 1997. Se trata de un busto de Don José Otero Abeledo íLaxeiroí, pintor universal vigués.;http://www.turismodevigo.org/sites/turismodevigo/files/lug270.jpg;422.377.020.891.736;-872.303.174.824.743;;es-ES
8640;Monumento a los héroes de la Reconquista;lugares;39;Monumentos;Escultura;Plaza de la Independencia;36211;;;Preside la Plaza de la Independencia, fue levantado con motivo del primer centenario de la Reconquista de Vigo. Es obra del escultor Julio González Pola.;http://www.turismodevigo.org/sites/turismodevigo/files/lug275.jpg;422.238.477.213.346;-873.004.545.803.649;;es-ES
8641;Monumento a los cantores, poetas y trobadores;lugares;39;Monumentos;Escultura;Paseo de Alfonso XII;36202;;;Monumento en bronce de color pompeia que representa una ninfa sentada sobre un dragón. La figura alada se asienta sobre una columna de granito pulido, de 4 metros de alto y 80 centímetros de ancho.;http://www.turismodevigo.org/sites/turismodevigo/files/lug276.jpg;42.236.695.526.578;-872.816.888.060.358;;es-ES
8642;Monumento al pescador;lugares;39;Monumentos;Escultura;Calle de San Francisco;36202;;;Sobre un alto pedestal de dos cuerpos, se eleva la figura de un marinero vestido con la ropa de aguas que sostiene un remo en su mano izquierda, en el frente, una mujer con un hijo y una ípatelaí, espera pacientemente o muestra el fruto de la pesca.;http://www.turismodevigo.org/sites/turismodevigo/files/lug277.jpg;422.366.831.438.376;-872.971.658.900.318;;es-ES
8643;Monumeto al trabajo;lugares;39;Monumentos;Escultura;Gran Vía;36203;;;Grupo escultórico de Ramón Conde de 1991, una de las figuras claves del arte gallego del s.XX. Situado al comienzo de la Gran Vía, está formado por siete marineros tirando de una red que sale de un mar representado por un estanque.;http://www.turismodevigo.org/sites/turismodevigo/files/lug278.jpg;422.341.300.319.509;-871.674.505.059.275;;es-ES
8656;Iglesia de San Andrés de Comesaña;lugares;37;Edificios singulares;Arquitectura religiosa;Carretera Matamá-Pazó;36213;;;Lo más destacable es, en sí, el conjunto parroquial que está formado por la iglesia, el campo de la fiesta que la rodea, un palco, la casa parroquial y, algo más alejada, la Casa Rectoral.;http://www.turismodevigo.org/sites/turismodevigo/files/lug292.jpg;421.994.741.721.369;-87.538.824.107.773;;es-ES
8681;Fundación Pedro Barrié de la Maza;lugares;37;Edificios singulares;Auditorio;Policarpo Sanz, 31;36203;986110220;www.fundacionbarrie.org/;La Fundación Pedro Barrié de la Maza es una entidad sin ánimo de lucro, de carácter privado, dedicada a promover el desarrollo de Galicia desde una perspectiva global.;http://www.turismodevigo.org/sites/turismodevigo/files/lug317.jpg;422.378.279.820.797;-872.096.806.541.099;;es-ES
8671;Teatro cine Fraga;lugares;37;Edificios singulares;Teatro;Uruguay, 3-5;36201;;;Fue diseñado para albergar un teatro y un cine de 1758 localidades, una sala de fiestas, un salón de té y oficinas de alquiler.;http://www.turismodevigo.org/sites/turismodevigo/files/lug307.jpg;422.368.496.611.794;-87.197.763.308.682;;es-ES
8672;Teatro García Barbón;lugares;37;Edificios singulares;Teatro;Policarpo Sanz, 13;36203;;;Es una de las obras arquitectónicas más emblemáticas de la ciudad. El actual edificio es consecuencia de la reconstrucción del antiguo teatro Rosalía de Castro, incendiado en 1910 cuando se celebraba un baile de carnaval.;http://www.turismodevigo.org/sites/turismodevigo/files/lug308.jpg;42.238.057.340.574;-87.234.081.251.284;;es-ES
8673;Salgueiro García Barbón;lugares;37;Edificios singulares;Arquitectura civil;Puerta del Sol;36203;;;Edificio racionalista del arquitecto Romualdo de Madariaga, realizado en 1934 y promovido por las hermanas Elena y Práxedes Salgueiro García-Barbón.;http://www.turismodevigo.org/sites/turismodevigo/files/lug309.jpg;422.376.957.033.825;-872.457.969.850.464;;es-ES
8674;Instituto Santa Irene;lugares;37;Edificios singulares;Arquitectura civil;Plaza de América, 7;36210;986210435;www.edu.xunta.es/centros/iessantairene/;Se trata de una construcción con planta en forma de E, buscando una mayor iluminación y ventilación del interior. La fachada principal sigue un esquema ecléctico.;http://www.turismodevigo.org/sites/turismodevigo/files/lug310.jpg;422.199.270.979.685;-873.184.055.509.303;;es-ES
8675;Edificio sede social Caixanova;lugares;37;Edificios singulares;Arquitectura civil;Policarpo Sanz, 24;36201;;;En la composición de las fachadas, observamos una retícula ordenada de vanos que carecen de ornamentación. En cada planta, en los chaflanes se colocaron balcones redondeados, siguiendo un esquema muy utilizado en ese período.;http://www.turismodevigo.org/sites/turismodevigo/files/lug311.jpg;422.380.478.602.696;-872.019.562.436.622;;es-ES
8676;Vigo Convention Bureau;lugares;37;Edificios singulares;Centro de congresos;San vicente, 3;36204;986487118;www.vigoconventionbureau.com;La Fundación Vigo Convention Bureau tiene como objetivo principal la promoción de la ciudad de Vigo como sede para la celebración de congresos, incentivos y todo tipo de eventos que atraigan visitantes y turismo de negocio a la ciudad.;http://www.turismodevigo.org/sites/turismodevigo/files/lug312.jpg;422.315.389.647.814;-871.241.663.342.456;;es-ES
8678;Auditorio de Castrelos;lugares;41;Turismo urbano;Auditorio al aire libre;Parque de Castrelos;36213;;;Espacio abierto a modo de anfiteatro en el corazón del parque de Castrelos ideal para la celebración de conciertos y otros eventos al aire libre.;http://www.turismodevigo.org/sites/turismodevigo/files/lug314.jpg;422.139.063.201.267;-87.300.628.637.897;;es-ES
8679;Ayuntamiento de Vigo;lugares;37;Edificios singulares;Edificio público;Praza do Rei, s/n;36202;986810100;www.hoxe.vigo.org;Sede del consistorio de la ciudad de Vigo;http://www.turismodevigo.org/sites/turismodevigo/files/lug315.jpg;422.364.146.957.037;-872.649.447.517.727;;es-ES
8680;Auditorio del Ayuntamiento de Vigo;lugares;37;Edificios singulares;Centro de congresos;Praza do Rei, s/n;36202;986810100;www.hoxe.vigo.org;Espacio habilitado para la realización de eventos públicos.;http://www.turismodevigo.org/sites/turismodevigo/files/lug316.jpg;422.364.332.439.288;-872.677.818.586.211;;es-ES
8682;Sala de Congresos (auditorio) de la Ciudad Universitaria de Vigo;lugares;37;Edificios singulares;Auditorio;Campus Universidade de Vigo;36310;986813639;www.uvigo.es/uvigo_es/administracion/extension/;Espacio habilitado para la realización de eventos públicos.;http://www.turismodevigo.org/sites/turismodevigo/files/lug318.jpg;42.169.749.872.297;-868.545.128.291.619;;es-ES
8670;Biblioteca de la Facultad de Ciencias jurídicas;lugares;37;Edificios singulares;Biblioteca;Campus Universidade de Vigo;36310;986812658;www.uvigo.es/uvigo_es/Centros/vigo/lagoas_marcosende/fac_ciencias_xuridicas.html;Sala de lectura y servicio de préstamo de gran demanda y creciente utilización.;http://www.turismodevigo.org/sites/turismodevigo/files/lug306.jpg;421.676.576.455.584;-868.285.424.724.108;;es-ES
8669;Biblioteca de la E.T.S. de Ingenieros de Telecomunicaciones;lugares;37;Edificios singulares;Biblioteca;Campus Universidade de Vigo;36310;986812105;www.teleco.uvigo.es/;Sala de lectura y servicio de préstamo de gran demanda y creciente utilización.;http://www.turismodevigo.org/sites/turismodevigo/files/lug305.jpg;421.696.931.749.901;-868.825.124.573.733;;es-ES
8658;Iglesia de la Inmaculada Concepción;lugares;37;Edificios singulares;Arquitectura religiosa;Calle del Cronista J. Espinosa;36205;;;Esta iglesia, situada en el popular barrio del Calvario, sigue una línea arquitectónica inspirada en Le Corbusier.;http://www.turismodevigo.org/sites/turismodevigo/files/lug294.jpg;422.322.826.043.943;-87.003.524.420.609;;es-ES
8657;Iglesia de Freixeiro;lugares;37;Edificios singulares;Arquitectura religiosa;Parroquia de O Freixeiro;36210;;;Iglesia de una sola nave de planta rectangular. El presbiterio tiene bóveda de piedra;;;;;
8659;Biblioteca Caixanova. Calvario;lugares;37;Edificios singulares;Biblioteca;Calle Portela 6, 1º;36205;986252435;;Sala de lectura y servicio de préstamo de gran demanda y creciente utilización.;http://www.turismodevigo.org/sites/turismodevigo/files/lug295.jpg;422.307.559.884.331;-870.172.942.221.668;;es-ES
8660;Biblioteca Caixanova. Travesas;lugares;37;Edificios singulares;Biblioteca;Plaza de América 3- entresuelo;36208;986231518;;Sala de lectura y servicio de préstamo de gran demanda y creciente utilización.;http://www.turismodevigo.org/sites/turismodevigo/files/lug296.jpg;422.208.941.029.241;-873.344.806.069.799;;es-ES
8661;Biblioteca Central;lugares;37;Edificios singulares;Biblioteca;Joaquín Yánez, 6;36202;986229074;http://rbgalicia.xunta.es/vigo/;Sala de lectura y servicio de préstamo de gran demanda y creciente utilización.;http://www.turismodevigo.org/sites/turismodevigo/files/lug297.jpg;42.238.679.252.679;-872.534.375.397.711;;es-ES
8662;Biblioteca de la Cámara de Comercio de Vigo;lugares;37;Edificios singulares;Biblioteca;República Argentina, 18;36201;986446343;http://www.camaravigo.com;Sala de lectura y servicio de préstamo de gran demanda y creciente utilización.;http://www.turismodevigo.org/sites/turismodevigo/files/lug298.jpg;422.365.969.972.409;-871.877.215.510.236;;es-ES
8663;Biblioteca de la Fundación;lugares;37;Edificios singulares;Biblioteca;Plaza de la Princesa, 2;36202;986226459;;Sala de lectura y servicio de préstamo de gran demanda y creciente utilización.;http://www.turismodevigo.org/sites/turismodevigo/files/lug299.jpg;422.383.160.280.706;-87.256.823.195.269;;es-ES
8664;Biblioteca Centro Cultural Caixanova;lugares;37;Edificios singulares;Biblioteca;Policarpo Sánz, 13;36202;986447369;;Sala de lectura y servicio de préstamo de gran demanda y creciente utilización.;http://www.turismodevigo.org/sites/turismodevigo/files/lug300.jpg;422.378.912.174.353;-872.342.661.117.205;;es-ES
8665;Biblioteca del Centro Oceanográfico de Vigo;lugares;37;Edificios singulares;Biblioteca;Subida a Radio Faro 50-52;36390;986492111;www.ieo.es/biblioteca.html;Sala de lectura y servicio de préstamo de gran demanda y creciente utilización.;http://www.turismodevigo.org/sites/turismodevigo/files/lug301.jpg;421.839.418.974.653;-881.311.310.160.395;;es-ES
8666;Biblioteca del Instituto de Investigaciones Marinas;lugares;37;Edificios singulares;Biblioteca;Eduardo Cabello, 6;36208;986214454;www.iim.csic.es/;Sala de lectura y servicio de préstamo de gran demanda y creciente utilización.;http://www.turismodevigo.org/sites/turismodevigo/files/lug302.jpg;422.258.258.094.774;-875.221.907.436.888;;es-ES
8667;Biblioteca del Museo Etnográfico, Fundación Liste;lugares;37;Edificios singulares;Biblioteca;Pastora, 22;36210;986244698;www.museoliste.org/index.php?pag=fundacion;Sala de lectura y servicio de préstamo de gran demanda y creciente utilización.;http://www.turismodevigo.org/sites/turismodevigo/files/lug303.jpg;422.179.067.345.851;-873.104.669.745.821;;es-ES
8668;Biblioteca de la Facultad de Ciencias del Mar y Biología;lugares;37;Edificios singulares;Biblioteca;Campus Universidade de Vigo;36310;986812552;www.facultadeccdomar.es/;Sala de lectura y servicio de préstamo de gran demanda y creciente utilización.;http://www.turismodevigo.org/sites/turismodevigo/files/lug304.jpg;421.677.211.171.346;-868.513.460.688.203;;es-ES
8603;Faro de Bicos;lugares;36;Cíes;Faro;Isla del Medio o del Faro - Islas Cíes;36211;;;El faro funciona con energía solar y junto a él empieza la zona de reserva de aves marinas. Las vistas de acantilados desde su situación hacen que su visita merezca la pena. Está datado en 1918.;http://www.turismodevigo.org/sites/turismodevigo/files/lug238.jpg;4.219.156.442.657;-8.890.856.040.937;;es-ES
8602;Faro de Cíes;lugares;36;Cíes;Faro;Illa do Faro, Islas Cíes;36211;;;Se sitúa en el punto más alto de la isla del Medio, fue construido entre 1851 y 1853 y está a 178 metros de altura sobre el nivel del mar.;http://www.turismodevigo.org/sites/turismodevigo/files/lug237.jpg;422.141.914.894.239;-891.480.704.742.764;;es-ES
8601;Faro de A Porta;lugares;36;Cíes;Faro;Illa do Faro, Islas Cíes;36211;;;El faro funciona con energía solar y junto a él empieza la zona de reserva de aves marinas. Las vistas de acantilados desde su situación hacen que su visita merezca la pena. Está datado en 1918.;http://www.turismodevigo.org/sites/turismodevigo/files/lug236.jpg;422.122.167.379.365;-891.289.195.374.303;;es-ES
8604;Faro do Peito ou Monte Agudo;lugares;36;Cíes;Faro;Illa de Monteagudo o Isla Norte - Islas Cíes;36211;;;Este faro, datado en 1904, sirve para marcar la entrada norte de la ría de Vigo junto con los faros de Cabo Home en la costa del Morrazo. Se encuentra en el límite de la isla Norte.;http://www.turismodevigo.org/sites/turismodevigo/files/lug239.jpg;422.435.449.662.904;-890.313.444.061.437;;es-ES
8600;O Baluarte;lugares;44;Playas;Playas;;36212;;;Playa de arena fina, abierta al océano y con una ocupación media en la época de verano. Su longitud aproximada es de 120 metros.;http://www.turismodevigo.org/sites/turismodevigo/files/lug235.jpg;422.049.814.680.749;-877.851.888.587.136;;es-ES
8605;Jardines de Elduayen;lugares;42;Jardines urbanos;Parque;Calle Montero Ríos;36201;;;Estos jardines eran, originalmente, de estilo inglés pero las sucesivas remodelaciones a las que fueron sometidos modificaron su característica inicial. En los jardines se encuetra la escultura de Elduayen realizada por Agustín Querol.;http://www.turismodevigo.org/sites/turismodevigo/files/lug240.jpg;422.408.126.035.468;-872.236.639.593.876;;es-ES
8606;Teis-A Madroa;lugares;43;Parques forestales;Parque;Teis;36217;;;Se trata de un gran espacio verde situado en las proximidades de la ciudad de Vigo. En los 40000 metros cuadrados de superficie que ocupa encontraremos: bar, fuente, mirador, mesas y barbacoas. Es posible acceder en bus urbano.;http://www.turismodevigo.org/sites/turismodevigo/files/lug241.jpg;422.484.658.385.024;-866.510.623.773.347;;es-ES
8607;Beade;lugares;43;Parques forestales;Parque;Beade;36212;;;Se trata de un gran espacio verde situado en las proximidades de la ciudad de Vigo. En los 93000 metros cuadrados de superficie que ocupa encontraremos: bar, restuarante, fuente, mirador, teléfono público y barbacoas.;http://www.turismodevigo.org/sites/turismodevigo/files/lug242.jpg;421.757.600.108.278;-86.906.895.026.165;;es-ES
8608;Zamáns;lugares;43;Parques forestales;Parque;Zamáns;36310;;;Se trata de un gran espacio verde situado en las proximidades de la ciudad de Vigo. En los 50000 metros cuadrados de superficie que ocupa encontraremos: refugio, fuente, monumento, mesas y barbacoas.;http://www.turismodevigo.org/sites/turismodevigo/files/lug243.jpg;421.525.871.661.828;-868.106.464.853.863;;es-ES
8599;Espedrigada;lugares;44;Playas;Playas;;36212;;;Playa de arena fina y resguardada con una ocupación media en la época de verano. Su longitud aproximada es de 75 metros.;http://www.turismodevigo.org/sites/turismodevigo/files/lug234.jpg;422.194.375.230.757;-877.704.552.053.948;;es-ES
8598;A Sobreira;lugares;44;Playas;Playas;;36390;;;Playa de arena fina, resguardada del viento y con una ocupación media en la época de verano. Su longitud aproximada es de 200 metros.;http://www.turismodevigo.org/sites/turismodevigo/files/lug233.jpg;421.900.904.979.595;-880.888.061.101.316;;es-ES
8588;Espiñeiro;lugares;44;Playas;Playas;O Espiñeiro;36207;;;Playa de arena fina, resguardada del viento y con una ocupación baja en la época de verano. Su longitud aproximada es de 35 metros.;http://www.turismodevigo.org/sites/turismodevigo/files/lug223.jpg;422.535.860.581.348;-870.502.424.222.812;;es-ES
8589;Fontán ou Muiños;lugares;44;Playas;Playas;;36392;;;Playa de arena fina, resguardada del viento y con una ocupación baja en la época de verano. Su longitud aproximada es de 50 metros.;http://www.turismodevigo.org/sites/turismodevigo/files/lug224.jpg;421.653.152.704.122;-881.765.892.120.421;;es-ES
8590;Playa de San Martiño;lugares;36;Cíes;Playas;Illa de San Martiño, Islas Cíes;36211;;;Playa abierta con una ocupación alta en la época de verano. Su longitud aproximada es de 500 metros y está galardonada con la bandera azul.;http://www.turismodevigo.org/sites/turismodevigo/files/lug225.jpg;422.013.813.991.292;-8.904.989.325.854;;es-ES
8591;Nosa Señora;lugares;36;Cíes;Playas;Illa do Faro, Islas Cíes;36211;;;Playa de arena fina, resguardada del viento y con una ocupación media en la época de verano. Su longitud aproximada es de 130 metros.;http://www.turismodevigo.org/sites/turismodevigo/files/lug226.jpg;422.159.549.819.256;-890.303.979.922.385;;es-ES
8593;Areiña;lugares;36;Cíes;Playas;Illa do Faro, Islas Cíes;36211;;;Playa de arena fina, resguardada del viento y con una ocupación baja en la época de verano. Su longitud aproximada es de 40 metros.;http://www.turismodevigo.org/sites/turismodevigo/files/lug228.jpg;422.270.671.183.612;-889.761.741.239.897;;es-ES
8594;Area Grande do Mixueiro;lugares;36;Cíes;Playas;Illa de Monteagudo, Islas Cíes;36211;;;Playa de arena fina, resguardada del viento y con una ocupación media en la época de verano. Su longitud aproximada es de 30 metros.;http://www.turismodevigo.org/sites/turismodevigo/files/lug229.jpg;422.272.856.804.418;-889.660.195.990.717;;es-ES
8595;Playa Figueiras;lugares;36;Cíes;Playas;Illa de San Martiño, Islas Cíes;36211;;;Playa abierta con una ocupación alta en la época de verano. Su longitud aproximada es de 300 metros y está galardonada con la bandera azul.;http://www.turismodevigo.org/sites/turismodevigo/files/lug230.jpg;422.303.072.518.779;-890.090.679.216.474;;es-ES
8596;Area de Freixeiros;lugares;36;Cíes;Playas;Illa do Faro, Islas Cíes;36211;;;Playa de arena fina, resguardada del viento y con una ocupación media en la época de verano. Su longitud aproximada es de 270 metros.;;422.289.335.893.848;-889.867.566.474.834;;es-ES
8597;Playa das Margaritas;lugares;36;Cíes;Playas;Illa do Faro, Islas Cíes;36211;;;Playa de arena fina, resguardada del viento y con una ocupación media en la época de verano. Su longitud aproximada es de 40 metros.;http://www.turismodevigo.org/sites/turismodevigo/files/lug232.jpg;422.370.328.651.189;-890.119.976.041.642;;es-ES
8609;Bembrive;lugares;43;Parques forestales;Parque;Bembrive;36313;;;Se trata de un gran espacio verde situado en las proximidades de la ciudad de Vigo. En los 99710 metros cuadrados de superficie que ocupa encontraremos: bar, fuente, mirador, servicios sanitarios, mesas y barbacoas.;http://www.turismodevigo.org/sites/turismodevigo/files/lug244.jpg;422.030.862.468.226;-866.739.815.381.071;;es-ES
8610;Bandeira - Cabral;lugares;43;Parques forestales;Parque;Cabral;36218;;;Se trata de un gran espacio verde situado en las proximidades de la ciudad de Vigo. En los 99700 metros cuadrados de superficie que ocupa encontraremos: bar, restaurante, fuente, mirador, servicios sanitarios, teléfono público y barbacoas.;http://www.turismodevigo.org/sites/turismodevigo/files/lug245.jpg;422.389.238.774.838;-863.552.687.852.401;;es-ES
8623;Cristo de la Victoria;lugares;39;Monumentos;Talla religiosa;Plaza de la Colegiata;36202;986441667;www.cristodevigo.es;Durante casi 200 años el Cristo de la Victoria ha despertado pasión entre los vigueses porque para ellos, esta imagen es algo más que la representación de Jesucristo Crucificado.;;4.223.925.962.889;-872.593.478.853.809;;es-ES
8624;El Nadador;lugares;39;Monumentos;Escultura;Rúa das Avendias;36202;;;Obra de Francisco Leiro situada en el entorno marítimo, es una obra de bronce con nadadores que se zambullen en el cemento de la calle y otras piezas más abstractas.;http://www.turismodevigo.org/sites/turismodevigo/files/lug259.jpg;422.406.549.101.768;-872.612.391.461.795;;es-ES
8625;El Rapto de Europa;lugares;39;Monumentos;Escultura;Avda. de Samil;36212;;;Ésta figura simboliza el Rapto de Europa;;;;;
8626;El Sireno;lugares;39;Monumentos;Escultura;Porta do Sol;36203;;;Obra del escultor Francisco Leiro, situada en la Puerta del Sol. Está realizada en aluminio sobre columnas de granito negro pulido. Instalado en 1991, la figura representa un personaje imaginario híbrido de pez y hombre.;http://www.turismodevigo.org/sites/turismodevigo/files/lug261.jpg;422.377.922.371.969;-872.492.835.237.328;;es-ES
8627;La Farola;lugares;39;Monumentos;Escultura;Calle Urzaiz esquina Calle Príncipe;36202;;;Obra de Jenaro de la Fuente, situada en la confluencia entre las calles Príncipe, Urzáiz y Colón, data del sigo XX. Trasladada a Bouzas en 1972 por la celebración en Vigo de la I Feria Mundial de Pesca. Actualmente se encuentra en su lugar original.;http://www.turismodevigo.org/sites/turismodevigo/files/lug262.jpg;422.359.751.013.972;-872.024.712.297.229;;es-ES
8628;La Puerta del Atlántico;lugares;39;Monumentos;Escultura;Plaza América;36208;;;Este monumento es un homenaje a los emigrantes gallegos que salieron de nuestro puerto hacia América. Realizado por Silverio Rivas. Está compuesto por tres elementos complementarios por proceder los tres de un mismo bloque granítico.;http://www.turismodevigo.org/sites/turismodevigo/files/lug263.jpg;42.220.622.993.332;-873.270.617.611.111;;es-ES
8629;Los Caballos;lugares;39;Monumentos;Escultura;Plaza de España;36203;;;Grupo escultórico en bronce de Juan José Oliveira que preside la Plaza de España, representa un grupo de 5 caballos ascendiendo por una cascada. El conjunto pesa 40 toneladas y alcanza los 18 metros.  se completa con un estanque de 10 m. de diámetro.;http://www.turismodevigo.org/sites/turismodevigo/files/lug264.jpg;422.293.336.577.472;-87.194.393.848.106;;es-ES
8630;Monumento a Curros Enríquez;lugares;39;Monumentos;Escultura;Monte do Castro;36203;;;Se trata de un busto del escritor sobre una base trapezoidal historiada y situada, a su vez, sobre un basamento escalonado;;;;;
8631;Monumento a Elduayen;lugares;39;Monumentos;Escultura;Jardines de las Avenidas;36201;;;Situado en los jardines de Las Avenidas, fue inaugurado en 1896. El pedestal, obra de Jenaro de la Fuente, es de estilo neo-griego y consta de un zócalo cuadrangular escalonado con cuatro dados en los vértices.;http://www.turismodevigo.org/sites/turismodevigo/files/lug266.jpg;422.407.695.519.881;-872.190.735.798.718;;es-ES
8622;Fundación Sales;lugares;38;Museos;Fundación;Avda. de Europa, 52;36212;986240882;www.fundacionsales.org;Un espacio íntimo, romántio, exótico y vital. Un refugio para el cuerpo y el espíritu de imprescindible visita.;http://www.turismodevigo.org/sites/turismodevigo/files/lug257.jpg;422.152.064.689.806;-876.319.669.812.673;;es-ES
8621;Fundación Pedro Barrié de la Maza;lugares;38;Museos;Fundación;Policarpo Sanz, 31;36203;986110220;;La Fundación Pedro Barrié de la Maza es una entidad sin ánimo de lucro, de carácter privado, dedicada a promover el desarrollo de Galicia desde una perspectiva global.;http://www.turismodevigo.org/sites/turismodevigo/files/lug256.jpg;422.378.264.247.316;-872.091.580.258.333;;es-ES
8611;San Andrés de Comesaña;lugares;43;Parques forestales;Parque;San Andrés de Comesaña;36213;;;Se trata de un gran espacio verde situado en las proximidades de la ciudad de Vigo. Ocupa una extensión de 29200 metros cuadrados.;http://www.turismodevigo.org/sites/turismodevigo/files/lug246.jpg;421.881.471.298.145;-875.298.935.320.139;;es-ES
8612;Vixiador - Candeán;lugares;43;Parques forestales;Parque;Monte Pequeno;36217;;;Cuenta con una extensión de dieciocho hectáreas y media por las que se reparten toda la variedad de especies arbóreas, arbustivas y faunísticas enunciadas ofreciendo al visitante un espacio adecuado para sus momentos de ocio y esparcimiento.;http://www.turismodevigo.org/sites/turismodevigo/files/lug247.jpg;422.524.396.042.282;-865.085.620.149.623;;es-ES
8613;O Castro de Vigo;lugares;38;Museos;Yacimiento;Monte O Castro;36202;;;íO Castro de Vigo. A Orixe da cidadeí es un yacimiento arqueológico de 1.800 metros cuadrados que incluye la reconstrucción de tres edificaciones castreñas de uno de los poblados más extensos y evolucionados de Galicia.;http://www.turismodevigo.org/sites/turismodevigo/files/lug248.jpg;422.317.763.288.229;-872.789.663.951.502;;es-ES
8614;Centro arqueológico Salinae;lugares;38;Museos;Yacimiento;Rosalía de Castro, 21;36201;986247691;www.museodomar.com/salinae/;La exposición propone un recorrido para conocer la historia de la única salina marina por evaporación solar conservada y musealizada de todo el Imperio Romano.;http://www.turismodevigo.org/sites/turismodevigo/files/lug249.jpg;422.383.185.372.312;-871.744.364.020.964;;es-ES
8616;Casa Galega da Cultura;lugares;38;Museos;Centro de estudio;Plaza de la Princesa;36202;986226459;;Centro en el que se concitan la programación de actividades artísticas y literarias con la existencia de un fondo bibliográfico y museográfico altamente cualificado en lo que se refiere al estudio de la realidad histórica y actual de Galicia.;http://www.turismodevigo.org/sites/turismodevigo/files/lug251.jpg;422.381.550.515.181;-872.605.800.374.697;;es-ES
8617;Archivo fotográfico Pacheco;lugares;38;Museos;Archivo;Policarpo Sanz, 15;36202;986435121;;El archivo Pacheco representa la más completa colección de recursos fotográficos de titularidad pública sobre la ciudad de Vigo.;http://www.turismodevigo.org/sites/turismodevigo/files/lug252.jpg;422.377.800.440.228;-872.294.674.960.066;;es-ES
8618;Centro Cultural Novagalicia;lugares;38;Museos;Centro Cultural;Policarpo Sanz, 13;36203;986828200;www.servinova.com;El 22 de marzo de 1984 se inaugura el Centro Cultural Caixanova, convirtiéndose en uno de los proyectos culturales más importantes realizados por una entidad bancaria en España.;http://www.turismodevigo.org/sites/turismodevigo/files/lug253.jpg;422.378.348.079.872;-872.342.271.126.004;;es-ES
8619;Centro Cultural Novagalicia;lugares;38;Museos;Centro Cultural;Policarpo Sanz, 21, 2º;36202;986815077;www.obrasocialncg.com;La Obra Social de Novagalicia tiene el objetivo de mejorar la calidad de vida de la población, fomentando la participación, el voluntariado, el asociacionismo y acercando las nuevas tecnologías al conjunto de la sociedad.;http://www.turismodevigo.org/sites/turismodevigo/files/lug254.jpg;422.377.928.866.386;-87.220.676.669.618;;es-ES
8620;Centro Social Novagalicia;lugares;38;Museos;Centro Social;Policarpo Sanz, 24-26;36203;986828200;www.coleccioncaixanova.com;Es un edificio multifuncional, concebido con el fin de que sus espacios puedan ser utilizados por entidades públicas y privadas, así como por organizaciones no gubernamentales que desempeñen actividades acordes con la filosofía del Centro.;http://www.turismodevigo.org/sites/turismodevigo/files/lug255.jpg;422.374.215.635.812;-872.251.540.931.047;;es-ES
8632;Monumento a Julio Verne;lugares;39;Monumentos;Escultura;Rúa das Avendias;36202;;;"Se trata de un homenaje a la ciudad de Vigo realizada a Julio Verne (realizada en el centenario de su muerte) por la meción a la urbe viguesa en esu libro de ""20000 leguas de viaje Submarino""";http://www.turismodevigo.org/sites/turismodevigo/files/lug267.jpg;42.241.240.136.011;-872.292.170.802.367;;es-ES
8587;Mende;lugares;44;Playas;Playas;;36216;;;Playa de arena fina, resguardada del viento y con una ocupación media en la época de verano. Su longitud aproximada es de 90 metros.;http://www.turismodevigo.org/sites/turismodevigo/files/lug222.jpg;422.632.641.196.779;-868.094.457.281.179;;es-ES
8586;A Punta;lugares;44;Playas;Playas;;36207;;;Playa de unos 200 metros de longitud galardonada con bandera azul. Es un arenal resguardado ideal para el baño.;http://www.turismodevigo.org/sites/turismodevigo/files/lug221.jpg;422.599.407.888.135;-869.706.639.557.289;;es-ES
8585;O Adro;lugares;44;Playas;Playas;;36208;;;Playa de arena fina, resguardada del viento y con una ocupación media en la época de verano. Su longitud aproximada es de 450 metros.;http://www.turismodevigo.org/sites/turismodevigo/files/lug220.jpg;422.263.713.722.495;-875.417.957.651.922;;es-ES
8584;Carril;lugares;44;Playas;Playas;A Igrexa;36202;;;Playa de arena fina, resguardada aunque en ocasiones puede presentar un oleaje moderado. Tiene una ocupación baja en la época de verano. Su longitud aproximada es de 600 metros y está galardonada con la bandera azul.;http://www.turismodevigo.org/sites/turismodevigo/files/lug219.jpg;422.233.016.181.718;-876.369.572.334.447;;es-ES
8583;Santa Baia;lugares;44;Playas;Playas;;36202;;;Playa de arena fina, resguardada del viento y con una ocupación media en la época de verano. Su longitud aproximada es de 230 metros.;http://www.turismodevigo.org/sites/turismodevigo/files/lug218.jpg;422.230.587.864.556;-876.730.337.341.949;;es-ES
8546;Iglesia del Carmen;lugares;37;Edificios singulares;Arquitectura religiosa;Paseo Padre Lorenzo, 2;36211;;;Los terrenos sobre los que se asienta la iglesia fueron donados por Doña Paula Gómez Curieses, en los años 1936 -1939. La primera piedra fue colocada en 1951, el 18 de marzo.;http://www.turismodevigo.org/sites/turismodevigo/files/lug178.jpg;422.236.778.929.434;-873.171.296.966.416;;es-ES
8547;Iglesia de San Pedro de Sárdoma;lugares;37;Edificios singulares;Arquitectura religiosa;Parroquia de Sárdoma;36214;;;El conjunto parroquial está formado por la iglesia, el atrio y el cementerio, que, junto a la Casa Rectoral, constituyen un ejemplo destacado en la parroquia.;http://www.turismodevigo.org/sites/turismodevigo/files/lug179.jpg;422.172.606.841.915;-871.178.856.116.699;;es-ES
8548;Iglesia de San Jorge de Saiáns;lugares;37;Edificios singulares;Arquitectura religiosa;Calle Eira Vella;36392;;;Iglesia de inspiración gótica en la ojiva de las ventanas y barroca en el juego de volúmenes y en algunos detalles como la hornacina;http://www.turismodevigo.org/sites/turismodevigo/files/lug180.jpg;421.677.162.446.445;-880.469.253.389.744;;es-ES
8549;Iglesia de Oia;lugares;37;Edificios singulares;Arquitectura religiosa;Carretera de la Igrexa, Roteas;36390;;;Esta iglesia es un ejemplo del modelo tradicional del rural gallego. Es de planta longitudinal sencilla, con una sola nave cubierta a dos aguas.;http://www.turismodevigo.org/sites/turismodevigo/files/lug181.jpg;421.826.495.750.421;-880.111.689.227.044;;es-ES
8550;Círculo Mercantil;lugares;37;Edificios singulares;Edificio singular;Calle Príncipe, 44;36202;;;El edificio es de estilo ecléctico con una composición clasicista. Fue realizado por el arquitecto Manuel Gómez Román en el año 1921;http://www.turismodevigo.org/sites/turismodevigo/files/lug183.jpg;422.366.101.395.826;-872.244.239.295.161;;es-ES
8551;Casa de Ceta;lugares;37;Edificios singulares;Arquitectura civil;Plaza de Almeida, 2;36202;;;Palacete urbano del siglo XV enmarcado en el estilo gótico tardío. Tiene aspecto de torreón medieval y está costruído sobres sillares de piedra.;http://www.turismodevigo.org/sites/turismodevigo/files/lug184.jpg;422.379.065.853.052;-872.809.399.688.459;;es-ES
8552;Iglesia de Navia (nueva);lugares;37;Edificios singulares;Arquitectura religiosa;Parroquia de San Paio de Navia;36212;;;Tras finalizar su proyecto de la iglesia de Inmaculada Concepción en el barrio del Calvario, Román Conde se embarca en la construcción de esta nueva iglesia en la parroquia de Sampaio de Navia, en la que logrará un juego de volúmenes más sosegado.;http://www.turismodevigo.org/sites/turismodevigo/files/lug185.jpg;422.079.828.474.107;-876.715.068.780.414;;es-ES
8553;Iglesia de Navia;lugares;37;Edificios singulares;Arquitectura religiosa;Parroquia de San Paio de Navia;36212;;;La actual iglesia se basa en una ampliación de la antigua capilla de 1900. En el interior se encuentra un retablo de estilo barroco, que también ha sufrido reformas.;http://www.turismodevigo.org/sites/turismodevigo/files/lug187.jpg;422.071.447.719.605;-876.750.542.284.277;;es-ES
8554;Verbum - Casa das Palabras;lugares;38;Museos;Casa de las palabras;Avda. de Samil, nº 17;36212;986240130;www.verbum.vigo.org;Museo interactivo sobre todos los ámbitos relacionados con la comunicación humana, diseñado como un espacio cultural, lúdico y divulgativo en el que los visitantes pueden participar de un modo activo en los elementos expositivos.;http://www.turismodevigo.org/sites/turismodevigo/files/lug189.jpg;422.128.101.707.506;-877.382.191.258.537;;es-ES
8555;Centro de Recepción de Visitantes - Oficina Municipal de Información Turística de Vigo;lugares;35;Puntos de información turística;Información;Estación Marítima de Ría (interior);36202;986224757;www.turismodevigo@vigo.org;Esta Oficina permanecerá abierta durante todo el año con los siguientes horarios: Horario de verano: (De Abril a Septiembre ): de lunes a domingo: de 9:00 a 21:00 h. Horario de invierno: (De Octubre a Marzo): de lunes a domingo: de 9:00 a 18:00 h;http://www.turismodevigo.org/sites/turismodevigo/files/lug190.jpg;422.414.195.978.855;-872.840.054.853.745;;es-ES
8556;Oficina de Turismo de Vigo (Xunta de Galicia);lugares;35;Puntos de información turística;Información;Cánovas del Castillo, 22;36202;986430577;;Esta Oficina, dependiente de la Xunta de Galicia, permanecerá abierta durante todo el año con los siguientes horarios: Lunes a viernes: de 09:30 a 14:00 y de 16:30 a 18:30 h. Sábados: de 10:00 a 13:30 h.;http://www.turismodevigo.org/sites/turismodevigo/files/lug191.jpg;422.401.179.157.237;-872.616.634.196.882;;es-ES
8545;Ermita de la Guía;lugares;41;Turismo urbano;Arquitectura religiosa;Monte de A Guía. Parroquia de Teis.;36207;;;La ermita está dedicada a la Virgen de A Guía y al Sagrado Corazón de Jesús. Obra del arquitecto Gómez Román reedificada en los años 50 sobre una edificación primitiva datable en el siglo XVI. Magnífico mirador de la Ría de Vigo.;http://www.turismodevigo.org/sites/turismodevigo/files/lug177.jpg;422.555.015.543.566;-870.180.430.477.845;;es-ES
8544;Capilla de Nuestra Señora del Alba;lugares;41;Turismo urbano;Arquitectura religiosa;Monte Alba;36315;;;La planta de esta ermita está formada por dos rectángulos, uno mayor de 9.1 por 7 metros y el otro de 7.2 por 6 metros. En los muros exteriores podemos ver un trabajo de sillería, con bloques no siempre regulares.;http://www.turismodevigo.org/sites/turismodevigo/files/lug176.jpg;42.172.496.577.151;-873.613.602.619.688;;es-ES
8533;Cruceiro de Taberna;lugares;37;Edificios singulares;Arquitectura religiosa;A Taberna, s/n;36391;;;En el reverso muestra la Piedad, de pie y sosteniendo el cuerpo de su hijo muerto;http://www.turismodevigo.org/sites/turismodevigo/files/lug159.jpg;421.873.722.995.241;-877.704.244.653.249;;es-ES
8534;Cruceiro da rúa Poboadores;lugares;37;Edificios singulares;Arquitectura religiosa;Poboadores, s/n;36202;;;Es un crucero con doble función. La parte inferior es un peto de ánimas y la superior es un crucero.;http://www.turismodevigo.org/sites/turismodevigo/files/lug160.jpg;422.358.539.720.406;-873.030.046.908.426;;es-ES
8536;Cruceiro do adro da igrexa de Valadares;lugares;37;Edificios singulares;Arquitectura religiosa;A Igrexa, s/n;36314;;;La cruz es cuadrada y en el anverso tiene la crucifixión, y en el reverso a la Piedad con el hijo en brazos, mucho más pequeño que la madre.;http://www.turismodevigo.org/sites/turismodevigo/files/lug162.jpg;421.776.165.905.781;-872.407.492.468.296;;es-ES
8537;Edificio José Mouriño Vilas;lugares;37;Edificios singulares;Arquitectura civil;Urzaiz, 5;36201;;;El edificio fue diseñado en 1946 por el arquitecto Pascual Bravo Sanfeliú. Este edificio destaca por su altura y juego de volúmenes en la parte superior.;http://www.turismodevigo.org/sites/turismodevigo/files/lug163.jpg;422.358.124.686.976;-871.934.207.260.909;;es-ES
8538;Biblioteca Braille de la Once;lugares;37;Edificios singulares;Biblioteca;Gran Vía, 15;36203;986227208;;Espacio de dedicado a la lectura y préstamo de libros con ejemplares adaptados a las necesidades de los deficientes visuales.;http://www.turismodevigo.org/sites/turismodevigo/files/lug167.jpg;422.333.214.606.006;-871.688.940.745.036;;es-ES
8539;Biblioteca de Torrecedeira;lugares;37;Edificios singulares;Biblioteca;Torrecedeira, 86;36208;986813739;;Sala de lectura y servicio de préstamo de gran demanda y creciente utilización.;http://www.turismodevigo.org/sites/turismodevigo/files/lug170.jpg;422.272.984.318.301;-873.462.744.813.371;;es-ES
8535;Cruceiro da fachada da igrexa da Consolación;lugares;37;Edificios singulares;Arquitectura religiosa;Plaza da Consolación;36208;;;Solamente se conserva la columna con la cruz.;http://www.turismodevigo.org/sites/turismodevigo/files/lug161.jpg;422.208.535.634.188;-874.530.933.738.075;;es-ES
8540;Cruceiro da Guía;lugares;37;Edificios singulares;Arquitectura religiosa;A Guía;36207;;;Crucero con base cuadrangular sobre una afloración granítica.;http://www.turismodevigo.org/sites/turismodevigo/files/lug172.jpg;42.256.191.539.078;-870.260.156.017.203;;es-ES
8541;Cruceiro de Cruceiro;lugares;37;Edificios singulares;Arquitectura religiosa;O Cruceiro, s/n;36390;;;En cada cara aparecen caras de ángeles, excepto en la cara anterior, bajo el Cristo donde aparece una calavera representando el monte Gólgota.;http://www.turismodevigo.org/sites/turismodevigo/files/lug173.jpg;421.824.621.323.533;-880.215.958.086.106;;es-ES
8542;Cruceiro do adro da igrexa de Coruxo;lugares;37;Edificios singulares;Arquitectura religiosa;A Igrexa, s/n;36391;;;Representa la crucifixión, donde Cristo tiene tres clavos, las piernas flexionadas y la cabeza ladeada. En el reverso se muestra la Piedad, con un Cristo ligeramente menor que la Virgen.;http://www.turismodevigo.org/sites/turismodevigo/files/lug174.jpg;421.886.496.254.623;-877.662.209.131.498;;es-ES
8543;Mosteiro da Visitación das Salesas Reais;lugares;37;Edificios singulares;Monasterio;Montecelo, 14;36207;;;El monasterio de la Visitación de las Salesas Reales fue proyectado en 1942 por el arquitecto Antonio Palacios. Está situado en el barrio de la Calzada de Teis, próximo a la calle Sanjurjo Badía.;http://www.turismodevigo.org/sites/turismodevigo/files/lug175.jpg;422.430.174.691.154;-87.047.242.214.613;;es-ES
8557;Oficina Municipal de Turismo de Vigo;lugares;35;Puntos de información turística;Información;Teófilo Llorente, 5;36202;986224757;;Esta Oficina permanecerá abierta durante todo el año con los siguientes horarios: Lunes a viernes: de 8:30 a 19:30 h. Sábados: de 13:00 a 18:00 h.;http://www.turismodevigo.org/sites/turismodevigo/files/lug192.jpg;422.386.738.785.973;-87.283.100.307.374;;es-ES
8558;Punto de Información Turística en Vigo;lugares;35;Puntos de información turística;Información;Praza do Rei, s/n;36202;986810171;;Punto de información turística dentro del propio edificio del ayuntamiento.;http://www.turismodevigo.org/sites/turismodevigo/files/lug193.jpg;422.364.150.396.916;-872.663.877.418.901;;es-ES
8572;Barreiros;lugares;44;Playas;Playas;;36390;;;Playa abierta con una ocupación baja en la época de verano debido a su oleaje moderado. Su longitud aproximada es de 100 metros de arena blanca y fina.;;421.804.114.421.056;-881.252.570.666.434;;es-ES
8573;Praia do Vao;lugares;44;Playas;Playas;Fontenla;36391;;;Playa de arena fina, resguardada del viento y con una ocupación alta en la época de verano. Su longitud aproximada es de 800 metros y está galardonada con la bandera azul.;http://www.turismodevigo.org/sites/turismodevigo/files/lug208.jpg;421.979.756.649.772;-879.368.501.672.135;;es-ES
8574;A Sirenita;lugares;44;Playas;Playas;Breadouro;36391;;;Su forma es en concha, con base de arena de color blanco y grano fino. Playa resguardada, vigilada y con zona para fondeo de embarcaciones.;http://www.turismodevigo.org/sites/turismodevigo/files/lug209.jpg;421.996.303.116.164;-878.676.529.052.567;;es-ES
8575;O Fechiño;lugares;44;Playas;Playas;A Carrasqueiro;36391;;;Playa de arena fina, resguardada del viento y con una ocupación alta en la época de verano. Su longitud aproximada es de 100 metros y está galardonada con la bandera azul.;http://www.turismodevigo.org/sites/turismodevigo/files/lug210.jpg;422.008.825.822.571;-878.443.554.241.418;;es-ES
8576;As Barcas;lugares;44;Playas;Playas;;36391;;;Playa de arena fina, resguardada del viento y con una ocupación alta en la época de verano. Su longitud aproximada es de 175 metros y está galardonada con la bandera azul.;http://www.turismodevigo.org/sites/turismodevigo/files/lug211.jpg;422.031.476.719.644;-878.154.225.124.243;;es-ES
8577;Samil;lugares;44;Playas;Playas;Samil;36212;;;Tiene forma de concha, la arena es de color blanco y grano fino. Está resguardada aunque es algo ventosa y de oleaje moderado.  Se puede acceder a la misma mediante la línea de autobuses urbanos con dirección a Samil.;http://www.turismodevigo.org/sites/turismodevigo/files/lug212.jpg;422.098.022.109.307;-877.610.577.844.538;;es-ES
8579;O Tombo do Gato o De la Fuente;lugares;44;Playas;Playas;;36212;;;Playa de arena fina, resguardada del viento y con una ocupación alta en la época de verano. Está galardonada con la bandera azul.;http://www.turismodevigo.org/sites/turismodevigo/files/lug214.jpg;422.201.378.061.408;-87.759.250.068.458;;es-ES
8580;As Fontes;lugares;44;Playas;Playas;A Ameixeira;36212;;;Playa de arena fina, resguardada del viento y con una ocupación alta en la época de verano. Su longitud aproximada es de 150 metros y está galardonada con la bandera azul.;http://www.turismodevigo.org/sites/turismodevigo/files/lug215.jpg;422.225.208.347.114;-877.294.785.342.439;;es-ES
8581;A Mourisca o Los Olmos;lugares;44;Playas;Playas;A Fonte;36202;;;Playa de arena fina, resguardada del viento y con una ocupación alta en la época de verano. Su longitud aproximada es de 150 metros y está galardonada con la bandera azul.;http://www.turismodevigo.org/sites/turismodevigo/files/lug216.jpg;422.241.000.421.769;-877.081.337.872.295;;es-ES
8582;O Cocho;lugares;44;Playas;Playas;Alcabre;36202;;;Playa de arena fina, resguardada del viento y con una ocupación media en la época de verano. Su longitud aproximada es de 250 metros y está galardonada con la bandera azul.;http://www.turismodevigo.org/sites/turismodevigo/files/lug217.jpg;422.242.532.733.066;-876.939.093.790.816;;es-ES
8571;Canto de Area;lugares;44;Playas;Playas;;36390;;;Playa abierta con una ocupación baja en la época de verano debido a su oleaje moderado. Su longitud aproximada es de 120 metros de arena blanca y fina.;http://www.turismodevigo.org/sites/turismodevigo/files/lug206.jpg;421.822.614.861.385;-881.270.046.350.073;;es-ES
8570;Toralla;lugares;44;Playas;Playas;Toralla;36391;;;Playa de arena fina, resguardada del viento y con una ocupación alta en la época de verano. Su longitud aproximada es de 200 metros y está galardonada con la bandera azul.;http://www.turismodevigo.org/sites/turismodevigo/files/lug205.jpg;422.002.158.366.033;-880.056.940.643.516;;es-ES
8559;Punto de Información Turístico (Padroado Turismo RRBB);lugares;35;Puntos de información turística;Información;Avda. de Peinador;36218;986804100;www.turismodevigo.es;Esta Oficina permanecerá abierta durante todo el año con los siguientes horarios: Lunes a viernes: de 8:30 a 19:30 h. Sábados: de 13:00 a 18:00 h.;http://www.turismodevigo.org/sites/turismodevigo/files/lug194.jpg;422.265.494.681.754;-863.249.208.594.621;;es-ES
8560;Oficina de Turismo de Vigo (Xunta de Galicia);lugares;35;Puntos de información turística;Información;Estación Marítima, s/n;36202;986224787;;Oficina municial de información turística y centro de recepción de visitantes.;http://www.turismodevigo.org/sites/turismodevigo/files/lug195.jpg;422.366.744.994.674;-873.204.001.129.307;;es-ES
8561;Iglesia de Matamá;lugares;37;Edificios singulares;Arquitectura religiosa;Calle de los Canteiros;36213;;;Esta es una iglesia con una gran torre en el campanario, según los viejos libros de texto. En la iglesia hay un viejo retablo que perteneció a la antigua Colegiata de Santa María y que fue adquirido por 3000 reales;http://www.turismodevigo.org/sites/turismodevigo/files/lug196.jpg;42.199.579.059.208;-873.806.158.328.729;;es-ES
8562;Cruceiro do adro da igrexa de Comesaña;lugares;37;Edificios singulares;Arquitectura religiosa;A Igrexa, s/n;36213;;;Como única representación tiene a Cristo crucificado con tres clavos.;http://www.turismodevigo.org/sites/turismodevigo/files/lug197.jpg;42.200.964.744.919;-873.847.980.073.568;;es-ES
8563;Instituto Ferial de Vigo-IFEVI;lugares;41;Turismo urbano;Exposiciones y actividades;Avda. do Aeroporto, 772;36218;986486144;www.ifevi.com;Con cerca de cien eventos y una afluencia de público que ronda el millón de visitantes al año, el carácter dinámico e innovador de IFEVI es hoy la mejor garantía de éxito para el profesional dispuesto a crecer y asumir nuevos retos.;http://www.turismodevigo.org/sites/turismodevigo/files/lug198.jpg;422.234.311.669.436;-863.867.829.275.966;;es-ES
8564;O Portiño;lugares;44;Playas;Playas;O Portiño;36392;;;Playa de arena fina, resguardada del viento y con una ocupación alta en la época de verano. Su longitud aproximada es de 100 metros y está galardonada con la bandera azul.;http://www.turismodevigo.org/sites/turismodevigo/files/lug199.jpg;421.680.025.976.903;-881.644.920.096.227;;es-ES
8565;Os Muiños;lugares;44;Playas;Playas;A Corveira;36392;;;Playa de arena fina, resguardada del viento y con una ocupación alta en la época de verano. Su longitud aproximada es de 150 metros y está galardonada con la bandera azul.;http://www.turismodevigo.org/sites/turismodevigo/files/lug200.jpg;421.746.370.574.708;-881.422.178.182.862;;es-ES
8566;Noivos;lugares;44;Playas;Playas;;36390;;;Playa abierta con una ocupación alta en la época de verano. Su longitud aproximada es de 100 metros de arena fina.;http://www.turismodevigo.org/sites/turismodevigo/files/lug201.jpg;421.759.935.972.656;-881.410.033.237.597;;es-ES
8567;Buraca;lugares;44;Playas;Playas;Oia;36390;;;Tiene forma de concha y su arena es de color blanco y grano fino. Playa resguardada, ventosa y con oleaje moderado lo que favorece la práctica del baño.;http://www.turismodevigo.org/sites/turismodevigo/files/lug202.jpg;421.899.040.543.099;-881.244.719.109.143;;es-ES
8568;O Fuchiño;lugares;44;Playas;Playas;Oia;36390;;;Playa de arena fina, resguardada del viento y con una ocupación alta en la época de verano. Su longitud aproximada es de 900 metros y está galardonada con la bandera azul.;http://www.turismodevigo.org/sites/turismodevigo/files/lug203.jpg;421.921.280.883.911;-880.277.164.069.544;;es-ES
8569;Canido;lugares;44;Playas;Playas;Canido;36390;;;Playa de arena fina, resguardada del viento y con una ocupación alta en la época de verano. Su longitud aproximada es de 300 metros y está galardonada con la bandera azul.;http://www.turismodevigo.org/sites/turismodevigo/files/lug204.jpg;421.938.500.750.542;-879.731.299.529.034;;es-ES
8500;Xardíns de Eijo Garay;lugares;42;Jardines urbanos;Parque;Concepción Arenal;36201;;;Este parque tiene una extensión de 18.000 m2. En estos jardines está situada la Jefatura o Comandancia de Marina y preciosas fuentes como la del gallo.;http://www.turismodevigo.org/sites/turismodevigo/files/lug122.jpg;422.395.937.555.774;-8.718.588.530.707;;es-ES
8499;Vivendas irmáns Suárez Eire/Purificación Suárez;lugares;37;Edificios singulares;Arquitectura civil;Plaza de Compostela, 17;36201;;;Ejemplo de eclecticismo moderno el edificio tiene una cornisa decorada, unos balcones con refuerzos de piedra y barandillas de hierro. Como material constructivo se ha utilizado el granito de la Sierra de Castrelos.;http://www.turismodevigo.org/sites/turismodevigo/files/lug121.jpg;422.391.518.223.023;-872.105.606.399.042;;es-ES
8498;Vivendas da rúa Uruguay;lugares;37;Edificios singulares;Arquitectura civil;Uruguay, 11;36201;;;Edificio eclepticista proyectado por Genaro de la Fuente.;http://www.turismodevigo.org/sites/turismodevigo/files/lug120.jpg;422.365.210.720.317;-871.807.674.533.958;;es-ES
8497;Visitación de las Salesas Reales;lugares;37;Edificios singulares;Arquitectura religiosa;Sanjurjo Badía y Coutadas;36207;;;Se trata de un edificio diseñado por Antonio Palacios siguiendo un estilo regionalista aunque con cierto aire medieval. Data de 1942;http://www.turismodevigo.org/sites/turismodevigo/files/lug119.jpg;422.441.463.483.087;-870.338.304.041.177;;es-ES
8501;Centro de Divulgación Arqueolóxico Municipal;lugares;37;Edificios singulares;Arquitectura civil;Bajada a la Playa s/n. Saians.;36392;986460812;;Se trata de una iniciativa pionera en Galicia que pretende oordinar, controlar, integrar, racionar y orientar todas las iniciativas en relación con la divulgación, didáctica y puesta en valor de la riqueza arqueológica de Vigo.;http://www.turismodevigo.org/sites/turismodevigo/files/lug123.jpg;421.672.680.419.837;-880.652.151.571.956;;es-ES
8502;Iglesia de Valadares;lugares;37;Edificios singulares;Arquitectura religiosa;Parroquia de Valadares;36314;;;Iglesia rectangular, con nave única, cabecera cuadrada y torre campanario adosada a la fachada, la cual muestra una portada rematada por un frontón que enmarca la representación de san Andrés.;http://www.turismodevigo.org/sites/turismodevigo/files/lug124.jpg;42.177.619.128.566;-872.471.713.210.472;;es-ES
8503;Muíño Maquías;lugares;37;Edificios singulares;Arquitectura popular;Cerca del embalse de Zamáns;36310;;;Se trata de un conjunto etnográfico formado por dos molinos. El principal, además de molino también es vivienda. Ambos conservan todos los canales ya acueductos que llevaban el agua para poner en marcha el molino.;http://www.turismodevigo.org/sites/turismodevigo/files/lug125.jpg;421.582.897.739.415;-869.070.657.279.798;;es-ES
8504;Iglesia de Santo Estevo de Beade;lugares;37;Edificios singulares;Arquitectura religiosa;A Igrexa, s/n;36312;;;La iglesia actual data del siglo XVII. En su atrio se encuentra un crucero, de origen desconocido, que se situó en ese lugar alrededor del 1854.;http://www.turismodevigo.org/sites/turismodevigo/files/lug126.jpg;421.921.964.838.636;-870.648.379.353.185;;es-ES
8505;Iglesia de Santiago de Bembrive;lugares;37;Edificios singulares;Arquitectura religiosa;Parroquia de Bembrive;36313;;;Esta iglesia sufre varias modificaciones a lo largo de su historia. Las piedras trabajadas de sus muros hablan de la posible existencia de una edificación menor.;http://www.turismodevigo.org/sites/turismodevigo/files/lug128.jpg;422.038.660.672.611;-868.673.752.412.871;;es-ES
8506;Cristo do Cacheno;lugares;37;Edificios singulares;Arquitectura religiosa;Baruxáns, s/n;36214;;;El Cristo do Cacheno es uno de los cruceiros más sobresalientes de Galicia.;http://www.turismodevigo.org/sites/turismodevigo/files/lug129.jpg;42.206.352.898.672;-869.837.559.675.137;;es-ES
8507;Mámoas de Chan dos Touciños;lugares;41;Turismo urbano;Patrimonio arqueológico;Candeán;36217;;;En un radio de menos de cien metros fueron localizadas las cuatro mámoas conocidas como de Chan dos Touciños. Monumentos funerarios en los que, al menos en las tres primeras está al descubierto el acceso a la cámara megalitica.;http://www.turismodevigo.org/sites/turismodevigo/files/lug130.jpg;422.494.113.912.042;-86.665.618.445.203;;es-ES
8496;Reitorado da Universidade de Vigo;lugares;37;Edificios singulares;Arquitectura civil;Campus Universidade de Vigo;36310;;;Forma parte del conjunto de Lagoas-Marcosende (centro comercial, aulario y teatro) diseñado por el arquitecto Enric Miralles.;http://www.turismodevigo.org/sites/turismodevigo/files/lug117.jpg;42.170.191.153.903;-86.849.793.333.006;;es-ES
8495;Pazo de San Roque;lugares;37;Edificios singulares;Edificio histórico;San Roque;36204;;;Se trata de una propiedad privada no visitable aunque en la actualidad el parque de este magnífico edificio está abierto al público.;http://www.turismodevigo.org/sites/turismodevigo/files/lug116.jpg;422.272.026.817.145;-871.116.081.833.371;;es-ES
8494;Pazo de Rivera Atienza;lugares;37;Edificios singulares;Edificio histórico;Callejón de Rivera Atienza;36205;986261859;;Destacar la amplia solana que se abre en la fachada posterior del edificio así como el imponente portalón de entrada en el que hay un escudo ovalado.;;422.291.469.204.331;-869.810.573.715.797;;es-ES
8484;Iglesia Asilo das Irmanciñas dos Pobres;lugares;37;Edificios singulares;Arquitectura religiosa;Pi y Margall, nº 2;36202;;;El proyecto del edificio es de estilo neogótico y aparece firmado por el arquitecto Manuel Felipe Quintana en 1892, aunque las obras se terminaron en 1910.;http://www.turismodevigo.org/sites/turismodevigo/files/lug104.jpg;422.358.186.024.561;-872.897.226.962.498;;es-ES
8485;Iglesia de San Salvador de Coruxo;lugares;37;Edificios singulares;Arquitectura religiosa;Parroquia de Coruxo. Valle del Fragoso;36391;;;La actual iglesia fue, en su origen, una iglesia monasterial. Tiene planta basilical de tres naves y tres ábsides semicirculares, siendo el central más ancho y elevado.;http://www.turismodevigo.org/sites/turismodevigo/files/lug105.jpg;421.897.048.190.268;-877.532.564.412.162;;es-ES
8486;Iglesia de Santa Cristina;lugares;37;Edificios singulares;Arquitectura religiosa;Santa Cristina, s/n;36214;;;Iglesia de estilo románico, aunque desgraciadamente ha perdido gran parte de sus elementos románicos. Se lleva a cabo una remodelación en el último tercio del siglo XIX sobre el antiguo edificio.;http://www.turismodevigo.org/sites/turismodevigo/files/lug106.jpg;422.277.580.653.161;-869.560.585.941.034;;es-ES
8487;Iglesia de Santa María de Castrelos;lugares;37;Edificios singulares;Arquitectura religiosa;Rúa A Pastora;36213;;;Es el templo mejor conservado  del románico vigués, junto con la de Santiago de Bembrive y la de San Salvador de Corujo. Data del año 1216.;http://www.turismodevigo.org/sites/turismodevigo/files/lug107.jpg;422.105.307.739.239;-872.568.075.883.542;;es-ES
8488;Iglesia de Santiago O Maior;lugares;37;Edificios singulares;Arquitectura religiosa;Avda García Barbón, s/n;36201;;;Su elaboración se encarga a Manuel Felipe Quintana, quién en 1896 redacta definitivamente el proyecto. La iglesia tiene un corte medieval historicista;;;;;
8489;Paseo Avenida de Castelao;lugares;42;Jardines urbanos;Parque;Avda. de Castelao;36209;;;Constituye una importante zona verde en el núcleo de la ciudad dónde es posible practicar baloncesto en su cancha o simplemente pasear y relajarse.;http://www.turismodevigo.org/sites/turismodevigo/files/lug110.jpg;422.202.588.033.638;-873.949.315.574.245;;es-ES
8490;Pazo da Pastora;lugares;37;Edificios singulares;Edificio histórico;Rúa do Conde;36210;;;Se trata de una propiedad privada no visitable. Destaca el magnífico escudo de la fachada que presenta curiosos detalles escultóricos. La fachada suoreste data de 1815.;http://www.turismodevigo.org/sites/turismodevigo/files/lug111.jpg;422.205.364.372.103;-872.588.257.725.417;;es-ES
8491;Pazo da Raposeira;lugares;37;Edificios singulares;Edificio histórico;Raposeira;36214;;;Se trata de una propiedad privada no visitable. Se magnífica construcción en granito de dos plantas y con forma de U.;http://www.turismodevigo.org/sites/turismodevigo/files/lug112.jpg;422.155.363.924.702;-870.032.814.254.929;;es-ES
8492;Pazo de Castrelos;lugares;37;Edificios singulares;Edificio histórico;Parque de Castrelos;36213;986295075;;Fue declarado monumento histórico artístico desde 1955. En la actualidad es sede del Museo Municipal Quiñones de León en el que destaca la presencia de colecciones de Arqueología y de Pintura.;http://www.turismodevigo.org/sites/turismodevigo/files/lug113.jpg;42.213.311.575.337;-872.769.319.007.678;;es-ES
8493;Pazo de Ribeira;lugares;37;Edificios singulares;Edificio histórico;;36205;;;Se trata de una propiedad privada no visitable. El elemento más característico del pazo es el portalón.;;422.291.469.204.331;-869.810.573.715.797;;es-ES
8483;Grupo de Casas de Benito Sanjurjo;lugares;37;Edificios singulares;Arquitectura civil;Urzaiz, 11-23;36201;;;Grupo de siete casas promovidas por Benito Sanjurjo Ramírez de Arellano entre los años 1903-1912 y proyectadas por Michel Pacewicz y Jenaro de la Fuente Domínguez.;http://www.turismodevigo.org/sites/turismodevigo/files/lug103.jpg;422.357.032.808.222;-871.912.602.387.196;;es-ES
8508;Soportais do Berbés;lugares;37;Edificios singulares;Arquitectura civil;Praza da Constitución;36202;;;Declarados monumento histórico-artísticos el 8 de febrero de 1946. Su disposición recuerda las típicas calles santiaguesas. En su entorno destacan las edificaciones de corte marinero, casas pequeñas y pequeñas tabernas.;http://www.turismodevigo.org/sites/turismodevigo/files/lug132.jpg;422.374.477.173.206;-872.799.196.493.196;;es-ES
8522;Cruceiro do adro da Igrexa de Beade;lugares;37;Edificios singulares;Arquitectura religiosa;A Igrexa, s/n;36312;;;La cruz es lisa y tiene a Cristo crucificado, con tres clavos, piernas flexionadas y la cabeza inclinada hacia el lado derecho. En el reverso aparece la Piedad. Se conservan además dos cruces lisas en la entrada del atrio sobre el muro.;http://www.turismodevigo.org/sites/turismodevigo/files/lug147.jpg;421.921.825.359.277;-870.686.499.209.293;;es-ES
8523;Cruceiro do adro da igrexa de Bembrive;lugares;37;Edificios singulares;Arquitectura religiosa;A Igrexa, s/n;36313;;;En el anverso tiene a Cristo crucificado con tres clavos y atado, con una calavera y dos tibias cruzadas a sus pies. En el reverso tiene a la Piedad con gran volumen de ropajes y un cristo.;http://www.turismodevigo.org/sites/turismodevigo/files/lug148.jpg;422.038.285.339.502;-868.691.324.300.314;;es-ES
8524;Cruceiro da Igrexa de Sta Cristina de Lavadores;lugares;37;Edificios singulares;Arquitectura religiosa;Igrexa de Sta. Cristina de Lavadores;36214;;;Del crucero original sólo se conserva la cruz en la que se representa a Cristo crucificado con tres clavos, en posición rígida y los brazos paralelos.;http://www.turismodevigo.org/sites/turismodevigo/files/lug150.jpg;422.267.001.927.865;-869.693.779.009.189;;es-ES
8525;Vivendas para a Compañía Carbonera;lugares;37;Edificios singulares;Arquitectura civil;Plaza de Compostela, 6, 7, 9;36201;;;Destaca la falta de elementos decorativos y las formas redondeadas nos hablan de un estilo racionalista. Como material constructivo se utilizó granito blanco de grano fino, extraído de la sierra de Castrelos, y pulido en la superficie.;http://www.turismodevigo.org/sites/turismodevigo/files/lug151.jpg;422.390.503.843.608;-872.258.298.315.118;;es-ES
8526;Cruz da Costa;lugares;37;Edificios singulares;Arquitectura religiosa;A Costa, s/n;36213;;;Tiene representados los elementos de la pasión y la inscripción ilegible dentro de una cartela.;http://www.turismodevigo.org/sites/turismodevigo/files/lug152.jpg;422.087.102.951.328;-87.213.517.269.346;;es-ES
8527;Cruceiro do adro da Igrexa de San Pedro de Sárdoma;lugares;37;Edificios singulares;Arquitectura religiosa;Laxe, s/n;36214;;;Se muestra a Cristo crucificado, y en el reverso está la Piedad con una Virgen orando, ambas muy logradas y de ropajes amplios.;http://www.turismodevigo.org/sites/turismodevigo/files/lug153.jpg;422.174.646.237.223;-871.149.356.638.286;;es-ES
8528;Cruceiro de Laxe;lugares;37;Edificios singulares;Arquitectura religiosa;Laxe, s/n;36214;;;En él aparece representada la crucifixión y la Piedad.;http://www.turismodevigo.org/sites/turismodevigo/files/lug154.jpg;422.170.268.153.568;-87.144.378.659.146;;es-ES
8529;Cruceiro do barrio da Costa;lugares;37;Edificios singulares;Arquitectura religiosa;A Costa, s/n;36213;;;La cruz es lisa, y en el anverso tiene a Cristo crucificado con tres clavos y piernas flexionadas. En el reverso está representada la Piedad, que sostiene a Cristo con una mano sobre la cintura.;http://www.turismodevigo.org/sites/turismodevigo/files/lug155.jpg;422.102.396.641.093;-872.522.161.249.598;;es-ES
8530;Cruceiro de Tarrío;lugares;37;Edificios singulares;Arquitectura religiosa;Tarrío, s/n;36391;;;Se representa la crucifixión y en el reverso la Piedad con un querubín debajo.;http://www.turismodevigo.org/sites/turismodevigo/files/lug156.jpg;421.925.236.358.592;-877.395.438.965.384;;es-ES
8531;Cruceiro do adro da Igrexa de Oia;lugares;37;Edificios singulares;Arquitectura religiosa;A Igrexa, s/n;36390;;;En la cruz tiene representados símbolos de la Pasión, como el martillo y la escalera.;http://www.turismodevigo.org/sites/turismodevigo/files/lug157.jpg;421.826.712.522.109;-880.143.805.678.495;;es-ES
8532;Cruz de Freixal;lugares;37;Edificios singulares;Arquitectura religiosa;Fragoselo, s/n;36391;;;"Cuenta la tradición que la ubicación de la cruz viene dada porque allí murió una ""pescantina"" que venía de Camos y que por eso se colocó allí la cruz.";http://www.turismodevigo.org/sites/turismodevigo/files/lug158.jpg;421.824.445.991.478;-876.712.900.575.638;;es-ES
8521;Cruceiro de Zamáns;lugares;37;Edificios singulares;Arquitectura religiosa;Zamáns, s/n;36310;;;Se representa la Crucifixión con un Cristo inexpresivo y rígido. En el reverso aparece representada la Piedad con un pequeño Cristo entre las rodillas.;http://www.turismodevigo.org/sites/turismodevigo/files/lug146.jpg;421.547.396.137.659;-868.847.191.522.071;;es-ES
8520;Cruceiro do cemiterio de Bouzas;lugares;37;Edificios singulares;Arquitectura religiosa;Cemiterio de Bouzas;36213;;;La cruz es lisa y de sección cuadrangular. En el anverso tiene a Cristo crucificado con tres clavos. En el reverso tiene a la Piedad con una Virgen con las manos unidas y un Cristo de pequeñas dimensiones.;http://www.turismodevigo.org/sites/turismodevigo/files/lug145.jpg;422.130.995.587.747;-875.293.904.091.316;;es-ES
8509;Cruz de O Calvario de Candeán;lugares;37;Edificios singulares;Arquitectura religiosa;Candeán de Arriba, s/n;36217;;;Es una de las cruces que formaban parte del Vía Crucis.;http://www.turismodevigo.org/sites/turismodevigo/files/lug134.jpg;422.410.681.328.254;-866.895.100.150.479;;es-ES
8510;Cruz do lugar de Babío;lugares;37;Edificios singulares;Arquitectura religiosa;Babío, s/n;36312;;;"Se trata de un crucero atípico y que se parece más bien a una de las cruces que forman el ""Vía Crucis""";;421.923.785.641.791;-871.520.034.117.704;;es-ES
8511;Cruceiro do lugar de Cruceiro de Fragoselo;lugares;37;Edificios singulares;Arquitectura religiosa;Fragoselo, s/n;36391;;;Representa a Cristo crucificado, sujeto con tres clavos y las piernas flexionadas. Conserva restos de pintura azul en la cruz y parte del cuerpo.;http://www.turismodevigo.org/sites/turismodevigo/files/lug136.jpg;421.802.268.935.702;-876.403.120.158.451;;es-ES
8512;Cruz do Calvario de Cabral;lugares;37;Edificios singulares;Arquitectura religiosa;O Calvario, s/n;36218;;;Formaba parte del Vía Crucis, siendo posiblemente el punto final del mismo.Hoy en día aún se celebra la procesión de Viernes Santo hasta este lugar intentando conservar una tradición antigua.;http://www.turismodevigo.org/sites/turismodevigo/files/lug137.jpg;422.220.607.493.835;-865.538.439.794.432;;es-ES
8513;Cruz de Bouzós;lugares;37;Edificios singulares;Arquitectura religiosa;A Luz, s/n;36391;;;Dice la tradición que los entierros paraban delante de ella y se rezaba allí.;http://www.turismodevigo.org/sites/turismodevigo/files/lug138.jpg;421.872.747.927.348;-876.812.829.873.881;;es-ES
8514;Conjuntos Parciales del barrio viejo de Vigo;lugares;37;Edificios singulares;Arquitectura civil;Vigo;36202;;;Conjunto urbano no declarado como conjunto histórico, pero que funciona como tal.;http://www.turismodevigo.org/sites/turismodevigo/files/lug139.jpg;422.377.493.254.884;-872.833.108.580.292;;es-ES
8515;Cruz do Adro da Igrexa de San Salvador de Teis;lugares;37;Edificios singulares;Arquitectura religiosa;A Igrexa, s/n;36216;;;Formó parte del Vía Crucis procesional alrededor de la iglesia.;http://www.turismodevigo.org/sites/turismodevigo/files/lug140.jpg;422.574.265.504.594;-868.646.769.896.455;;es-ES
8516;Cruceiro vello;lugares;37;Edificios singulares;Arquitectura religiosa;Cruceiro de Bouzas, s/n;36208;;;En el anverso se nos presenta la crucifixión con un Cristo con tres clavos. En el reverso se observa la coronación de la Virgen por dos ángeles y una Virgen encima de la luna y la serpiente.;http://www.turismodevigo.org/sites/turismodevigo/files/lug141.jpg;422.243.016.251.919;-875.002.217.444.147;;es-ES
8517;Cruceiro do interior do cemiterio de Matamá;lugares;37;Edificios singulares;Arquitectura religiosa;Pereiró, s/n;36213;;;"Destacar que en frente del crucero hay un ""Pousadoiro"" de ataúdes que data de 1953.";http://www.turismodevigo.org/sites/turismodevigo/files/lug142.jpg;421.994.404.900.707;-873.744.216.564.666;;es-ES
8518;Cruceiro do cemiterio de Candeán;lugares;37;Edificios singulares;Arquitectura religiosa;Cemiterio de Candeán;36217;;;La cruz tiene nudos imitando la madera y es de sección circular. Tiene como única representación a Cristo crucificado con tres clavos y la cabeza ladeada.;http://www.turismodevigo.org/sites/turismodevigo/files/lug143.jpg;422.420.044.363.674;-86.651.816.684.592;;es-ES
8519;Cruceiro do cemiterio de Santa Mariña de Cabral;lugares;37;Edificios singulares;Arquitectura religiosa;A Igrexa, s/n;36218;;;Se representa a un Cristo crucificado con tres clavos y la cabeza inclinada, las piernas flexionadas y los brazos oblicuos, dando la sensación de que ya estaba muerto en la cruz. Un ángel aparece suspendido en el aire.;http://www.turismodevigo.org/sites/turismodevigo/files/lug144.jpg;422.234.922.906.772;-865.725.609.794.702;;es-ES
8450;Casa Sanjurjo;lugares;37;Edificios singulares;Arquitectura civil;Plaza de Compostela, 20;36201;;;El edificio fue diseñado en 1906, por Pacewicz. Constituye una de las obras del arquitecto con más influencias parisinas.;http://www.turismodevigo.org/sites/turismodevigo/files/lug069.jpg;422.397.073.539.127;-872.119.494.846.791;;es-ES
8449;Casa Salvador Aranda Graña;lugares;37;Edificios singulares;Arquitectura civil;Concepción Arenal, 1;36201;;;El edificio fue diseñado en 1898 por Michel Pacewicz. Se trata de una casa de planta baja y dos pisos con tres áticos piramidales, y con óculos para la ventilación del bajocubierta.;http://www.turismodevigo.org/sites/turismodevigo/files/lug068.jpg;422.399.851.210.574;-872.091.718.757.219;;es-ES
8448;Casa Rosendo Silva;lugares;37;Edificios singulares;Arquitectura civil;Plaza de Compostela, 19;36201;;;El edificio fue diseñado en 1907 por Michel Pacewicz y Jenaro de la Fuente Domínguez. Su arquitectura es ecléctica hecha debido a las aportaciones de los arquitectos más famosos de la época.;http://www.turismodevigo.org/sites/turismodevigo/files/lug067.jpg;422.397.073.547.876;-872.091.718.621.402;;es-ES
8447;Casa Ramón Arbones;lugares;37;Edificios singulares;Arquitectura civil;Elduayen, 4;36202;;;El edificio fue diseñado en 1892 por Jenaro de la Fuente Domínguez. Fue edificada por el constructor Antonio González Romero.;http://www.turismodevigo.org/sites/turismodevigo/files/lug066.jpg;422.380.407.379.783;-872.702.794.684.211;;es-ES
8451;Casa Vicente Coma;lugares;37;Edificios singulares;Arquitectura civil;Urzaiz, 17;36201;;;El edificio fue diseñado en 1921 por el arquitecto Manuel Gómez Román. Destacan su buhardilla muy ornamentada, con dinteles en arco de medio punto y adornada con volutas.;http://www.turismodevigo.org/sites/turismodevigo/files/lug070.jpg;422.354.383.026.287;-871.851.551.251.621;;es-ES
8452;Casas de Oya;lugares;37;Edificios singulares;Arquitectura civil;García Barbón, nº 15, 17, 19;36201;;;Edificio de estilo ecléctico de corte francés y base neobarroca de fuerte simetría.;http://www.turismodevigo.org/sites/turismodevigo/files/lug071.jpg;422.371.216.818.802;-871.869.545.469.442;;es-ES
8453;Casas para Álvaro López Mora;lugares;37;Edificios singulares;Arquitectura civil;Colón, 29-31;36201;;;El edificio fue diseñado en 1908 por Jenaro de la Fuente Domínguez. El que lleva el número 29 fue modificado por José Franco Montes en 1917, que le añadió dos buhardillas laterales. Ambos edificios fueron concebidos bajo planteamientos eclécticos.;http://www.turismodevigo.org/sites/turismodevigo/files/lug072.jpg;422.363.741.625.086;-872.008.388.044.108;;es-ES
8454;Casas para Joaquín Pérez Boullosa;lugares;37;Edificios singulares;Arquitectura civil;Plaza de Compostela, 24;36201;;;"El edificio fue diseñado en 1910 por José Franco Montes. Es el máximo representante de las influencias de la arquitectura ""sezessionista vienesa"" en el modernismo vigués.";http://www.turismodevigo.org/sites/turismodevigo/files/lug073.jpg;422.397.073.519.461;-872.175.047.297.855;;es-ES
8455;Castelo de San Sebastián;lugares;37;Edificios singulares;Construcción histórica;Parque de O Castro;36202;;;De O Castelo de San Sebastián solamente quedan los muros del lado norte, con dos garitas porque un baluarte y dos medios baluartes que se conservaban fueron derribados para construir sobre ellos el palacio Consistorial.;http://www.turismodevigo.org/sites/turismodevigo/files/lug074.jpg;422.369.292.300.832;-872.674.951.134.173;;es-ES
8456;Castelo do Castro;lugares;37;Edificios singulares;Construcción histórica;Parque de O Castro;36203;;;Fue construido en el s. XVII, al mismo tiempo que las murallas de la ciudad y el castillo de San Sebastián, por los ingenieros militares, Juan Villarroel y Prado y los hermanos Carlos y Fernando de Grunemberg.;http://www.turismodevigo.org/sites/turismodevigo/files/lug075.jpg;422.325.876.576.669;-872.616.134.062.013;;es-ES
8457;Castro y Fortaleza;lugares;37;Edificios singulares;Construcción histórica;Monte O Castro;36202;;;En 1926, y de manera fortuita, se produjeron los primeros hallazgos en la zona de restos de un poblado castreño. Posteriormente se pusieron al descubierto un total de 45 construcciones pertenecientes al período que va desde el s. II- I a. d. C.;http://www.turismodevigo.org/sites/turismodevigo/files/lug076.jpg;422.319.488.180.429;-872.627.985.016.231;;es-ES
8446;Casa Prudencio Nandín;lugares;37;Edificios singulares;Arquitectura civil;Plaza de Compostela, 13, 14;36201;;;El edificio fue diseñado por Jenaro de la Fuente Domínguez y construido en dos fases: la primera en 1892 y la segunda en 1900, pero constituye un conjunto. Es un edificio ecléctico y muy ornamentado.;http://www.turismodevigo.org/sites/turismodevigo/files/lug065.jpg;422.391.407.513.262;-872.139.456.925.014;;es-ES
8445;Casa Pereira Castro;lugares;37;Edificios singulares;Arquitectura civil;Plaza de la Constitución, 8;36202;;;Edificio del siglo XVIII, perteneciente a la Casa Pereira. Como ornamento tiene tres escudos de la familia.;http://www.turismodevigo.org/sites/turismodevigo/files/lug064.jpg;422.385.812.930.542;-87.262.169.428.509;;es-ES
8435;El antiguo Rectorado de la Universidad de Vigo;lugares;37;Edificios singulares;Arquitectura civil;Areal, 46, Esquina A Oporto 1;36201;;;El edificio actual es el único que mantiene una alineación distinta de los demás inmuebles de esta calle, por cambios en el proyecto inicial de edificación de dicha calle.;http://www.turismodevigo.org/sites/turismodevigo/files/lug054.jpg;422.389.215.697.612;-871.640.863.513.712;;es-ES
8436;Casa González Salgado;lugares;37;Edificios singulares;Arquitectura civil;Avda. Montero Ríos, 30 y 32;36201;;;El edificio fue diseñado en 1908 por Jenaro de la Fuente Domínguez. Es un edificio ecléctico con cuatro plantas y desván también simétrico y un ancho cuerpo central, algo saliente, con cuatro vanos enmarcados en almohadillados.;http://www.turismodevigo.org/sites/turismodevigo/files/lug055.jpg;422.404.836.253.924;-872.154.031.049.172;;es-ES
8437;Casa Hermanos Suárez;lugares;37;Edificios singulares;Arquitectura civil;Avda. Montero Ríos, 2;36202;;;El edificio fue diseñado por José Franco Montes en 1920. Se trata de un edificio de bajo y tres plantas, como la mayoría de las edificaciones del Ensanche Olloqui. Fue construido por el contratista Antonio González Romero.;http://www.turismodevigo.org/sites/turismodevigo/files/lug056.jpg;422.402.661.735.249;-87.241.348.760.891;;es-ES
8438;Casa Ledo;lugares;37;Edificios singulares;Arquitectura civil;Porta do Sol;36202;;;"El edificio fue diseñado en 1893 por Jenaro de la Fuente Domínguez. Tiene tres fachadas y cinco plantas. La fachada principal, que da a la ""Porta do Sol"", destaca por tener el eje de simetría centralizado.";http://www.turismodevigo.org/sites/turismodevigo/files/lug057.jpg;422.380.727.872.859;-87.261.730.655.921;;es-ES
8439;Casa Manuel Millán;lugares;37;Edificios singulares;Arquitectura civil;Lepanto, 5;36201;;;El edificio fue diseñado en 1921 por Manuel Gómez Román, para vivienda de Manuel Millán. Lo más destacable son los capites ecléctico-clasicistas, que sirven de ejemplo para ver la primera etapa del eclecticismo en la ciudad viguesa.;http://www.turismodevigo.org/sites/turismodevigo/files/lug058.jpg;422.346.986.836.673;-871.589.624.169.174;;es-ES
8440;Casa Marcelino Barreras;lugares;37;Edificios singulares;Arquitectura civil;Velázquez Moreno, 15-17;36202;;;El edificio fue diseñado en 1882 por Domingo Rodríguez Sesmero para Marcelino Barreras. Es un edificio simétrico con un chaflán en el que destacan las galerías de fundición que sirven de amplios miradores.;http://www.turismodevigo.org/sites/turismodevigo/files/lug059.jpg;422.374.852.221.841;-872.175.046.051.426;;es-ES
8441;Casa Odriozola;lugares;37;Edificios singulares;Arquitectura civil;García Barbón, nº 4;36201;;;El edificio fue diseñado en dos etapas. En 1875, Alejandro Rodríguez Sesmero, firmó una planta baja y dos pisos;;;;;
8442;Casa para Manuel Bárcena Franco;lugares;37;Edificios singulares;Arquitectura civil;Policarpo Sanz, 24;36202;;;Realizado en granito de cantería, es un edificio de estilo ecléctico. Tiene una planta baja y tres pisos, y no presenta ninguna alteración en relación con el proyecto inicial.;http://www.turismodevigo.org/sites/turismodevigo/files/lug061.jpg;422.374.852.219.878;-872.202.822.271.768;;es-ES
8443;Casa para María Iglesias Curty;lugares;37;Edificios singulares;Arquitectura civil;Plaza de Compostela, 4, 5;36201;;;El edificio fue diseñado por Jenaro de la Fuente Álvarez en 1940. El proyecto es marcadamente racionalista con formas redondeadas y sin ornamentación.;http://www.turismodevigo.org/sites/turismodevigo/files/lug062.jpg;422.390.170.221.635;-872.313.865.500.889;;es-ES
8444;Casa Pedro Román;lugares;37;Edificios singulares;Arquitectura civil;Joaquín Yánez, 12;36202;;;El edificio fue diseñado en 1889 por Jenaro de la Fuente Domínguez. Hoy es la Biblioteca Central, pero anteriormente fue un edificio comercial y también albergó el casino vigués.;http://www.turismodevigo.org/sites/turismodevigo/files/lug063.jpg;422.390.421.169.541;-872.526.941.810.899;;es-ES
8434;Casa Estanislao Durán;lugares;37;Edificios singulares;Arquitectura civil;Príncipe, 41;36202;;;Edificio de estilo ecléctico con influencia francesa, remarcada por la presencia de la mansarda superior con una serie de guardillas decoradas con frontón curvo e volutas nos laterales.;http://www.turismodevigo.org/sites/turismodevigo/files/lug053.jpg;422.366.519.238.619;-872.175.045.497.292;;es-ES
8482;Garaxe Americano;lugares;37;Edificios singulares;Arquitectura civil;García Barbón, 29;36201;;;Este edificio fue construido para la venta de automóviles, pero su apariencia monumentalista es propia de cualquier edificación institucional de la época.;http://www.turismodevigo.org/sites/turismodevigo/files/lug102.jpg;422.372.074.680.702;-871.786.178.591.829;;es-ES
8472;Edificio Miguel Seijo Serodio;lugares;37;Edificios singulares;Arquitectura civil;Tomás Alonso, 224;36208;;;El edificio fue diseñado en 1945 por el arquitecto Francisco Castro Represas. Destacan dos balconadas corridas con balaustrada y un balcón semicircular.;http://www.turismodevigo.org/sites/turismodevigo/files/lug091.jpg;422.240.613.703.943;-875.152.901.488.072;;es-ES
8473;Edificio Natalio Sanchón;lugares;37;Edificios singulares;Arquitectura civil;Policarpo Sanz, 22;36202;;;El edificio fue diseñado en 1935 por el arquitecto Francisco Castro Represas.;http://www.turismodevigo.org/sites/turismodevigo/files/lug092.jpg;422.374.221.295.337;-872.295.035.617.771;;es-ES
8474;Edificio Núñez Berdiales;lugares;37;Edificios singulares;Arquitectura civil;Urzaiz, 42;36203;;;El edificio fue diseñado en 1905 por Pacewicz. Tiene una planta baja y tres altas.;http://www.turismodevigo.org/sites/turismodevigo/files/lug093.jpg;422.347.743.346.027;-871.760.818.145.824;;es-ES
8475;Edificio para Francisco Solleiro Negrete;lugares;37;Edificios singulares;Arquitectura civil;Policarpo Sanz, 21;36202;;;El edificio fue diseñado en 1891 por Manuel Felipe Quintana. Destaca la simetría de sus fachadas unidas por un chaflán con galerías en las dos últimas plantas.;http://www.turismodevigo.org/sites/turismodevigo/files/lug094.jpg;422.378.130.984.831;-872.205.686.545.205;;es-ES
8476;Edificio para Jesús Crespo Filgueira;lugares;37;Edificios singulares;Arquitectura civil;Cuba, 2, esquina a Urzaiz;36204;;;El edificio fue diseñado en 1938 por el arquitecto Francisco Castro Represas. Las obras de cantería fueron hechas por el maestro cantero Ángel García Martínez utilizando el granito blanco de la sierra de Castrelos y un acabado final de pulido.;http://www.turismodevigo.org/sites/turismodevigo/files/lug095.jpg;422.341.316.325.804;-871.591.627.783.067;;es-ES
8477;Edificio Simeón;lugares;37;Edificios singulares;Arquitectura civil;Porta do Sol, 6;36203;;;El edificio tiene tres pisos de los cuales el último es abuhardillado. La planta baja, dedicada al comercio, tiene un carácter suntuoso y monumental con una excelente cantería en granito.;http://www.turismodevigo.org/sites/turismodevigo/files/lug096.jpg;422.376.613.704.553;-872.500.908.910.496;;es-ES
8478;Facultade de Ciencias Económicas do Campus de Vigo;lugares;37;Edificios singulares;Arquitectura civil;Campus Universitario de Vigo;36310;;;Se trata de un edificio de vanguardia diseñado por Alfonso Penela Fernández.;http://www.turismodevigo.org/sites/turismodevigo/files/lug098.jpg;421.701.586.658.028;-86.809.168.804.034;;es-ES
8479;Fonte da Falperra;lugares;37;Edificios singulares;Arquitectura popular;Falperra;36202;;;Se trata de una fuente moderna pero coronada de monumentalidad barroca.;http://www.turismodevigo.org/sites/turismodevigo/files/lug099.jpg;422.352.630.711.676;-8.728.694.504.176;;es-ES
8480;Fonte da Praza da Princesa;lugares;37;Edificios singulares;Arquitectura popular;Plaza de la Princesa;36202;;;Se tiene constancia de su existencia desde el año 1889.;http://www.turismodevigo.org/sites/turismodevigo/files/lug100.jpg;422.383.505.548.749;-872.589.530.584.672;;es-ES
8481;Fonte Paseo Alfonso XII;lugares;37;Edificios singulares;Arquitectura popular;Alfonso XII;36202;;;Hay datos crónicas que ya hablan de su existencia en el año 1875 cuando el Faro de Vigo da la noticia de su construcción.;http://www.turismodevigo.org/sites/turismodevigo/files/lug101.jpg;422.366.519.046.258;-872.786.122.567.813;;es-ES
8471;Edificio do Hotel Universal;lugares;37;Edificios singulares;Arquitectura civil;Montero Ríos;36202;;www.marriott.com/hotels/travel/VGOPA-AC-Hotel-Palacio-Universal;El edificio se conserva igual que en el proyecto inicial y albergó el Hotel Universal, uno de los más conocidos de la ciudad, durante muchos años. Este hotel fue adquirido por la cadena AC, que llevó a cabo una remodelación interior.;http://www.turismodevigo.org/sites/turismodevigo/files/lug090.jpg;422.400.527.669.455;-872.469.973.988.995;;es-ES
8470;Edificio do Hotel Moderno;lugares;37;Edificios singulares;Arquitectura civil;Policarpo Sanz, 1;36203;;;Es una de las obras más emblemáticas de Michel Pacewicz y del eclecticismo del siglo XIX en la ciudad. Es conocido popularmente como íhotel El Modernoí por haber albergado, durante mucho tiempo, una instalación hotelera.;http://www.turismodevigo.org/sites/turismodevigo/files/lug089.jpg;422.380.727.935.561;-872.506.201.610.924;;es-ES
8458;Centro de Saúde de Coia;lugares;37;Edificios singulares;Arquitectura civil;Porriño, 5;36209;;;Fue construído en el año 1999 y es obra del arquitecto Alfonso Penela.;http://www.turismodevigo.org/sites/turismodevigo/files/lug077.jpg;422.170.394.737.805;-874.572.613.144.052;;es-ES
8460;Conjunto de los Molinos de Gontade;lugares;37;Edificios singulares;Arquitectura popular;Gontade;36391;;;Conjunto de 4 molinos, obra del siglo XVIII, perfectamente restaurados.;http://www.turismodevigo.org/sites/turismodevigo/files/lug079.jpg;421.919.270.150.979;-878.421.413.685.596;;es-ES
8461;Edificio Albo;lugares;37;Edificios singulares;Arquitectura civil;Gran Vía, 2, esquina a Urzaiz;36203;;;Destaca la gran monumentalidad y verticalidad del edificio, conferida por los volúmenes dispuestos en peldaños y rematados por una escultura hecha por Jesús Picón, copia de la Victora de Samotracia.;http://www.turismodevigo.org/sites/turismodevigo/files/lug080.jpg;422.345.651.035.536;-871.681.303.844.016;;es-ES
8462;Edificio Banca Viñas-Aranda;lugares;37;Edificios singulares;Arquitectura civil;Reconquista, 9-11;36201;;;El edificio fue diseñado en 1941 por Antonio Palacios Ramilo.;http://www.turismodevigo.org/sites/turismodevigo/files/lug081.jpg;422.384.565.533.443;-872.334.588.807.285;;es-ES
8463;Edificio Banco de España;lugares;37;Edificios singulares;Arquitectura civil;Policarpo Sanz, 15;36202;;;El edificio fue diseñado en 1938 por el arquitecto Romualdo de Madariaga. Todo el edificio tiene amplios ventanales con arcos de medio punto y unos vanos enmarcados con saliente y decorados.;http://www.turismodevigo.org/sites/turismodevigo/files/lug082.jpg;422.377.629.855.468;-872.286.151.079.495;;es-ES
8464;Edificio Bonín;lugares;37;Edificios singulares;Arquitectura civil;Areal, 42 , esquina Oporto 2;36201;;;Es una de las principales obras del autor en la ciudad que se conserva íntegra. Es de estilo ecléctico y está compuesta por una planta baja y tres pisos. La ornamentación es de un recargado barroquismo.;http://www.turismodevigo.org/sites/turismodevigo/files/lug083.jpg;422.389.215.689.955;-871.668.639.756.985;;es-ES
8465;Edificio comercial de Príncipe;lugares;37;Edificios singulares;Arquitectura civil;Príncipe 5 y Policarpo Sanz 8;36202;;;Edificio comercial proyectado por Jenaro de la Fuente Álvarez a finales de la década de los años 20.;http://www.turismodevigo.org/sites/turismodevigo/files/lug084.jpg;422.376.581.380.734;-872.087.777.735.032;;es-ES
8466;Edificio comercial para José González;lugares;37;Edificios singulares;Arquitectura civil;Marqués de Valadares, 23;36201;;;El edificio fue diseñado en 1949 por el arquitecto Francisco Castro Represas. Lo más destacable son los numerosos y amplios ventanales separados por delgadas pilastras.;http://www.turismodevigo.org/sites/turismodevigo/files/lug085.jpg;422.384.317.328.684;-872.210.223.942.349;;es-ES
8467;Edificio da Equitativa;lugares;37;Edificios singulares;Arquitectura civil;Marqués de Valadares, 21;36201;;;El edificio fue diseñado en 1948 por el arquitecto Manuel Cabanyens y Mata. Es un ejemplo de la arquitectura academicista monumentalista, aunque tiene algunas formas clasicistas.;http://www.turismodevigo.org/sites/turismodevigo/files/lug086.jpg;422.384.565.540.258;-872.306.812.524.044;;es-ES
8468;Edificio da Escola de Artes e Oficios de Vigo;lugares;37;Edificios singulares;Arquitectura civil;García Barbón, 5;36201;;;El edificio fue construido en dos etapas. En la primera se construye la fachada principal de la calle García Barbón y el primer tramo de la calle Pontevedra;;;;;
8469;Edificio de Peritos;lugares;37;Edificios singulares;Arquitectura civil;Conde de Torrecedeira, 86;36202;;;Edificio construido entre 1931-194 1 y proyectado por Jenaro de la Fuente Álvarez. Pertenecen ya a un eclecticismo academicista que se impuso entre los arquitectos vigueses en la segunda y tercera década del s. XX.;http://www.turismodevigo.org/sites/turismodevigo/files/lug088.jpg;4.222.859.172.522;-873.338.215.000.662;;es-ES
8399;Espacio Colección Caixanova;lugares;38;Museos;Arquitectura civil;Policarpo Sanz, 24-26, 1ª pl.;36202;986120078;;En el es posible realizar un recorrido por las distintas corrientes pictóricas y escultóricas surgidas de artistas gallegos durante los últimos 150 años.;http://www.turismodevigo.org/sites/turismodevigo/files/lug017.jpg;422.374.597.694.273;-872.232.907.700.858;;es-ES
8398;Casa das Artes;lugares;38;Museos;Arquitectura civil;Policarpo Sanz, nº 15;36202;986439525;;Fue concebido como Banco de España hasta que, a mediados de la década de los 80, el Ministerio de Economía y Hacienda decide eliminar todas las sucursales que no estén en capitales de provincia, pasando a formar parte del patrimonio municipal.;http://www.turismodevigo.org/sites/turismodevigo/files/lug016.jpg;422.378.259.966.466;-872.283.821.203.541;;es-ES
8397;Vigo Zoo;lugares;41;Turismo urbano;Zoológico;Monte da Madroa s/n;36216;;;Tiene una extensión de 55.676 m2 ampliables en los que se desarrollan una gran variedad de actividades dirigidas a la enseñanza, divulgación, investigación, turismo, ocio, investigación y conservación de especies.;http://www.turismodevigo.org/sites/turismodevigo/files/lug015.jpg;42.248.555.591.232;-867.511.870.901.679;;es-ES
8396;Barrio de Bouzas;lugares;41;Turismo urbano;Arquitectura civil;Bouzas;36208;;;Destacan las casas marineras de tipología tradicional formando un entramado urbano típico de la Galicia litoral.;http://www.turismodevigo.org/sites/turismodevigo/files/lug014.jpg;422.254.735.168.679;-875.389.949.126.066;;es-ES
8400;Fundación Laxeiro;lugares;38;Museos;Fundación;Rúa Policarpo Sánz, 15 3º;36202;986438475;www.laxeiro.es;Pretende la difusión, conservación y catalogación de al obra del pintor José Otero Abeledo, Laxeiro así como el apoyo y difusión del arte contemporáneo y de nuevos creadores.;http://www.turismodevigo.org/sites/turismodevigo/files/lug018.jpg;422.378.259.966.466;-872.283.821.203.541;;es-ES
8401;Fundación Liste - Museo Liste;lugares;38;Museos;Museo;Pastora, 22;36210;;;Programación de actividades y talleres dirigidos a este escolares y adultos, también disponemos de fichas de trabajo y diverso material didáctico adaptado. Se realizan udiciones, proyecciones audiovisuales, campamentos, investigaciónes, etc.;http://www.turismodevigo.org/sites/turismodevigo/files/lug019.jpg;422.178.562.777.952;-873.105.330.766.909;;es-ES
8403;Museo Anfaco da Industria Conserveira;lugares;38;Museos;Arquitectura civil;Ctra. Colexio Universitario, 16;36310;;;Con la creación de este centro pretende mostrar un recorrido centenario sobre los hitos históricos que han caracterizado el nacimiento del sector empresarial conservero, primero desde la Ría de Vigo, hasta convertirse en un referente nacional.;http://www.turismodevigo.org/sites/turismodevigo/files/lug021.jpg;421.683.750.623.723;-86.866.947.508.932;;es-ES
8404;Museo do Mar de Galicia;lugares;38;Museos;Museo didáctico;Avda. Atlántida, nº 160;36208;986247750;www.museodomar.com;Un lugar donde comprender la enorme vinculación histórica de los gallegos con el mar a través de su aprovechamiento y conocimiento.;http://www.turismodevigo.org/sites/turismodevigo/files/lug022.jpg;422.240.067.201.781;-877.015.868.495.418;;es-ES
8407;Museo de Arte Deportivo;lugares;38;Museos;Arquitectura civil;Avda. Balaidos. Estadio Municipal;36210;986297101;;El Museo Deportivo se inauguró el 12 de marzo de 1999 y abarca toda la historia del Real Club Celta desde su nacimiento, en 1923 con la fusión del Real Vigo Sporting Club y el Real Fortuna, hasta nuestros días.;http://www.turismodevigo.org/sites/turismodevigo/files/lug025.jpg;42.213.636.825.766;-873.725.559.300.173;;es-ES
8395;Parque lineal Río Lagares;lugares;42;Jardines urbanos;Parque;;36213;;;Un paseo por este parque nos permite observar una gran diversidad de aves por estar próximo a la desembocadura del río Lagares.;http://www.turismodevigo.org/sites/turismodevigo/files/lug013.jpg;42.206.926.131.724;-87.522.706.947.625;;es-ES
8394;Parque Forestal de Coruxo;lugares;43;Parques forestales;Parque;Coruxo;36391;;;Se trata de un gran espacio verde situado en las proximidades de la ciudad de Vigo. En los 20000 metros cuadrados de superficie que ocupa encontraremos: fuente, mirador, mesas y barbacoas.;http://www.turismodevigo.org/sites/turismodevigo/files/lug012.jpg;421.775.784.610.625;-877.763.229.577.193;;es-ES
8384;Parque de Castrelos e Xardíns de Quiñones de León;lugares;42;Jardines urbanos;Parque;Avda. Castrelos;36213;;;Integra los jardines históricos y bosque del pazo, el estanque moderno, la arboleda de Castrelos y una parte del Paseo del Lagares.;http://www.turismodevigo.org/sites/turismodevigo/files/lug002.jpg;422.133.145.495.391;-872.921.592.597.079;;es-ES
8387;Parque de la Guía;lugares;42;Jardines urbanos;Parque;Avda. Doña Fermina, s/n;36207;;;Este parque tiene una extensión de 200.000 metros cuadrados y está situado en el barrio de Teis. En la cumbre se encuentra la ermita de Nuestra Señora de las Nieves desde donde se divisa una preciosa vista de la Ría de Vigo y de la ciudad.;http://www.turismodevigo.org/sites/turismodevigo/files/lug005.jpg;422.569.235.758.019;-870.116.067.148.812;;es-ES
8388;Parque de la Riouxa;lugares;42;Jardines urbanos;Parque;Teis;36216;;;Este parque tiene una extensión de 59.700 metros cuadrados y se encuentra en la parroquia de Teis. Tiene una gran superficie no arbolada y en la parte inferior del parque tiene un pequeño anfiteatro donde se celebran las fiestas y otras actuaciones.;http://www.turismodevigo.org/sites/turismodevigo/files/lug006.jpg;422.583.122.301.686;-868.171.692.439.986;;es-ES
8389;Parque Do Castro;lugares;42;Jardines urbanos;Parque;Vigo;36203;;;Se trata de un parque situado en el centro de la ciudad de Vigo. El monte de O Castro es uno de los parques más frecuentados de la ciudad y un símbolo para todos los vigueses.;http://www.turismodevigo.org/sites/turismodevigo/files/lug007.jpg;422.329.844.043.402;-872.564.376.013.243;;es-ES
8390;Parque Forestal Monte dos Pozos;lugares;43;Parques forestales;Parque;As Barrocas, Valadares;36204;;;El Parque Forestal ocupa unas 11 hectáreas de extensión permitiendo a los vigueses disfrutar de una excepcional vista sobre su ciudad y sobre su ría, aparte de permitirle realizar multitud de actividades en el magnífico marco natural que ofrece.;http://www.turismodevigo.org/sites/turismodevigo/files/lug008.jpg;421.808.901.710.965;-873.786.073.616.735;;es-ES
8391;Parque Forestal de Saiáns;lugares;43;Parques forestales;Parque;Saiáns;36390;;;Se trata de un gran espacio verde situado en las proximidades de la ciudad de Vigo. En los 23500 metros cuadrados de superficie que ocupa encontraremos: bar, restuarante, fuente, mirador, teléfono público, mesas, barbacoas y autobús (linea 26).;http://www.turismodevigo.org/sites/turismodevigo/files/lug009.jpg;42.169.752.859.578;-878.833.471.424.756;;es-ES
8392;Parque Forestal de Oia;lugares;43;Parques forestales;Parque;Oia;36390;;;Se trata de un gran espacio verde situado en las proximidades de la ciudad de Vigo. En los 39700 metros cuadrados de superficie que ocupa encontraremos: zona de acampada, fuente, mirador, mesas y barbacoas;http://www.turismodevigo.org/sites/turismodevigo/files/lug010.jpg;421.757.236.880.917;-879.576.318.559.623;;es-ES
8393;Parque Forestal Monte Alba-Cepudo;lugares;43;Parques forestales;Parque;Valadares;36315;;;Se trata de un gran espacio verde situado en las proximidades de la ciudad de Vigo. En los 42000 metros cuadrados de superficie que ocupa encontraremos: bar, restuarante, fuente, mirador, teléfono público y barbacoas.;http://www.turismodevigo.org/sites/turismodevigo/files/lug011.jpg;421.686.547.462.229;-87.331.224.052.176;;es-ES
8408;Antiga Casa do Concello de Vigo;lugares;37;Edificios singulares;Arquitectura civil;Plaza de la Constitución;36202;;;El edificio fue diseñado en 1859-1860 por José María Ortiz. En la actualidad alberga una sala de exposiciones y la biblioteca de la Fundación Penzol, pero anteriormente fue la Casa Consistorial.;http://www.turismodevigo.org/sites/turismodevigo/files/lug026.jpg;422.383.477.852.914;-872.576.261.424.091;;es-ES
8409;Antigo edificio da Caixa de Aforros;lugares;37;Edificios singulares;Arquitectura civil;Velázquez Moreno, 53;36202;;;Es un edificio de corte clásico academicista con un potente zócalo, elevadas pilastras uqe abarcan las dos plantas, zapaas decoradas con elementos vegetales, alquitrabe y una pronunciada cornisa que abarca todo el edificio.;http://www.turismodevigo.org/sites/turismodevigo/files/lug027.jpg;422.369.296.902.849;-872.175.045.763.319;;es-ES
8410;Banco de Vigo;lugares;35;Puntos de información turística;Arquitectura civil;Colón, esquina Policarpo Sanz;36202;;;"El edificio fue diseñado or Manuel Gómez Román entre 1919-1923 siguiendo el estilo modernista pero con los matices propios del ""secesionism vienés"".";http://www.turismodevigo.org/sites/turismodevigo/files/lug028.jpg;422.378.485.421.046;-87.205.428.336.653;;es-ES
8423;Casa de Francisca Alfaya;lugares;37;Edificios singulares;Arquitectura civil;Carral, 7, 9;36202;;;El edificio fue diseñado en 1901, por Benito Gómez Román. Se trata de una obra con abundantes formas neogóticas y neorrománicas.;http://www.turismodevigo.org/sites/turismodevigo/files/lug042.jpg;42.238.988.195.287;-872.458.585.151.493;;es-ES
8424;Casa de Joaquín de Miguel;lugares;37;Edificios singulares;Arquitectura civil;Marqués de Valadares, 37;36201;;;El edificio fue diseñado por Manuel Gómez Román en 1928 para Joaquín de Miguel. Lo más destacado es su puerta de acceso enmarcada por dos pilastras lisas con aristas en las esquinas y un frontón en la parte superior.;http://www.turismodevigo.org/sites/turismodevigo/files/lug043.jpg;422.384.094.317.048;-872.134.205.215.534;;es-ES
8425;Casa de Manuel Blanco García;lugares;37;Edificios singulares;Arquitectura civil;Areal, 8, 10, 12 Y 14;36201;;;El edificio fue diseñado en 1879 por Alejandro Rodríguez Sesmero. Se trata de un edificio con siete casas cuya fachada está tratada como única edificación.;http://www.turismodevigo.org/sites/turismodevigo/files/lug044.jpg;422.391.518.253.007;-872.008.389.554.333;;es-ES
8426;Casa de Pardo Labarta;lugares;37;Edificios singulares;Arquitectura civil;Porta do Sol, 11;36203;;;El edificio fue diseñado en 1911 por Jenaro de la Fuente Domínguez. Fue edificada por el maestro cantero José Araujo Pérez para el rico comerciante Pardo Labarta.;http://www.turismodevigo.org/sites/turismodevigo/files/lug045.jpg;422.379.343.827.681;-872.557.104.952.805;;es-ES
8427;Casa de Paulino Yáñez;lugares;37;Edificios singulares;Arquitectura civil;Plaza de Compostela, 12;36201;;;El edificio fue diseñado en 1900 por Michel Pacewicz. Es de estilo historicista con unas fachadas impresionantes, sobre todo la de la Plaza de Compostela.;http://www.turismodevigo.org/sites/turismodevigo/files/lug046.jpg;422.390.857.811.294;-872.173.426.718.392;;es-ES
8429;Casa de Saturnino García;lugares;37;Edificios singulares;Arquitectura civil;Plaza de Compostela, 31, 32,33;36202;;;El edificio fue diseñado en 1912 por Manuel Gómez Román. Es una edificación modernista en la que destaca el uso de azulejo decorado, sobre una piedra de grano grueso y algo terrosa en los cuerpos salientes.;http://www.turismodevigo.org/sites/turismodevigo/files/lug048.jpg;422.395.251.443.102;-872.435.413.798.361;;es-ES
8430;Casa Diego Arias Taboada;lugares;37;Edificios singulares;Arquitectura civil;Abeleira Menéndez, 8;36202;;;Edificio de características barrocas por sus recercados, cornisa y ménsulas escalonadas sobre las que descansan pequeños balcones.;http://www.turismodevigo.org/sites/turismodevigo/files/lug049.jpg;422.378.727.803.196;-872.599.658.989.732;;es-ES
8431;Casa Eligio Prieto Iglesias;lugares;37;Edificios singulares;Arquitectura civil;Príncipe, 12;36203;;;El edificio fue diseñado en 1925 por Jenaro de la Fuente Álvarez. Destaca por su decoración, sobre todo en las dos plantas superiores.;http://www.turismodevigo.org/sites/turismodevigo/files/lug050.jpg;42.237.661.371.759;-872.417.579.894.346;;es-ES
8432;Casa Enrique Lagos;lugares;37;Edificios singulares;Arquitectura civil;Policarpo Sanz, 19;36202;;;El edificio fue diseñado en 1901 por Michel Pacewicz. Destaca por la preciosa labra de su cantería y su empinada cubierta con una esbelta buhardilla central.;http://www.turismodevigo.org/sites/turismodevigo/files/lug051.jpg;42.237.762.985.959;-872.258.374.858.253;;es-ES
8422;Casa de Felipe Collazo;lugares;37;Edificios singulares;Arquitectura civil;Avda de Montero Ríos, 38;36201;;;El edificio fue diseñado en 1904 por Jenaro de la Fuente Domínguez. Tiene cuatro plantas y un chaflán que sirve de eje de simetría entre sus dos fachadas.;http://www.turismodevigo.org/sites/turismodevigo/files/lug041.jpg;422.404.836.271.025;-872.126.254.846.485;;es-ES
8421;Casa de Donesteve Quirós;lugares;37;Edificios singulares;Arquitectura civil;Joaquín Yánez, 12;36202;;;El edificio fue diseñado en 1876 por Alejandro Rodríguez Sesmero. Lo más destacable es la balaustrada de círculos entrelazados con jarrones sobre pedestales, que corona las dos fachadas.;http://www.turismodevigo.org/sites/turismodevigo/files/lug040.jpg;422.392.878.356.784;-872.501.324.693.812;;es-ES
8420;Casa de Domingo Davila;lugares;37;Edificios singulares;Arquitectura civil;Plaza de Compostela, 21;36201;;;El edificio fue diseñado por Manuel Gómez Román en 1942 para Domingo Davila. Destaca su puerta de acceso, enmarcada por aristas sobresalientes de la piedra lisa.;http://www.turismodevigo.org/sites/turismodevigo/files/lug039.jpg;422.391.518.228.393;-87.207.783.005.387;;es-ES
8411;Biblioteca Universitaria de Vigo;lugares;37;Edificios singulares;Biblioteca;Campus Universidade de Vigo;36310;986813853;www.uvigo.es/uvigo_gl/administracion/biblioteca/;Presente físicamente en los tres campus, la Biblioteca Universitaria cuenta en cada uno de ellos con una biblioteca central y varias salas repartidas por las escuelas y facultades que componen la Universidad.;http://www.turismodevigo.org/sites/turismodevigo/files/lug029.jpg;421.692.802.895.494;-868.366.618.107.154;;es-ES
8412;Casa Acuña Soaje;lugares;37;Edificios singulares;Arquitectura civil;Policarpo Sanz, 23;36202;;;El edificio fue diseñado en 1897 por Pacewicz. La fachada del edificio tiene abundantes miradores y galerías de formas afiligranadas metálicas y muy decoradas.;http://www.turismodevigo.org/sites/turismodevigo/files/lug030.jpg;42.237.813.099.648;-87.217.791.030.184;;es-ES
8413;Casa Bárcena;lugares;37;Edificios singulares;Arquitectura civil;Real, 14;36202;;;El edificio fue diseñado en 1863 por Manuel de Uceda. Su estilo es ecléctico clasicista con reminiscencias del renacimiento italiano.;http://www.turismodevigo.org/sites/turismodevigo/files/lug031.jpg;422.391.849.378.605;-872.749.134.255.561;;es-ES
8414;Casa Bernardo Rodríguez López;lugares;37;Edificios singulares;Arquitectura civil;Colón, 42;36202;;;El edificio fue diseñado en 1883 por Jenaro de la Fuente Domínguez. La parte alta tiene un reloj rodeado de orlas y guirnaldas y está flanqueado por dos jarrones sobre pedestales a cada lado.;http://www.turismodevigo.org/sites/turismodevigo/files/lug032.jpg;422.361.293.963.355;-872.049.175.111.747;;es-ES
8415;Casa da rúa Carral;lugares;37;Edificios singulares;Arquitectura civil;Carral, 15;36202;;;El edificio fue diseñado en 1898 por Benito Gómez Román y pertenece a familiares de éste.;http://www.turismodevigo.org/sites/turismodevigo/files/lug033.jpg;42.238.988.195.287;-872.458.585.151.493;;es-ES
8416;Casa de Araujo;lugares;37;Edificios singulares;Arquitectura civil;Real, 33;36202;;;Casa construida en el siglo XVIII con dos fachadas hechas con sillería apiconada, la que da a la rúa Alta y cincelada la que da a la rúa Real.;;422.386.300.667.068;-872.860.261.002.805;;es-ES
8417;Casa de Ceta o de Arines;lugares;37;Edificios singulares;Arquitectura civil;Real, 17;36202;;;Casa sencilla construida con sillares de piedra. Destaca por su escudo señorial;http://www.turismodevigo.org/sites/turismodevigo/files/lug035.jpg;422.389.968.976.134;-872.752.246.902.661;;es-ES
8418;Casa de Benigno y Camilo Fernández;lugares;37;Edificios singulares;Arquitectura civil;Urzáiz, 28;36203;;;El edificio fue diseñado en 1913 por Jenaro de la Fuente Domínguez. El edificio es eclecticista pero incorpora elementos decorativos propios del modernismo que se estaban difundiendo.;http://www.turismodevigo.org/sites/turismodevigo/files/lug036.jpg;422.351.379.684.867;-871.846.792.584.939;;es-ES
8419;Casa de Correos y Telégrafos de Vigo;lugares;37;Edificios singulares;Arquitectura civil;Plaza de Compostela;36201;;;El edificio fue diseñado en 1920 por Manuel Gómez Román. Es una construcción sencilla, con una planta baja, tres altas y un torreón sobre el chaflán.;http://www.turismodevigo.org/sites/turismodevigo/files/lug038.jpg;42.238.964.629.033;-872.342.947.344.299;;es-ES
8383;Parque Camilo José Cela;lugares;42;Jardines urbanos;Parque;Pi y Margall y Torrecedeira;36202;;;Este parque tiene una extensión de 7.000 m2 y está en el centro de Vigo, entre las calles Pi y Margall y Torrecedeira. Fue construido por Agustín Arca en honor al premio Nobel Camilo José Cela.;http://www.turismodevigo.org/sites/turismodevigo/files/lug001.jpg;422.322.026.576.291;-873.060.442.290.014;;es-ES
8578;Argazada;lugares;44;Playas;Playas;;36212;;;Playa de arena fina, resguardada del viento y con una ocupación alta en la época de verano. Su longitud aproximada es de 410 metros y está galardonada con la bandera azul.;http://www.turismodevigo.org/sites/turismodevigo/files/lug213.jpg;42.216.134.586.501;-877.597.442.099.225;;es-ES
8386;Parque de la Bouza;lugares;42;Jardines urbanos;Parque;Rúa Padre Seixas;36209;;;El parque de A Bouza cuenta con grandes áreas de paseo, jardines y estanques. El mayor tesoro que esconde es un espacio natural de 3.721 metros cuadrados con 19 especies diferentes de aves, erizos, reptiles y anfibios.;http://www.turismodevigo.org/sites/turismodevigo/files/lug004.jpg;422.133.433.831.844;-87.474.140.369.344;;es-ES
8405;Museo Francisco Fernández del Riego;lugares;38;Museos;Colección de arte;Praza da Princesa, 2;36203;986226459;;En 1995 Francisco Fernández del Riego (Vilanova de Lourenzá, 1913) hace donación de sus fondos bibliográficos, documentales y artísticos a la ciudad de Vigo, ciudad en la que vive y trabaja.;http://www.turismodevigo.org/sites/turismodevigo/files/lug023.jpg;422.371.362.207.869;-872.685.999.824.154;;es-ES
