idpoi;title;layer;type;subcategoria;address;postcode;phone;web;description;image_uri;lat;lon;mp3_uri;lang
8402;MARCO. Museo de Arte Contemporánea de Vigo;lugares;38;Centro de arte contemporánea;Príncipe, 54;36202;986113900;www.marcovigo.com;MARCO no tiene colección permanente y funciona como centro de arte contemporáneo, con un programa de exposiciones temporales y un conjunto de actividades paralelas de las que el programa educativo es una parte esencial.;http://www.turismodevigo.org/sites/turismodevigo/files/lug020.jpg;422.359.738.934.723;-8.721.122.108.231.490;http://www.turismodevigo.org/sites/turismodevigo/files/09-museo_de_arte_contemporaneo_de_vigo_1.mp3;es-ES
8406;"Museo Municipal de Vigo ""Quiñones de León""";lugares;38;Arquitectura civil;Parque de Castrelos, s/n;36213;986295070;www.museodevigo.org;El museo municipal de Vigo íQuiñones de Leóní es una institución, dependiente del ayuntamiento de Vigo, encuadrada, actualmente, en Cultura, Fiestas y Museos.;http://www.turismodevigo.org/sites/turismodevigo/files/lug024.jpg;422.131.763.333.631;-8.727.810.303.803.150;http://www.turismodevigo.org/sites/turismodevigo/files/08-museo_quinones_de_leon.mp3;es-ES
8615;Villa Romana de Toralla;lugares;38;Yacimiento;Canido - Barrio Illa de Toralla - Carretera PO 324;36391;986810260;;La principal particularidad de este yacimiento, que data de los siglos IV y V después de Cristo, es que es la única villa de Galicia que está excavada íntegramente y puede ser visitada.;http://www.turismodevigo.org/sites/turismodevigo/files/lug250.jpg;421.962.806.038.844;-8.795.211.533.448.760;http://www.turismodevigo.org/sites/turismodevigo/files/04-villa_romana_de_toralla.mp3;es-ES
8622;Fundación Sales;lugares;38;Fundación;Avda. de Europa, 52;36212;986240882;www.fundacionsales.org;Un espacio íntimo, romántio, exótico y vital. Un refugio para el cuerpo y el espíritu de imprescindible visita.;http://www.turismodevigo.org/sites/turismodevigo/files/lug257.jpg;422.152.064.689.806;-876.319.669.812.673;;es-ES
8621;Fundación Pedro Barrié de la Maza;lugares;38;Fundación;Policarpo Sanz, 31;36203;986110220;;La Fundación Pedro Barrié de la Maza es una entidad sin ánimo de lucro, de carácter privado, dedicada a promover el desarrollo de Galicia desde una perspectiva global.;http://www.turismodevigo.org/sites/turismodevigo/files/lug256.jpg;422.378.264.247.316;-872.091.580.258.333;;es-ES
8613;O Castro de Vigo;lugares;38;Yacimiento;Monte O Castro;36202;;;íO Castro de Vigo. A Orixe da cidadeí es un yacimiento arqueológico de 1.800 metros cuadrados que incluye la reconstrucción de tres edificaciones castreñas de uno de los poblados más extensos y evolucionados de Galicia.;http://www.turismodevigo.org/sites/turismodevigo/files/lug248.jpg;422.317.763.288.229;-872.789.663.951.502;;es-ES
8614;Centro arqueológico Salinae;lugares;38;Yacimiento;Rosalía de Castro, 21;36201;986247691;www.museodomar.com/salinae/;La exposición propone un recorrido para conocer la historia de la única salina marina por evaporación solar conservada y musealizada de todo el Imperio Romano.;http://www.turismodevigo.org/sites/turismodevigo/files/lug249.jpg;422.383.185.372.312;-871.744.364.020.964;;es-ES
8616;Casa Galega da Cultura;lugares;38;Centro de estudio;Plaza de la Princesa;36202;986226459;;Centro en el que se concitan la programación de actividades artísticas y literarias con la existencia de un fondo bibliográfico y museográfico altamente cualificado en lo que se refiere al estudio de la realidad histórica y actual de Galicia.;http://www.turismodevigo.org/sites/turismodevigo/files/lug251.jpg;422.381.550.515.181;-872.605.800.374.697;;es-ES
8617;Archivo fotográfico Pacheco;lugares;38;Archivo;Policarpo Sanz, 15;36202;986435121;;El archivo Pacheco representa la más completa colección de recursos fotográficos de titularidad pública sobre la ciudad de Vigo.;http://www.turismodevigo.org/sites/turismodevigo/files/lug252.jpg;422.377.800.440.228;-872.294.674.960.066;;es-ES
8618;Centro Cultural Novagalicia;lugares;38;Centro Cultural;Policarpo Sanz, 13;36203;986828200;www.servinova.com;El 22 de marzo de 1984 se inaugura el Centro Cultural Caixanova, convirtiéndose en uno de los proyectos culturales más importantes realizados por una entidad bancaria en España.;http://www.turismodevigo.org/sites/turismodevigo/files/lug253.jpg;422.378.348.079.872;-872.342.271.126.004;;es-ES
8619;Centro Cultural Novagalicia;lugares;38;Centro Cultural;Policarpo Sanz, 21, 2º;36202;986815077;www.obrasocialncg.com;La Obra Social de Novagalicia tiene el objetivo de mejorar la calidad de vida de la población, fomentando la participación, el voluntariado, el asociacionismo y acercando las nuevas tecnologías al conjunto de la sociedad.;http://www.turismodevigo.org/sites/turismodevigo/files/lug254.jpg;422.377.928.866.386;-87.220.676.669.618;;es-ES
8620;Centro Social Novagalicia;lugares;38;Centro Social;Policarpo Sanz, 24-26;36203;986828200;www.coleccioncaixanova.com;Es un edificio multifuncional, concebido con el fin de que sus espacios puedan ser utilizados por entidades públicas y privadas, así como por organizaciones no gubernamentales que desempeñen actividades acordes con la filosofía del Centro.;http://www.turismodevigo.org/sites/turismodevigo/files/lug255.jpg;422.374.215.635.812;-872.251.540.931.047;;es-ES
8554;Verbum - Casa das Palabras;lugares;38;Casa de las palabras;Avda. de Samil, nº 17;36212;986240130;www.verbum.vigo.org;Museo interactivo sobre todos los ámbitos relacionados con la comunicación humana, diseñado como un espacio cultural, lúdico y divulgativo en el que los visitantes pueden participar de un modo activo en los elementos expositivos.;http://www.turismodevigo.org/sites/turismodevigo/files/lug189.jpg;422.128.101.707.506;-877.382.191.258.537;;es-ES
8399;Espacio Colección Caixanova;lugares;38;Arquitectura civil;Policarpo Sanz, 24-26, 1ª pl.;36202;986120078;;En el es posible realizar un recorrido por las distintas corrientes pictóricas y escultóricas surgidas de artistas gallegos durante los últimos 150 años.;http://www.turismodevigo.org/sites/turismodevigo/files/lug017.jpg;422.374.597.694.273;-872.232.907.700.858;;es-ES
8398;Casa das Artes;lugares;38;Arquitectura civil;Policarpo Sanz, nº 15;36202;986439525;;Fue concebido como Banco de España hasta que, a mediados de la década de los 80, el Ministerio de Economía y Hacienda decide eliminar todas las sucursales que no estén en capitales de provincia, pasando a formar parte del patrimonio municipal.;http://www.turismodevigo.org/sites/turismodevigo/files/lug016.jpg;422.378.259.966.466;-872.283.821.203.541;;es-ES
8400;Fundación Laxeiro;lugares;38;Fundación;Rúa Policarpo Sánz, 15 3º;36202;986438475;www.laxeiro.es;Pretende la difusión, conservación y catalogación de al obra del pintor José Otero Abeledo, Laxeiro así como el apoyo y difusión del arte contemporáneo y de nuevos creadores.;http://www.turismodevigo.org/sites/turismodevigo/files/lug018.jpg;422.378.259.966.466;-872.283.821.203.541;;es-ES
8401;Fundación Liste - Museo Liste;lugares;38;Museo;Pastora, 22;36210;;;Programación de actividades y talleres dirigidos a este escolares y adultos, también disponemos de fichas de trabajo y diverso material didáctico adaptado. Se realizan udiciones, proyecciones audiovisuales, campamentos, investigaciónes, etc.;http://www.turismodevigo.org/sites/turismodevigo/files/lug019.jpg;422.178.562.777.952;-873.105.330.766.909;;es-ES
8403;Museo Anfaco da Industria Conserveira;lugares;38;Arquitectura civil;Ctra. Colexio Universitario, 16;36310;;;Con la creación de este centro pretende mostrar un recorrido centenario sobre los hitos históricos que han caracterizado el nacimiento del sector empresarial conservero, primero desde la Ría de Vigo, hasta convertirse en un referente nacional.;http://www.turismodevigo.org/sites/turismodevigo/files/lug021.jpg;421.683.750.623.723;-86.866.947.508.932;;es-ES
8404;Museo do Mar de Galicia;lugares;38;Museo didáctico;Avda. Atlántida, nº 160;36208;986247750;www.museodomar.com;Un lugar donde comprender la enorme vinculación histórica de los gallegos con el mar a través de su aprovechamiento y conocimiento.;http://www.turismodevigo.org/sites/turismodevigo/files/lug022.jpg;422.240.067.201.781;-877.015.868.495.418;;es-ES
8407;Museo de Arte Deportivo;lugares;38;Arquitectura civil;Avda. Balaidos. Estadio Municipal;36210;986297101;;El Museo Deportivo se inauguró el 12 de marzo de 1999 y abarca toda la historia del Real Club Celta desde su nacimiento, en 1923 con la fusión del Real Vigo Sporting Club y el Real Fortuna, hasta nuestros días.;http://www.turismodevigo.org/sites/turismodevigo/files/lug025.jpg;42.213.636.825.766;-873.725.559.300.173;;es-ES
8405;Museo Francisco Fernández del Riego;lugares;38;Colección de arte;Praza da Princesa, 2;36203;986226459;;En 1995 Francisco Fernández del Riego (Vilanova de Lourenzá, 1913) hace donación de sus fondos bibliográficos, documentales y artísticos a la ciudad de Vigo, ciudad en la que vive y trabaja.;http://www.turismodevigo.org/sites/turismodevigo/files/lug023.jpg;422.371.362.207.869;-872.685.999.824.154;;es-ES
